{
  "type": "FeatureCollection",
  "features": [
    {
      "type": "Feature",
      "geometry": {
        "type": "LineString",
        "coordinates": [
          [
            -75.30016863406408,
            35.116059379217276
          ],
          [
            -75.29342327150084,
            35.116059379217276
          ],
          [
            -75.2866779089376,
            35.116059379217276
          ],
          [
            -75.27993254637437,
            35.116059379217276
          ],
          [
            -75.27993254637437,
            35.12280701754386
          ],
          [
            -75.27993254637437,
            35.12955465587044
          ],
          [
            -75.27993254637437,
            35.13630229419703
          ],
          [
            -75.27993254637437,
            35.14304993252362
          ],
          [
            -75.27993254637437,
            35.149797570850204
          ],
          [
            -75.27993254637437,
            35.15654520917679
          ],
          [
            -75.27993254637437,
            35.16329284750337
          ],
          [
            -75.27993254637437,
            35.17004048582996
          ],
          [
            -75.27993254637437,
            35.176788124156545
          ],
          [
            -75.27993254637437,
            35.18353576248313
          ],
          [
            -75.27993254637437,
            35.19028340080972
          ],
          [
            -75.27318718381113,
            35.19028340080972
          ],
          [
            -75.27318718381113,
            35.197031039136306
          ],
          [
            -75.2664418212479,
            35.197031039136306
          ],
          [
            -75.2664418212479,
            35.203778677462886
          ],
          [
            -75.25969645868466,
            35.203778677462886
          ],
          [
            -75.25969645868466,
            35.21052631578947
          ],
          [
            -75.25295109612142,
            35.21052631578947
          ],
          [
            -75.25295109612142,
            35.21727395411606
          ],
          [
            -75.24620573355818,
            35.21727395411606
          ],
          [
            -75.24620573355818,
            35.22402159244265
          ],
          [
            -75.23946037099495,
            35.22402159244265
          ],
          [
            -75.23946037099495,
            35.23076923076923
          ],
          [
            -75.2327150084317,
            35.23076923076923
          ],
          [
            -75.2327150084317,
            35.23751686909581
          ],
          [
            -75.2327150084317,
            35.2442645074224
          ],
          [
            -75.22596964586846,
            35.2442645074224
          ],
          [
            -75.22596964586846,
            35.25101214574899
          ],
          [
            -75.21922428330522,
            35.25101214574899
          ],
          [
            -75.21922428330522,
            35.257759784075574
          ],
          [
            -75.21922428330522,
            35.26450742240216
          ],
          [
            -75.21922428330522,
            35.27125506072875
          ],
          [
            -75.21247892074199,
            35.27125506072875
          ],
          [
            -75.21247892074199,
            35.27800269905533
          ],
          [
            -75.20573355817875,
            35.27800269905533
          ],
          [
            -75.19898819561551,
            35.27125506072875
          ],
          [
            -75.19898819561551,
            35.26450742240216
          ],
          [
            -75.19898819561551,
            35.257759784075574
          ],
          [
            -75.19898819561551,
            35.25101214574899
          ],
          [
            -75.19224283305228,
            35.2442645074224
          ],
          [
            -75.18549747048904,
            35.2442645074224
          ],
          [
            -75.1787521079258,
            35.2442645074224
          ],
          [
            -75.17200674536257,
            35.2442645074224
          ],
          [
            -75.16526138279933,
            35.2442645074224
          ],
          [
            -75.15851602023609,
            35.2442645074224
          ],
          [
            -75.15851602023609,
            35.25101214574899
          ],
          [
            -75.15177065767286,
            35.25101214574899
          ],
          [
            -75.14502529510962,
            35.25101214574899
          ],
          [
            -75.14502529510962,
            35.257759784075574
          ],
          [
            -75.13827993254637,
            35.257759784075574
          ],
          [
            -75.13153456998313,
            35.257759784075574
          ],
          [
            -75.13153456998313,
            35.26450742240216
          ],
          [
            -75.1247892074199,
            35.26450742240216
          ],
          [
            -75.1247892074199,
            35.27125506072875
          ],
          [
            -75.11804384485666,
            35.27125506072875
          ],
          [
            -75.11804384485666,
            35.27800269905533
          ],
          [
            -75.11129848229342,
            35.27800269905533
          ],
          [
            -75.11129848229342,
            35.284750337381915
          ],
          [
            -75.10455311973018,
            35.284750337381915
          ],
          [
            -75.10455311973018,
            35.2914979757085
          ],
          [
            -75.09780775716695,
            35.2914979757085
          ],
          [
            -75.09780775716695,
            35.29824561403509
          ],
          [
            -75.09106239460371,
            35.29824561403509
          ],
          [
            -75.09106239460371,
            35.304993252361676
          ],
          [
            -75.08431703204047,
            35.304993252361676
          ],
          [
            -75.08431703204047,
            35.311740890688256
          ],
          [
            -75.08431703204047,
            35.31848852901484
          ],
          [
            -75.07757166947724,
            35.31848852901484
          ],
          [
            -75.07757166947724,
            35.32523616734143
          ],
          [
            -75.070826306914,
            35.32523616734143
          ],
          [
            -75.070826306914,
            35.33198380566802
          ],
          [
            -75.06408094435076,
            35.33198380566802
          ],
          [
            -75.06408094435076,
            35.338731443994604
          ],
          [
            -75.05733558178753,
            35.338731443994604
          ],
          [
            -75.05733558178753,
            35.34547908232119
          ],
          [
            -75.05059021922429,
            35.34547908232119
          ],
          [
            -75.05059021922429,
            35.35222672064777
          ],
          [
            -75.04384485666105,
            35.35222672064777
          ],
          [
            -75.04384485666105,
            35.35897435897436
          ],
          [
            -75.0370994940978,
            35.35897435897436
          ],
          [
            -75.03035413153457,
            35.35897435897436
          ],
          [
            -75.03035413153457,
            35.365721997300945
          ],
          [
            -75.02360876897133,
            35.365721997300945
          ],
          [
            -75.02360876897133,
            35.37246963562753
          ],
          [
            -75.01686340640809,
            35.37246963562753
          ],
          [
            -75.01686340640809,
            35.37921727395412
          ],
          [
            -75.01011804384486,
            35.37921727395412
          ],
          [
            -75.01011804384486,
            35.3859649122807
          ],
          [
            -75.00337268128162,
            35.3859649122807
          ],
          [
            -75.00337268128162,
            35.392712550607285
          ],
          [
            -74.99662731871838,
            35.392712550607285
          ],
          [
            -74.98988195615514,
            35.392712550607285
          ],
          [
            -74.98988195615514,
            35.39946018893387
          ],
          [
            -74.98313659359191,
            35.39946018893387
          ],
          [
            -74.98313659359191,
            35.40620782726046
          ],
          [
            -74.97639123102867,
            35.40620782726046
          ],
          [
            -74.97639123102867,
            35.412955465587046
          ],
          [
            -74.96964586846543,
            35.412955465587046
          ],
          [
            -74.96964586846543,
            35.41970310391363
          ],
          [
            -74.96964586846543,
            35.42645074224021
          ]
        ]
      },
      "properties": {
        "length_km": 71.31,
        "pixel_count": 117,
        "algorithm": "mesoscale_gaussian_mutual_overlap"
      }
    },
    {
      "type": "Feature",
      "geometry": {
        "type": "LineString",
        "coordinates": [
          [
            -76.81112984822934,
            34.36707152496626
          ],
          [
            -76.8043844856661,
            34.36707152496626
          ],
          [
            -76.79763912310287,
            34.36707152496626
          ],
          [
            -76.79089376053963,
            34.36707152496626
          ],
          [
            -76.7841483979764,
            34.36707152496626
          ],
          [
            -76.77740303541316,
            34.36707152496626
          ],
          [
            -76.77065767284992,
            34.36707152496626
          ],
          [
            -76.76391231028668,
            34.36707152496626
          ],
          [
            -76.75716694772343,
            34.36707152496626
          ],
          [
            -76.7504215851602,
            34.36707152496626
          ],
          [
            -76.74367622259696,
            34.36707152496626
          ],
          [
            -76.73693086003372,
            34.36707152496626
          ],
          [
            -76.73018549747049,
            34.36707152496626
          ],
          [
            -76.72344013490725,
            34.36707152496626
          ],
          [
            -76.71669477234401,
            34.36707152496626
          ],
          [
            -76.70994940978078,
            34.36707152496626
          ],
          [
            -76.70320404721754,
            34.36707152496626
          ],
          [
            -76.6964586846543,
            34.36707152496626
          ],
          [
            -76.68971332209107,
            34.36707152496626
          ],
          [
            -76.68296795952783,
            34.36707152496626
          ],
          [
            -76.67622259696459,
            34.36707152496626
          ],
          [
            -76.66947723440136,
            34.36707152496626
          ],
          [
            -76.6627318718381,
            34.36707152496626
          ],
          [
            -76.65598650927487,
            34.36707152496626
          ],
          [
            -76.64924114671163,
            34.36707152496626
          ],
          [
            -76.6424957841484,
            34.36707152496626
          ],
          [
            -76.63575042158516,
            34.36707152496626
          ],
          [
            -76.62900505902192,
            34.36707152496626
          ],
          [
            -76.62225969645868,
            34.36707152496626
          ],
          [
            -76.61551433389545,
            34.36707152496626
          ],
          [
            -76.60876897133221,
            34.36707152496626
          ],
          [
            -76.60202360876897,
            34.36707152496626
          ],
          [
            -76.59527824620574,
            34.36707152496626
          ],
          [
            -76.5885328836425,
            34.36707152496626
          ],
          [
            -76.58178752107926,
            34.36707152496626
          ],
          [
            -76.57504215851603,
            34.36707152496626
          ],
          [
            -76.56829679595279,
            34.36707152496626
          ],
          [
            -76.56155143338954,
            34.36707152496626
          ],
          [
            -76.5548060708263,
            34.36707152496626
          ],
          [
            -76.54806070826307,
            34.36707152496626
          ],
          [
            -76.54131534569983,
            34.36707152496626
          ],
          [
            -76.53456998313659,
            34.36707152496626
          ],
          [
            -76.52782462057336,
            34.36707152496626
          ],
          [
            -76.52107925801012,
            34.36707152496626
          ],
          [
            -76.51433389544688,
            34.36707152496626
          ],
          [
            -76.50758853288364,
            34.36707152496626
          ],
          [
            -76.50084317032041,
            34.36707152496626
          ],
          [
            -76.49409780775717,
            34.36707152496626
          ],
          [
            -76.48735244519393,
            34.36707152496626
          ],
          [
            -76.4806070826307,
            34.36707152496626
          ],
          [
            -76.47386172006745,
            34.36707152496626
          ],
          [
            -76.46711635750421,
            34.36707152496626
          ],
          [
            -76.46037099494097,
            34.36707152496626
          ],
          [
            -76.45362563237774,
            34.36707152496626
          ],
          [
            -76.4468802698145,
            34.36707152496626
          ],
          [
            -76.44013490725126,
            34.36707152496626
          ],
          [
            -76.43338954468803,
            34.36707152496626
          ],
          [
            -76.42664418212479,
            34.36707152496626
          ],
          [
            -76.41989881956155,
            34.36707152496626
          ],
          [
            -76.41315345699832,
            34.36707152496626
          ],
          [
            -76.40640809443508,
            34.36707152496626
          ],
          [
            -76.39966273187184,
            34.36707152496626
          ],
          [
            -76.3929173693086,
            34.36707152496626
          ],
          [
            -76.38617200674537,
            34.36707152496626
          ],
          [
            -76.37942664418213,
            34.36707152496626
          ],
          [
            -76.37268128161888,
            34.36707152496626
          ],
          [
            -76.36593591905564,
            34.36707152496626
          ],
          [
            -76.35919055649241,
            34.36707152496626
          ],
          [
            -76.35244519392917,
            34.36707152496626
          ],
          [
            -76.34569983136593,
            34.36707152496626
          ],
          [
            -76.3389544688027,
            34.36707152496626
          ],
          [
            -76.33220910623946,
            34.36707152496626
          ],
          [
            -76.32546374367622,
            34.36707152496626
          ],
          [
            -76.31871838111299,
            34.36707152496626
          ],
          [
            -76.31197301854975,
            34.36707152496626
          ],
          [
            -76.30522765598651,
            34.36707152496626
          ],
          [
            -76.30522765598651,
            34.37381916329285
          ],
          [
            -76.30522765598651,
            34.38056680161943
          ],
          [
            -76.30522765598651,
            34.38731443994602
          ],
          [
            -76.30522765598651,
            34.394062078272604
          ],
          [
            -76.30522765598651,
            34.40080971659919
          ],
          [
            -76.30522765598651,
            34.40755735492578
          ],
          [
            -76.30522765598651,
            34.41430499325236
          ],
          [
            -76.30522765598651,
            34.421052631578945
          ],
          [
            -76.30522765598651,
            34.42780026990553
          ],
          [
            -76.30522765598651,
            34.43454790823212
          ],
          [
            -76.30522765598651,
            34.441295546558706
          ],
          [
            -76.29848229342328,
            34.441295546558706
          ],
          [
            -76.29848229342328,
            34.44804318488529
          ],
          [
            -76.29173693086004,
            34.44804318488529
          ],
          [
            -76.28499156829679,
            34.44804318488529
          ],
          [
            -76.28499156829679,
            34.45479082321187
          ],
          [
            -76.28499156829679,
            34.46153846153846
          ],
          [
            -76.27824620573355,
            34.46153846153846
          ],
          [
            -76.27824620573355,
            34.46828609986505
          ],
          [
            -76.27824620573355,
            34.475033738191634
          ],
          [
            -76.27824620573355,
            34.48178137651822
          ],
          [
            -76.27824620573355,
            34.48852901484481
          ],
          [
            -76.27824620573355,
            34.49527665317139
          ],
          [
            -76.27824620573355,
            34.502024291497975
          ],
          [
            -76.28499156829679,
            34.50877192982456
          ],
          [
            -76.29173693086004,
            34.502024291497975
          ],
          [
            -76.29848229342328,
            34.502024291497975
          ],
          [
            -76.30522765598651,
            34.502024291497975
          ]
        ]
      },
      "properties": {
        "length_km": 67.17,
        "pixel_count": 126,
        "algorithm": "mesoscale_gaussian_mutual_overlap"
      }
    },
    {
      "type": "Feature",
      "geometry": {
        "type": "LineString",
        "coordinates": [
          [
            -75.90725126475549,
            34.819163292847506
          ],
          [
            -75.90050590219224,
            34.819163292847506
          ],
          [
            -75.893760539629,
            34.819163292847506
          ],
          [
            -75.88701517706576,
            34.819163292847506
          ],
          [
            -75.88026981450253,
            34.819163292847506
          ],
          [
            -75.87352445193929,
            34.819163292847506
          ],
          [
            -75.86677908937605,
            34.819163292847506
          ],
          [
            -75.86003372681282,
            34.819163292847506
          ],
          [
            -75.85328836424958,
            34.819163292847506
          ],
          [
            -75.84654300168634,
            34.819163292847506
          ],
          [
            -75.8397976391231,
            34.819163292847506
          ],
          [
            -75.83305227655987,
            34.819163292847506
          ],
          [
            -75.82630691399663,
            34.819163292847506
          ],
          [
            -75.82630691399663,
            34.82591093117409
          ],
          [
            -75.82630691399663,
            34.83265856950067
          ],
          [
            -75.82630691399663,
            34.83940620782726
          ],
          [
            -75.82630691399663,
            34.84615384615385
          ],
          [
            -75.82630691399663,
            34.852901484480434
          ],
          [
            -75.82630691399663,
            34.85964912280702
          ],
          [
            -75.82630691399663,
            34.8663967611336
          ],
          [
            -75.8195615514334,
            34.8663967611336
          ],
          [
            -75.81281618887016,
            34.8663967611336
          ],
          [
            -75.80607082630692,
            34.8663967611336
          ],
          [
            -75.79932546374367,
            34.8663967611336
          ],
          [
            -75.79258010118043,
            34.8663967611336
          ],
          [
            -75.7858347386172,
            34.8663967611336
          ],
          [
            -75.77908937605396,
            34.8663967611336
          ],
          [
            -75.77234401349072,
            34.8663967611336
          ],
          [
            -75.76559865092749,
            34.8663967611336
          ],
          [
            -75.75885328836425,
            34.8663967611336
          ],
          [
            -75.75210792580101,
            34.8663967611336
          ],
          [
            -75.74536256323778,
            34.8663967611336
          ],
          [
            -75.73861720067454,
            34.8663967611336
          ],
          [
            -75.73861720067454,
            34.87314439946019
          ],
          [
            -75.7318718381113,
            34.87314439946019
          ],
          [
            -75.7318718381113,
            34.879892037786774
          ],
          [
            -75.72512647554807,
            34.879892037786774
          ],
          [
            -75.72512647554807,
            34.88663967611336
          ],
          [
            -75.72512647554807,
            34.89338731443995
          ],
          [
            -75.72512647554807,
            34.900134952766535
          ],
          [
            -75.72512647554807,
            34.906882591093115
          ],
          [
            -75.72512647554807,
            34.9136302294197
          ],
          [
            -75.72512647554807,
            34.92037786774629
          ],
          [
            -75.71838111298483,
            34.92037786774629
          ],
          [
            -75.71838111298483,
            34.927125506072876
          ],
          [
            -75.71163575042158,
            34.927125506072876
          ],
          [
            -75.70489038785834,
            34.927125506072876
          ],
          [
            -75.6981450252951,
            34.927125506072876
          ],
          [
            -75.6981450252951,
            34.93387314439946
          ],
          [
            -75.69139966273187,
            34.93387314439946
          ],
          [
            -75.68465430016863,
            34.93387314439946
          ],
          [
            -75.6779089376054,
            34.93387314439946
          ],
          [
            -75.6779089376054,
            34.94062078272604
          ],
          [
            -75.67116357504216,
            34.94062078272604
          ],
          [
            -75.66441821247892,
            34.94062078272604
          ],
          [
            -75.65767284991568,
            34.94062078272604
          ],
          [
            -75.65092748735245,
            34.94062078272604
          ],
          [
            -75.64418212478921,
            34.94062078272604
          ],
          [
            -75.64418212478921,
            34.94736842105263
          ],
          [
            -75.63743676222597,
            34.94736842105263
          ],
          [
            -75.63069139966274,
            34.94736842105263
          ],
          [
            -75.6239460370995,
            34.94736842105263
          ],
          [
            -75.6239460370995,
            34.95411605937922
          ],
          [
            -75.61720067453626,
            34.95411605937922
          ],
          [
            -75.61045531197301,
            34.95411605937922
          ],
          [
            -75.61045531197301,
            34.960863697705804
          ],
          [
            -75.60370994940978,
            34.960863697705804
          ],
          [
            -75.59696458684654,
            34.960863697705804
          ],
          [
            -75.59696458684654,
            34.96761133603239
          ],
          [
            -75.5902192242833,
            34.96761133603239
          ],
          [
            -75.58347386172007,
            34.96761133603239
          ],
          [
            -75.58347386172007,
            34.97435897435898
          ],
          [
            -75.57672849915683,
            34.97435897435898
          ],
          [
            -75.56998313659359,
            34.97435897435898
          ],
          [
            -75.56998313659359,
            34.98110661268556
          ],
          [
            -75.56323777403036,
            34.98110661268556
          ],
          [
            -75.56323777403036,
            34.987854251012145
          ],
          [
            -75.55649241146712,
            34.987854251012145
          ],
          [
            -75.55649241146712,
            34.99460188933873
          ],
          [
            -75.54974704890388,
            34.99460188933873
          ],
          [
            -75.54300168634065,
            34.99460188933873
          ],
          [
            -75.53625632377741,
            34.99460188933873
          ],
          [
            -75.52951096121417,
            34.99460188933873
          ],
          [
            -75.52276559865092,
            34.99460188933873
          ],
          [
            -75.51602023608768,
            34.99460188933873
          ],
          [
            -75.50927487352445,
            34.99460188933873
          ],
          [
            -75.50252951096121,
            34.99460188933873
          ],
          [
            -75.49578414839797,
            34.99460188933873
          ],
          [
            -75.48903878583474,
            34.99460188933873
          ],
          [
            -75.4822934232715,
            34.99460188933873
          ],
          [
            -75.47554806070826,
            34.99460188933873
          ],
          [
            -75.46880269814503,
            34.99460188933873
          ],
          [
            -75.46205733558179,
            34.99460188933873
          ],
          [
            -75.46205733558179,
            35.00134952766532
          ],
          [
            -75.45531197301855,
            35.00134952766532
          ],
          [
            -75.44856661045532,
            35.00134952766532
          ],
          [
            -75.44182124789208,
            35.00134952766532
          ]
        ]
      },
      "properties": {
        "length_km": 62.76,
        "pixel_count": 97,
        "algorithm": "mesoscale_gaussian_mutual_overlap"
      }
    },
    {
      "type": "Feature",
      "geometry": {
        "type": "LineString",
        "coordinates": [
          [
            -79.40809443507588,
            32.19433198380567
          ],
          [
            -79.40134907251264,
            32.19433198380567
          ],
          [
            -79.39460370994941,
            32.19433198380567
          ],
          [
            -79.38785834738617,
            32.19433198380567
          ],
          [
            -79.38111298482293,
            32.19433198380567
          ],
          [
            -79.3743676222597,
            32.19433198380567
          ],
          [
            -79.3743676222597,
            32.201079622132255
          ],
          [
            -79.36762225969646,
            32.201079622132255
          ],
          [
            -79.36087689713322,
            32.201079622132255
          ],
          [
            -79.35413153456999,
            32.201079622132255
          ],
          [
            -79.35413153456999,
            32.20782726045884
          ],
          [
            -79.34738617200675,
            32.20782726045884
          ],
          [
            -79.34064080944351,
            32.20782726045884
          ],
          [
            -79.33389544688028,
            32.20782726045884
          ],
          [
            -79.32715008431703,
            32.20782726045884
          ],
          [
            -79.32715008431703,
            32.21457489878542
          ],
          [
            -79.32040472175379,
            32.21457489878542
          ],
          [
            -79.31365935919055,
            32.21457489878542
          ],
          [
            -79.30691399662732,
            32.21457489878542
          ],
          [
            -79.30016863406408,
            32.21457489878542
          ],
          [
            -79.30016863406408,
            32.22132253711201
          ],
          [
            -79.29342327150084,
            32.22132253711201
          ],
          [
            -79.2866779089376,
            32.22132253711201
          ],
          [
            -79.27993254637437,
            32.22132253711201
          ],
          [
            -79.27993254637437,
            32.228070175438596
          ],
          [
            -79.27318718381113,
            32.228070175438596
          ],
          [
            -79.2664418212479,
            32.228070175438596
          ],
          [
            -79.25969645868466,
            32.228070175438596
          ],
          [
            -79.25969645868466,
            32.23481781376518
          ],
          [
            -79.25295109612142,
            32.23481781376518
          ],
          [
            -79.24620573355818,
            32.23481781376518
          ],
          [
            -79.24620573355818,
            32.24156545209177
          ],
          [
            -79.23946037099495,
            32.24156545209177
          ],
          [
            -79.2327150084317,
            32.24156545209177
          ],
          [
            -79.22596964586846,
            32.24156545209177
          ],
          [
            -79.22596964586846,
            32.24831309041836
          ],
          [
            -79.21922428330522,
            32.24831309041836
          ],
          [
            -79.21247892074199,
            32.24831309041836
          ],
          [
            -79.21247892074199,
            32.25506072874494
          ],
          [
            -79.20573355817875,
            32.25506072874494
          ],
          [
            -79.19898819561551,
            32.25506072874494
          ],
          [
            -79.19224283305228,
            32.25506072874494
          ],
          [
            -79.19224283305228,
            32.261808367071524
          ],
          [
            -79.18549747048904,
            32.261808367071524
          ],
          [
            -79.1787521079258,
            32.261808367071524
          ],
          [
            -79.1787521079258,
            32.26855600539811
          ],
          [
            -79.17200674536257,
            32.26855600539811
          ],
          [
            -79.16526138279933,
            32.26855600539811
          ],
          [
            -79.16526138279933,
            32.2753036437247
          ],
          [
            -79.15851602023609,
            32.2753036437247
          ],
          [
            -79.15177065767286,
            32.2753036437247
          ],
          [
            -79.15177065767286,
            32.282051282051285
          ],
          [
            -79.14502529510962,
            32.282051282051285
          ],
          [
            -79.13827993254637,
            32.282051282051285
          ],
          [
            -79.13827993254637,
            32.288798920377864
          ],
          [
            -79.13153456998313,
            32.288798920377864
          ],
          [
            -79.1247892074199,
            32.282051282051285
          ],
          [
            -79.1247892074199,
            32.2753036437247
          ],
          [
            -79.1247892074199,
            32.26855600539811
          ],
          [
            -79.1247892074199,
            32.261808367071524
          ],
          [
            -79.1247892074199,
            32.25506072874494
          ],
          [
            -79.1247892074199,
            32.24831309041836
          ],
          [
            -79.1247892074199,
            32.24156545209177
          ],
          [
            -79.1247892074199,
            32.23481781376518
          ],
          [
            -79.1247892074199,
            32.228070175438596
          ],
          [
            -79.1247892074199,
            32.22132253711201
          ],
          [
            -79.1247892074199,
            32.21457489878542
          ],
          [
            -79.1247892074199,
            32.20782726045884
          ],
          [
            -79.11804384485666,
            32.20782726045884
          ],
          [
            -79.11129848229342,
            32.20782726045884
          ],
          [
            -79.10455311973018,
            32.20782726045884
          ],
          [
            -79.09780775716695,
            32.20782726045884
          ]
        ]
      },
      "properties": {
        "length_km": 48.35,
        "pixel_count": 78,
        "algorithm": "mesoscale_gaussian_mutual_overlap"
      }
    },
    {
      "type": "Feature",
      "geometry": {
        "type": "LineString",
        "coordinates": [
          [
            -78.01854974704891,
            33.40890688259109
          ],
          [
            -78.01180438448567,
            33.40890688259109
          ],
          [
            -78.00505902192243,
            33.40890688259109
          ],
          [
            -77.99831365935918,
            33.40890688259109
          ],
          [
            -77.99156829679595,
            33.40890688259109
          ],
          [
            -77.98482293423271,
            33.40890688259109
          ],
          [
            -77.97807757166947,
            33.40890688259109
          ],
          [
            -77.97133220910624,
            33.40890688259109
          ],
          [
            -77.964586846543,
            33.40890688259109
          ],
          [
            -77.95784148397976,
            33.40890688259109
          ],
          [
            -77.95109612141653,
            33.40890688259109
          ],
          [
            -77.94435075885329,
            33.40890688259109
          ],
          [
            -77.93760539629005,
            33.40890688259109
          ],
          [
            -77.93086003372682,
            33.40890688259109
          ],
          [
            -77.93086003372682,
            33.41565452091768
          ],
          [
            -77.93086003372682,
            33.422402159244264
          ],
          [
            -77.93086003372682,
            33.42914979757085
          ],
          [
            -77.93086003372682,
            33.43589743589744
          ],
          [
            -77.93086003372682,
            33.442645074224025
          ],
          [
            -77.93086003372682,
            33.449392712550605
          ],
          [
            -77.93086003372682,
            33.45614035087719
          ],
          [
            -77.93086003372682,
            33.46288798920378
          ],
          [
            -77.93086003372682,
            33.469635627530366
          ],
          [
            -77.93086003372682,
            33.47638326585695
          ],
          [
            -77.93086003372682,
            33.48313090418354
          ],
          [
            -77.93086003372682,
            33.48987854251012
          ],
          [
            -77.93086003372682,
            33.49662618083671
          ],
          [
            -77.93086003372682,
            33.50337381916329
          ],
          [
            -77.93086003372682,
            33.51012145748988
          ],
          [
            -77.92411467116358,
            33.51012145748988
          ],
          [
            -77.91736930860034,
            33.51012145748988
          ],
          [
            -77.9106239460371,
            33.51012145748988
          ],
          [
            -77.9106239460371,
            33.51686909581647
          ],
          [
            -77.9106239460371,
            33.52361673414305
          ],
          [
            -77.9106239460371,
            33.530364372469634
          ],
          [
            -77.9106239460371,
            33.53711201079622
          ],
          [
            -77.9106239460371,
            33.54385964912281
          ],
          [
            -77.9106239460371,
            33.550607287449395
          ],
          [
            -77.9106239460371,
            33.55735492577598
          ],
          [
            -77.9106239460371,
            33.56410256410256
          ],
          [
            -77.9106239460371,
            33.57085020242915
          ],
          [
            -77.9106239460371,
            33.577597840755736
          ],
          [
            -77.91736930860034,
            33.58434547908232
          ],
          [
            -77.92411467116358,
            33.58434547908232
          ],
          [
            -77.93086003372682,
            33.58434547908232
          ],
          [
            -77.93760539629005,
            33.58434547908232
          ],
          [
            -77.94435075885329,
            33.58434547908232
          ],
          [
            -77.95109612141653,
            33.58434547908232
          ],
          [
            -77.95784148397976,
            33.58434547908232
          ],
          [
            -77.964586846543,
            33.58434547908232
          ],
          [
            -77.97133220910624,
            33.58434547908232
          ],
          [
            -77.97807757166947,
            33.58434547908232
          ],
          [
            -77.98482293423271,
            33.58434547908232
          ],
          [
            -77.99156829679595,
            33.58434547908232
          ],
          [
            -77.99831365935918,
            33.58434547908232
          ],
          [
            -78.00505902192243,
            33.58434547908232
          ],
          [
            -78.01180438448567,
            33.58434547908232
          ],
          [
            -78.01854974704891,
            33.58434547908232
          ],
          [
            -78.02529510961214,
            33.58434547908232
          ],
          [
            -78.03204047217538,
            33.58434547908232
          ],
          [
            -78.03878583473862,
            33.58434547908232
          ],
          [
            -78.04553119730186,
            33.58434547908232
          ],
          [
            -78.05227655986509,
            33.58434547908232
          ],
          [
            -78.05902192242833,
            33.58434547908232
          ],
          [
            -78.06576728499157,
            33.58434547908232
          ]
        ]
      },
      "properties": {
        "length_km": 43.55,
        "pixel_count": 366,
        "algorithm": "mesoscale_gaussian_mutual_overlap"
      }
    },
    {
      "type": "Feature",
      "geometry": {
        "type": "LineString",
        "coordinates": [
          [
            -77.22934232715008,
            33.928475033738195
          ],
          [
            -77.22259696458684,
            33.935222672064775
          ],
          [
            -77.2158516020236,
            33.94197031039136
          ],
          [
            -77.20910623946037,
            33.94197031039136
          ],
          [
            -77.20910623946037,
            33.94871794871795
          ],
          [
            -77.20236087689713,
            33.94871794871795
          ],
          [
            -77.1956155143339,
            33.94871794871795
          ],
          [
            -77.18887015177066,
            33.955465587044536
          ],
          [
            -77.18887015177066,
            33.96221322537112
          ],
          [
            -77.18212478920742,
            33.96221322537112
          ],
          [
            -77.17537942664418,
            33.96221322537112
          ],
          [
            -77.17537942664418,
            33.9689608636977
          ],
          [
            -77.16863406408095,
            33.9689608636977
          ],
          [
            -77.16188870151771,
            33.9689608636977
          ],
          [
            -77.15514333895447,
            33.9689608636977
          ],
          [
            -77.15514333895447,
            33.97570850202429
          ],
          [
            -77.15514333895447,
            33.98245614035088
          ],
          [
            -77.15514333895447,
            33.989203778677464
          ],
          [
            -77.15514333895447,
            33.99595141700405
          ],
          [
            -77.15514333895447,
            34.00269905533064
          ],
          [
            -77.15514333895447,
            34.00944669365722
          ],
          [
            -77.15514333895447,
            34.016194331983804
          ],
          [
            -77.15514333895447,
            34.02294197031039
          ],
          [
            -77.15514333895447,
            34.02968960863698
          ],
          [
            -77.15514333895447,
            34.036437246963565
          ],
          [
            -77.15514333895447,
            34.043184885290145
          ],
          [
            -77.15514333895447,
            34.04993252361673
          ],
          [
            -77.15514333895447,
            34.05668016194332
          ],
          [
            -77.15514333895447,
            34.063427800269906
          ],
          [
            -77.14839797639124,
            34.063427800269906
          ],
          [
            -77.141652613828,
            34.063427800269906
          ],
          [
            -77.13490725126475,
            34.05668016194332
          ],
          [
            -77.12816188870151,
            34.05668016194332
          ],
          [
            -77.12141652613828,
            34.04993252361673
          ],
          [
            -77.11467116357504,
            34.043184885290145
          ],
          [
            -77.1079258010118,
            34.036437246963565
          ],
          [
            -77.1079258010118,
            34.02968960863698
          ],
          [
            -77.10118043844857,
            34.02294197031039
          ],
          [
            -77.09443507588533,
            34.02294197031039
          ],
          [
            -77.08768971332209,
            34.02294197031039
          ],
          [
            -77.08094435075886,
            34.02294197031039
          ],
          [
            -77.07419898819562,
            34.02294197031039
          ],
          [
            -77.06745362563238,
            34.02294197031039
          ],
          [
            -77.06745362563238,
            34.02968960863698
          ],
          [
            -77.06070826306915,
            34.02968960863698
          ],
          [
            -77.06070826306915,
            34.036437246963565
          ],
          [
            -77.05396290050591,
            34.036437246963565
          ],
          [
            -77.04721753794266,
            34.036437246963565
          ],
          [
            -77.04047217537942,
            34.036437246963565
          ],
          [
            -77.03372681281618,
            34.036437246963565
          ],
          [
            -77.02698145025295,
            34.036437246963565
          ],
          [
            -77.02023608768971,
            34.036437246963565
          ],
          [
            -77.02023608768971,
            34.043184885290145
          ],
          [
            -77.01349072512647,
            34.043184885290145
          ],
          [
            -77.00674536256324,
            34.043184885290145
          ],
          [
            -77.0,
            34.04993252361673
          ],
          [
            -77.0,
            34.05668016194332
          ],
          [
            -77.0,
            34.063427800269906
          ],
          [
            -77.0,
            34.07017543859649
          ]
        ]
      },
      "properties": {
        "length_km": 42.37,
        "pixel_count": 108,
        "algorithm": "mesoscale_gaussian_mutual_overlap"
      }
    },
    {
      "type": "Feature",
      "geometry": {
        "type": "LineString",
        "coordinates": [
          [
            -76.08263069139966,
            34.56275303643725
          ],
          [
            -76.08263069139966,
            34.56950067476383
          ],
          [
            -76.0893760539629,
            34.57624831309042
          ],
          [
            -76.08263069139966,
            34.57624831309042
          ],
          [
            -76.0893760539629,
            34.582995951417004
          ],
          [
            -76.0893760539629,
            34.58974358974359
          ],
          [
            -76.0893760539629,
            34.59649122807018
          ],
          [
            -76.0893760539629,
            34.60323886639676
          ],
          [
            -76.0893760539629,
            34.609986504723345
          ],
          [
            -76.0893760539629,
            34.61673414304993
          ],
          [
            -76.0893760539629,
            34.62348178137652
          ],
          [
            -76.0893760539629,
            34.630229419703106
          ],
          [
            -76.0893760539629,
            34.63697705802969
          ],
          [
            -76.0893760539629,
            34.64372469635627
          ],
          [
            -76.0893760539629,
            34.65047233468286
          ],
          [
            -76.0893760539629,
            34.65721997300945
          ],
          [
            -76.09612141652613,
            34.663967611336034
          ],
          [
            -76.10286677908938,
            34.65721997300945
          ],
          [
            -76.10961214165262,
            34.65721997300945
          ],
          [
            -76.11635750421586,
            34.65721997300945
          ],
          [
            -76.12310286677909,
            34.65047233468286
          ],
          [
            -76.12984822934233,
            34.65047233468286
          ],
          [
            -76.13659359190557,
            34.65047233468286
          ],
          [
            -76.1433389544688,
            34.65047233468286
          ]
        ]
      },
      "properties": {
        "length_km": 17.58,
        "pixel_count": 67,
        "algorithm": "mesoscale_gaussian_mutual_overlap"
      }
    },
    {
      "type": "Feature",
      "geometry": {
        "type": "LineString",
        "coordinates": [
          [
            -76.49409780775717,
            34.26585695006747
          ],
          [
            -76.48735244519393,
            34.26585695006747
          ],
          [
            -76.4806070826307,
            34.26585695006747
          ],
          [
            -76.47386172006745,
            34.26585695006747
          ],
          [
            -76.46711635750421,
            34.26585695006747
          ],
          [
            -76.46037099494097,
            34.26585695006747
          ],
          [
            -76.45362563237774,
            34.26585695006747
          ],
          [
            -76.4468802698145,
            34.26585695006747
          ],
          [
            -76.44013490725126,
            34.26585695006747
          ],
          [
            -76.43338954468803,
            34.26585695006747
          ],
          [
            -76.42664418212479,
            34.26585695006747
          ],
          [
            -76.41989881956155,
            34.26585695006747
          ],
          [
            -76.41315345699832,
            34.26585695006747
          ],
          [
            -76.40640809443508,
            34.26585695006747
          ],
          [
            -76.39966273187184,
            34.26585695006747
          ],
          [
            -76.3929173693086,
            34.26585695006747
          ],
          [
            -76.38617200674537,
            34.26585695006747
          ],
          [
            -76.37942664418213,
            34.26585695006747
          ],
          [
            -76.37268128161888,
            34.26585695006747
          ],
          [
            -76.36593591905564,
            34.26585695006747
          ],
          [
            -76.35919055649241,
            34.26585695006747
          ]
        ]
      },
      "properties": {
        "length_km": 12.41,
        "pixel_count": 21,
        "algorithm": "mesoscale_gaussian_mutual_overlap"
      }
    },
    {
      "type": "Feature",
      "geometry": {
        "type": "LineString",
        "coordinates": [
          [
            -79.88026981450253,
            31.86369770580297
          ],
          [
            -79.88701517706576,
            31.86369770580297
          ],
          [
            -79.893760539629,
            31.86369770580297
          ],
          [
            -79.90050590219224,
            31.870445344129553
          ],
          [
            -79.893760539629,
            31.870445344129553
          ],
          [
            -79.90050590219224,
            31.87719298245614
          ],
          [
            -79.90050590219224,
            31.883940620782727
          ],
          [
            -79.90050590219224,
            31.89068825910931
          ],
          [
            -79.90050590219224,
            31.897435897435898
          ],
          [
            -79.90050590219224,
            31.904183535762485
          ],
          [
            -79.90050590219224,
            31.910931174089068
          ],
          [
            -79.90725126475549,
            31.917678812415655
          ],
          [
            -79.91399662731872,
            31.917678812415655
          ],
          [
            -79.91399662731872,
            31.92442645074224
          ],
          [
            -79.91399662731872,
            31.931174089068826
          ],
          [
            -79.91399662731872,
            31.937921727395413
          ],
          [
            -79.91399662731872,
            31.944669365721996
          ]
        ]
      },
      "properties": {
        "length_km": 12.27,
        "pixel_count": 18,
        "algorithm": "mesoscale_gaussian_mutual_overlap"
      }
    }
  ],
  "n": 9
}