{"type":"FeatureCollection","variable":"sst_front_trial","source_variable":"sst","source_frame":"data/usec_south/sst/sst_usec_south_2026139_20260519_17_g19.json","generated_at":"2026-05-19T19:49:58.545761Z","bbox":[-81.0,31.0,-73.02000000000159,35.97999999999989],"ny":250,"nx":400,"algorithm":{"name":"cca_sied_local_histogram_sst_v0","window_px":49,"stride_px":6,"transform":"linear","min_class_delta":0.45,"min_cohesion":0.42},"features":[{"type":"Feature","geometry":{"type":"LineString","coordinates":[[-74.72,31.24],[-74.7,31.24],[-74.68,31.24],[-74.76,31.26],[-74.74,31.26],[-74.72,31.26],[-74.7,31.26],[-74.68,31.26],[-74.78,31.28],[-74.76,31.28],[-74.74,31.28],[-74.72,31.28],[-74.8,31.3],[-74.78,31.3],[-74.76,31.3],[-74.74,31.3],[-74.72,31.3],[-74.8,31.32],[-74.78,31.32],[-74.76,31.32],[-74.74,31.32],[-74.8,31.34],[-74.78,31.34],[-74.76,31.34],[-74.74,31.34],[-74.86,31.36],[-74.84,31.36],[-74.82,31.36],[-74.8,31.36],[-74.78,31.36],[-74.76,31.36],[-74.74,31.36],[-74.88,31.38],[-74.86,31.38],[-74.84,31.38],[-74.82,31.38],[-74.8,31.38],[-74.78,31.38],[-74.76,31.38],[-74.98,31.4],[-74.96,31.4],[-74.94,31.4],[-74.92,31.4],[-74.9,31.4],[-74.88,31.4],[-74.86,31.4],[-74.84,31.4],[-74.82,31.4],[-74.8,31.4],[-75.06,31.42],[-75.04,31.42],[-75.02,31.42],[-75.0,31.42],[-74.98,31.42],[-74.96,31.42],[-74.94,31.42],[-74.92,31.42],[-74.9,31.42],[-74.88,31.42],[-74.86,31.42],[-75.1,31.44],[-75.08,31.44],[-75.06,31.44],[-75.04,31.44],[-75.02,31.44],[-75.0,31.44],[-74.98,31.44],[-74.96,31.44],[-75.14,31.46],[-75.12,31.46],[-75.1,31.46],[-75.08,31.46],[-75.06,31.46],[-75.04,31.46],[-75.02,31.46],[-75.0,31.46],[-75.16,31.48],[-75.14,31.48],[-75.12,31.48],[-75.1,31.48],[-75.08,31.48],[-75.06,31.48],[-75.04,31.48],[-75.2,31.5],[-75.18,31.5],[-75.16,31.5],[-75.14,31.5],[-75.12,31.5],[-75.1,31.5],[-75.22,31.52],[-75.2,31.52],[-75.18,31.52],[-75.16,31.52],[-75.14,31.52],[-75.12,31.52],[-75.26,31.54],[-75.24,31.54],[-75.22,31.54],[-75.2,31.54],[-75.26,31.56],[-75.24,31.56],[-75.22,31.56],[-75.28,31.58],[-75.26,31.58],[-75.24,31.58],[-75.28,31.6],[-75.26,31.6],[-75.24,31.6],[-75.3,31.62],[-75.28,31.62],[-75.26,31.62],[-75.24,31.62],[-75.3,31.64],[-75.28,31.64],[-75.26,31.64],[-75.24,31.64],[-75.32,31.66],[-75.3,31.66],[-75.28,31.66],[-75.32,31.68],[-75.3,31.68],[-75.28,31.68],[-75.32,31.7],[-75.3,31.7],[-75.28,31.7],[-75.34,31.72],[-75.32,31.72],[-75.3,31.72],[-75.28,31.72],[-75.34,31.74],[-75.32,31.74],[-75.3,31.74],[-75.34,31.76],[-75.32,31.76],[-75.3,31.76],[-75.34,31.78],[-75.32,31.78],[-75.36,31.8],[-75.34,31.8],[-75.32,31.8],[-75.38,31.82],[-75.36,31.82],[-75.34,31.82],[-75.32,31.82],[-75.38,31.84],[-75.36,31.84],[-75.34,31.84],[-75.32,31.84],[-75.44,31.86],[-75.42,31.86],[-75.4,31.86],[-75.38,31.86],[-75.36,31.86],[-75.34,31.86],[-75.58,31.88],[-75.56,31.88],[-75.54,31.88],[-75.52,31.88],[-75.5,31.88],[-75.48,31.88],[-75.46,31.88],[-75.44,31.88],[-75.42,31.88],[-75.4,31.88],[-75.38,31.88],[-75.36,31.88],[-75.66,31.9],[-75.64,31.9],[-75.62,31.9],[-75.6,31.9],[-75.58,31.9],[-75.56,31.9],[-75.54,31.9],[-75.52,31.9],[-75.5,31.9],[-75.48,31.9],[-75.46,31.9],[-75.72,31.92],[-75.7,31.92],[-75.68,31.92],[-75.66,31.92],[-75.64,31.92],[-75.62,31.92],[-75.6,31.92],[-75.58,31.92],[-75.56,31.92],[-75.76,31.94],[-75.74,31.94],[-75.72,31.94],[-75.7,31.94],[-75.68,31.94],[-75.66,31.94],[-75.78,31.96],[-75.76,31.96],[-75.74,31.96],[-75.72,31.96],[-75.7,31.96],[-75.68,31.96],[-75.66,31.96],[-75.8,31.98],[-75.78,31.98],[-75.76,31.98],[-75.74,31.98],[-75.72,31.98],[-75.86,32.0],[-75.84,32.0],[-75.82,32.0],[-75.8,32.0],[-75.78,32.0],[-75.76,32.0],[-75.74,32.0],[-75.72,32.0],[-75.96,32.02],[-75.94,32.02],[-75.92,32.02],[-75.9,32.02],[-75.88,32.02],[-75.86,32.02],[-75.84,32.02],[-75.82,32.02],[-75.8,32.02],[-75.78,32.02],[-75.76,32.02],[-75.98,32.04],[-75.96,32.04],[-75.94,32.04],[-75.92,32.04],[-75.9,32.04],[-75.88,32.04],[-75.86,32.04],[-75.84,32.04],[-75.82,32.04],[-75.8,32.04],[-75.78,32.04],[-76.0,32.06],[-75.98,32.06],[-75.96,32.06],[-75.94,32.06],[-75.92,32.06],[-75.88,32.06],[-75.86,32.06],[-75.84,32.06],[-75.82,32.06],[-76.02,32.08],[-76.0,32.08],[-75.98,32.08],[-75.96,32.08],[-75.94,32.08],[-75.92,32.08],[-75.9,32.08],[-75.88,32.08],[-75.86,32.08],[-75.84,32.08],[-75.82,32.08],[-76.04,32.1],[-76.02,32.1],[-76.0,32.1],[-75.98,32.1],[-75.96,32.1],[-75.94,32.1],[-75.92,32.1],[-75.9,32.1],[-75.88,32.1],[-75.86,32.1],[-75.84,32.1],[-75.82,32.1],[-76.04,32.12],[-76.02,32.12],[-76.0,32.12],[-75.98,32.12],[-75.96,32.12],[-75.94,32.12],[-75.92,32.12],[-75.9,32.12],[-75.88,32.12],[-75.86,32.12],[-75.84,32.12],[-75.82,32.12],[-76.04,32.14],[-76.02,32.14],[-76.0,32.14],[-75.98,32.14],[-75.96,32.14],[-75.94,32.14],[-75.92,32.14],[-75.9,32.14],[-75.48,32.14],[-75.46,32.14],[-75.44,32.14],[-76.06,32.16],[-76.04,32.16],[-76.02,32.16],[-76.0,32.16],[-75.98,32.16],[-75.96,32.16],[-75.94,32.16],[-75.48,32.16],[-75.46,32.16],[-75.44,32.16],[-76.08,32.18],[-76.06,32.18],[-76.04,32.18],[-76.02,32.18],[-76.0,32.18],[-75.98,32.18],[-75.96,32.18],[-75.48,32.18],[-75.46,32.18],[-76.1,32.2],[-76.08,32.2],[-76.06,32.2],[-76.04,32.2],[-76.02,32.2],[-76.0,32.2],[-75.98,32.2],[-75.96,32.2],[-75.5,32.2],[-75.48,32.2],[-75.46,32.2],[-75.44,32.2],[-76.12,32.22],[-76.1,32.22],[-76.08,32.22],[-76.06,32.22],[-76.04,32.22],[-76.02,32.22],[-76.0,32.22],[-75.5,32.22],[-75.48,32.22],[-75.46,32.22],[-75.44,32.22],[-76.14,32.24],[-76.12,32.24],[-76.1,32.24],[-76.08,32.24],[-76.06,32.24],[-76.04,32.24],[-76.02,32.24],[-75.48,32.24],[-75.46,32.24],[-75.44,32.24],[-75.42,32.24],[-75.4,32.24],[-75.38,32.24],[-75.36,32.24],[-76.16,32.26],[-76.14,32.26],[-76.12,32.26],[-76.1,32.26],[-76.08,32.26],[-76.06,32.26],[-76.04,32.26],[-75.48,32.26],[-75.46,32.26],[-75.44,32.26],[-75.42,32.26],[-75.4,32.26],[-75.38,32.26],[-75.36,32.26],[-75.34,32.26],[-75.32,32.26],[-76.18,32.28],[-76.16,32.28],[-76.14,32.28],[-76.12,32.28],[-76.1,32.28],[-76.08,32.28],[-76.06,32.28],[-75.36,32.28],[-75.34,32.28],[-75.32,32.28],[-76.18,32.3],[-76.16,32.3],[-76.14,32.3],[-76.12,32.3],[-75.32,32.3],[-75.3,32.3],[-76.2,32.32],[-76.18,32.32],[-76.16,32.32],[-76.14,32.32],[-76.12,32.32],[-76.1,32.32],[-76.08,32.32],[-75.42,32.32],[-75.4,32.32],[-75.38,32.32],[-75.36,32.32],[-75.34,32.32],[-75.32,32.32],[-75.3,32.32],[-75.28,32.32],[-76.2,32.34],[-76.18,32.34],[-76.16,32.34],[-76.14,32.34],[-76.12,32.34],[-76.1,32.34],[-76.08,32.34],[-75.42,32.34],[-75.4,32.34],[-75.38,32.34],[-75.36,32.34],[-75.34,32.34],[-75.32,32.34],[-75.3,32.34],[-75.28,32.34],[-76.2,32.36],[-76.18,32.36],[-76.16,32.36],[-76.14,32.36],[-76.12,32.36],[-75.32,32.36],[-75.3,32.36],[-75.28,32.36],[-76.2,32.38],[-76.18,32.38],[-76.16,32.38],[-76.14,32.38],[-76.12,32.38],[-75.44,32.38],[-75.42,32.38],[-75.38,32.38],[-75.36,32.38],[-75.34,32.38],[-75.32,32.38],[-75.3,32.38],[-75.28,32.38],[-76.2,32.4],[-76.18,32.4],[-76.16,32.4],[-76.14,32.4],[-76.12,32.4],[-75.44,32.4],[-75.42,32.4],[-75.4,32.4],[-75.38,32.4],[-75.36,32.4],[-75.34,32.4],[-75.32,32.4],[-76.2,32.42],[-76.18,32.42],[-76.16,32.42],[-76.14,32.42],[-76.12,32.42],[-75.4,32.42],[-75.38,32.42],[-75.36,32.42],[-76.2,32.44],[-76.18,32.44],[-76.16,32.44],[-76.14,32.44],[-76.12,32.44],[-75.44,32.44],[-75.42,32.44],[-75.4,32.44],[-75.38,32.44],[-75.36,32.44],[-75.34,32.44],[-75.32,32.44],[-75.3,32.44],[-75.28,32.44],[-76.2,32.46],[-76.18,32.46],[-76.16,32.46],[-76.14,32.46],[-76.12,32.46],[-75.44,32.46],[-75.42,32.46],[-75.4,32.46],[-75.36,32.46],[-75.34,32.46],[-75.32,32.46],[-75.3,32.46],[-75.28,32.46],[-76.22,32.48],[-76.2,32.48],[-76.18,32.48],[-76.16,32.48],[-75.44,32.48],[-75.42,32.48],[-75.4,32.48],[-75.36,32.48],[-75.34,32.48],[-75.28,32.48],[-75.26,32.48],[-75.24,32.48],[-76.22,32.5],[-76.2,32.5],[-76.18,32.5],[-76.16,32.5],[-76.14,32.5],[-76.1,32.5],[-76.08,32.5],[-75.44,32.5],[-75.42,32.5],[-75.4,32.5],[-75.36,32.5],[-75.34,32.5],[-75.28,32.5],[-75.26,32.5],[-75.24,32.5],[-76.2,32.52],[-76.18,32.52],[-76.16,32.52],[-76.14,32.52],[-76.12,32.52],[-76.1,32.52],[-76.08,32.52],[-75.42,32.52],[-75.4,32.52],[-75.38,32.52],[-75.36,32.52],[-75.34,32.52],[-75.28,32.52],[-75.26,32.52],[-75.24,32.52],[-76.2,32.54],[-76.18,32.54],[-76.16,32.54],[-76.14,32.54],[-76.12,32.54],[-76.1,32.54],[-76.08,32.54],[-75.42,32.54],[-75.4,32.54],[-75.38,32.54],[-75.36,32.54],[-75.34,32.54],[-75.32,32.54],[-75.28,32.54],[-75.26,32.54],[-75.24,32.54],[-76.18,32.56],[-76.16,32.56],[-76.14,32.56],[-76.12,32.56],[-76.1,32.56],[-76.08,32.56],[-76.06,32.56],[-75.42,32.56],[-75.4,32.56],[-75.38,32.56],[-75.36,32.56],[-75.34,32.56],[-75.32,32.56],[-75.3,32.56],[-75.28,32.56],[-75.26,32.56],[-75.24,32.56],[-76.14,32.58],[-76.12,32.58],[-76.1,32.58],[-76.08,32.58],[-76.06,32.58],[-75.4,32.58],[-75.38,32.58],[-75.36,32.58],[-75.34,32.58],[-75.32,32.58],[-75.3,32.58],[-75.28,32.58],[-76.14,32.6],[-76.12,32.6],[-76.1,32.6],[-76.08,32.6],[-76.06,32.6],[-75.42,32.6],[-75.4,32.6],[-75.38,32.6],[-75.36,32.6],[-76.14,32.62],[-76.12,32.62],[-76.1,32.62],[-76.08,32.62],[-76.06,32.62],[-75.48,32.62],[-75.46,32.62],[-75.44,32.62],[-75.42,32.62],[-75.4,32.62],[-75.38,32.62],[-75.36,32.62],[-76.76,32.64],[-76.74,32.64],[-76.72,32.64],[-76.7,32.64],[-76.68,32.64],[-76.66,32.64],[-76.64,32.64],[-76.16,32.64],[-76.14,32.64],[-76.12,32.64],[-76.1,32.64],[-76.08,32.64],[-75.52,32.64],[-75.5,32.64],[-75.48,32.64],[-75.46,32.64],[-75.44,32.64],[-75.42,32.64],[-76.84,32.66],[-76.82,32.66],[-76.8,32.66],[-76.78,32.66],[-76.76,32.66],[-76.74,32.66],[-76.72,32.66],[-76.7,32.66],[-76.68,32.66],[-76.66,32.66],[-76.64,32.66],[-76.28,32.66],[-76.26,32.66],[-76.24,32.66],[-76.22,32.66],[-76.2,32.66],[-76.18,32.66],[-76.16,32.66],[-76.14,32.66],[-76.12,32.66],[-76.1,32.66],[-76.08,32.66],[-76.02,32.66],[-76.0,32.66],[-75.96,32.66],[-75.94,32.66],[-75.92,32.66],[-75.9,32.66],[-75.6,32.66],[-75.58,32.66],[-75.56,32.66],[-75.54,32.66],[-75.52,32.66],[-75.5,32.66],[-75.48,32.66],[-75.46,32.66],[-76.86,32.68],[-76.84,32.68],[-76.82,32.68],[-76.8,32.68],[-76.78,32.68],[-76.76,32.68],[-76.74,32.68],[-76.72,32.68],[-76.7,32.68],[-76.68,32.68],[-76.66,32.68],[-76.64,32.68],[-76.32,32.68],[-76.3,32.68],[-76.28,32.68],[-76.26,32.68],[-76.24,32.68],[-76.22,32.68],[-76.2,32.68],[-76.18,32.68],[-76.16,32.68],[-76.14,32.68],[-76.12,32.68],[-76.1,32.68],[-76.08,32.68],[-76.06,32.68],[-76.04,32.68],[-76.02,32.68],[-76.0,32.68],[-75.98,32.68],[-75.96,32.68],[-75.94,32.68],[-75.92,32.68],[-75.9,32.68],[-75.88,32.68],[-75.86,32.68],[-75.84,32.68],[-75.82,32.68],[-75.8,32.68],[-75.78,32.68],[-75.76,32.68],[-75.74,32.68],[-75.72,32.68],[-75.7,32.68],[-75.68,32.68],[-75.66,32.68],[-75.64,32.68],[-75.62,32.68],[-75.6,32.68],[-75.58,32.68],[-75.56,32.68],[-75.54,32.68],[-75.52,32.68],[-75.5,32.68],[-75.48,32.68],[-75.46,32.68],[-76.9,32.7],[-76.88,32.7],[-76.86,32.7],[-76.84,32.7],[-76.82,32.7],[-76.8,32.7],[-76.78,32.7],[-76.76,32.7],[-76.74,32.7],[-76.72,32.7],[-76.7,32.7],[-76.68,32.7],[-76.66,32.7],[-76.32,32.7],[-76.3,32.7],[-76.28,32.7],[-76.26,32.7],[-76.24,32.7],[-76.22,32.7],[-76.2,32.7],[-76.18,32.7],[-76.16,32.7],[-76.14,32.7],[-76.12,32.7],[-76.08,32.7],[-76.06,32.7],[-76.04,32.7],[-76.02,32.7],[-76.0,32.7],[-75.98,32.7],[-75.96,32.7],[-75.94,32.7],[-75.92,32.7],[-75.9,32.7],[-75.88,32.7],[-75.86,32.7],[-75.84,32.7],[-75.82,32.7],[-75.8,32.7],[-75.78,32.7],[-75.76,32.7],[-75.74,32.7],[-75.72,32.7],[-75.7,32.7],[-75.68,32.7],[-75.66,32.7],[-75.64,32.7],[-75.62,32.7],[-75.6,32.7],[-75.58,32.7],[-76.92,32.72],[-76.9,32.72],[-76.88,32.72],[-76.86,32.72],[-76.84,32.72],[-76.82,32.72],[-76.8,32.72],[-76.78,32.72],[-76.76,32.72],[-76.74,32.72],[-76.72,32.72],[-76.7,32.72],[-76.68,32.72],[-76.66,32.72],[-76.32,32.72],[-76.3,32.72],[-76.28,32.72],[-76.26,32.72],[-76.24,32.72],[-76.22,32.72],[-76.2,32.72],[-76.18,32.72],[-76.16,32.72],[-76.14,32.72],[-76.1,32.72],[-76.08,32.72],[-76.06,32.72],[-76.04,32.72],[-76.02,32.72],[-76.96,32.74],[-76.94,32.74],[-76.92,32.74],[-76.9,32.74],[-76.88,32.74],[-76.86,32.74],[-76.84,32.74],[-76.82,32.74],[-76.8,32.74],[-76.76,32.74],[-76.74,32.74],[-76.72,32.74],[-76.7,32.74],[-76.68,32.74],[-76.34,32.74],[-76.32,32.74],[-76.3,32.74],[-76.28,32.74],[-76.26,32.74],[-76.24,32.74],[-76.22,32.74],[-76.2,32.74],[-76.18,32.74],[-76.16,32.74],[-76.14,32.74],[-76.12,32.74],[-76.1,32.74],[-76.08,32.74],[-76.06,32.74],[-76.04,32.74],[-77.0,32.76],[-76.98,32.76],[-76.96,32.76],[-76.94,32.76],[-76.92,32.76],[-76.9,32.76],[-76.88,32.76],[-76.86,32.76],[-76.84,32.76],[-76.76,32.76],[-76.74,32.76],[-76.72,32.76],[-76.7,32.76],[-76.68,32.76],[-76.38,32.76],[-76.36,32.76],[-76.34,32.76],[-76.32,32.76],[-76.3,32.76],[-76.28,32.76],[-76.26,32.76],[-76.24,32.76],[-76.22,32.76],[-76.2,32.76],[-76.18,32.76],[-76.16,32.76],[-76.14,32.76],[-76.12,32.76],[-76.1,32.76],[-76.08,32.76],[-77.02,32.78],[-77.0,32.78],[-76.98,32.78],[-76.96,32.78],[-76.94,32.78],[-76.92,32.78],[-76.9,32.78],[-76.88,32.78],[-76.86,32.78],[-76.76,32.78],[-76.74,32.78],[-76.72,32.78],[-76.7,32.78],[-76.56,32.78],[-76.54,32.78],[-76.52,32.78],[-76.4,32.78],[-76.38,32.78],[-76.36,32.78],[-76.34,32.78],[-76.32,32.78],[-76.3,32.78],[-76.28,32.78],[-76.26,32.78],[-76.24,32.78],[-76.22,32.78],[-76.2,32.78],[-76.18,32.78],[-77.06,32.8],[-77.04,32.8],[-77.02,32.8],[-77.0,32.8],[-76.98,32.8],[-76.96,32.8],[-76.94,32.8],[-76.92,32.8],[-76.9,32.8],[-76.88,32.8],[-76.86,32.8],[-76.76,32.8],[-76.74,32.8],[-76.72,32.8],[-76.7,32.8],[-76.58,32.8],[-76.56,32.8],[-76.54,32.8],[-76.52,32.8],[-76.5,32.8],[-76.48,32.8],[-76.46,32.8],[-76.44,32.8],[-76.42,32.8],[-76.4,32.8],[-76.38,32.8],[-76.36,32.8],[-76.34,32.8],[-76.32,32.8],[-76.3,32.8],[-76.28,32.8],[-76.26,32.8],[-76.24,32.8],[-76.22,32.8],[-76.2,32.8],[-76.18,32.8],[-77.1,32.82],[-77.08,32.82],[-77.06,32.82],[-77.04,32.82],[-77.02,32.82],[-77.0,32.82],[-76.98,32.82],[-76.96,32.82],[-76.92,32.82],[-76.9,32.82],[-76.76,32.82],[-76.74,32.82],[-76.72,32.82],[-76.7,32.82],[-76.68,32.82],[-76.6,32.82],[-76.58,32.82],[-76.56,32.82],[-76.54,32.82],[-76.52,32.82],[-76.5,32.82],[-76.48,32.82],[-76.46,32.82],[-76.44,32.82],[-76.42,32.82],[-76.4,32.82],[-76.38,32.82],[-76.36,32.82],[-76.34,32.82],[-76.32,32.82],[-76.3,32.82],[-76.28,32.82],[-77.12,32.84],[-77.1,32.84],[-77.08,32.84],[-77.06,32.84],[-77.04,32.84],[-77.02,32.84],[-77.0,32.84],[-76.8,32.84],[-76.78,32.84],[-76.76,32.84],[-76.74,32.84],[-76.72,32.84],[-76.7,32.84],[-76.68,32.84],[-76.66,32.84],[-76.64,32.84],[-76.62,32.84],[-76.6,32.84],[-76.58,32.84],[-76.56,32.84],[-76.54,32.84],[-76.52,32.84],[-76.5,32.84],[-76.48,32.84],[-76.46,32.84],[-76.44,32.84],[-76.42,32.84],[-76.4,32.84],[-76.38,32.84],[-76.36,32.84],[-76.34,32.84],[-76.32,32.84],[-77.14,32.86],[-77.12,32.86],[-77.1,32.86],[-77.08,32.86],[-77.06,32.86],[-77.04,32.86],[-76.8,32.86],[-76.78,32.86],[-76.76,32.86],[-76.74,32.86],[-76.72,32.86],[-76.7,32.86],[-76.68,32.86],[-76.66,32.86],[-76.64,32.86],[-76.62,32.86],[-76.6,32.86],[-76.58,32.86],[-76.56,32.86],[-76.54,32.86],[-76.52,32.86],[-76.5,32.86],[-76.48,32.86],[-76.46,32.86],[-76.44,32.86],[-76.42,32.86],[-76.4,32.86],[-76.38,32.86],[-76.36,32.86],[-76.34,32.86],[-76.32,32.86],[-77.16,32.88],[-77.14,32.88],[-77.12,32.88],[-77.1,32.88],[-77.08,32.88],[-76.8,32.88],[-76.78,32.88],[-76.76,32.88],[-76.72,32.88],[-76.7,32.88],[-76.68,32.88],[-76.66,32.88],[-76.64,32.88],[-76.62,32.88],[-76.6,32.88],[-76.58,32.88],[-76.56,32.88],[-76.54,32.88],[-76.52,32.88],[-76.5,32.88],[-76.44,32.88],[-76.42,32.88],[-76.4,32.88],[-76.38,32.88],[-77.18,32.9],[-77.16,32.9],[-77.14,32.9],[-77.12,32.9],[-77.1,32.9],[-76.82,32.9],[-76.8,32.9],[-76.78,32.9],[-76.68,32.9],[-76.66,32.9],[-76.64,32.9],[-76.62,32.9],[-76.6,32.9],[-76.58,32.9],[-76.56,32.9],[-76.54,32.9],[-76.52,32.9],[-76.46,32.9],[-76.44,32.9],[-76.42,32.9],[-76.4,32.9],[-77.2,32.92],[-77.18,32.92],[-77.16,32.92],[-77.14,32.92],[-77.12,32.92],[-77.1,32.92],[-76.84,32.92],[-76.82,32.92],[-76.8,32.92],[-76.78,32.92],[-76.74,32.92],[-76.72,32.92],[-76.7,32.92],[-76.68,32.92],[-76.66,32.92],[-76.64,32.92],[-76.62,32.92],[-76.6,32.92],[-76.58,32.92],[-76.56,32.92],[-76.54,32.92],[-76.52,32.92],[-76.46,32.92],[-76.44,32.92],[-76.42,32.92],[-76.4,32.92],[-77.24,32.94],[-77.22,32.94],[-77.2,32.94],[-77.18,32.94],[-77.16,32.94],[-77.14,32.94],[-77.12,32.94],[-76.84,32.94],[-76.82,32.94],[-76.8,32.94],[-76.74,32.94],[-76.72,32.94],[-76.7,32.94],[-76.68,32.94],[-76.64,32.94],[-76.62,32.94],[-76.46,32.94],[-76.44,32.94],[-76.42,32.94],[-77.28,32.96],[-77.26,32.96],[-77.24,32.96],[-77.22,32.96],[-77.2,32.96],[-77.18,32.96],[-77.16,32.96],[-77.14,32.96],[-76.68,32.96],[-76.66,32.96],[-76.64,32.96],[-76.62,32.96],[-76.48,32.96],[-76.46,32.96],[-76.44,32.96],[-77.3,32.98],[-77.28,32.98],[-77.26,32.98],[-77.24,32.98],[-77.22,32.98],[-77.2,32.98],[-76.68,32.98],[-76.66,32.98],[-76.64,32.98],[-76.5,32.98],[-76.48,32.98],[-76.46,32.98],[-76.44,32.98],[-77.34,33.0],[-77.32,33.0],[-77.3,33.0],[-77.28,33.0],[-77.26,33.0],[-77.24,33.0],[-77.22,33.0],[-76.52,33.0],[-76.5,33.0],[-76.48,33.0],[-77.36,33.02],[-77.34,33.02],[-77.32,33.02],[-77.3,33.02],[-77.28,33.02],[-76.56,33.02],[-76.54,33.02],[-76.52,33.02],[-76.5,33.02],[-77.38,33.04],[-77.36,33.04],[-77.34,33.04],[-77.32,33.04],[-77.3,33.04],[-77.28,33.04],[-76.64,33.04],[-76.62,33.04],[-76.6,33.04],[-76.58,33.04],[-76.56,33.04],[-76.54,33.04],[-76.52,33.04],[-76.5,33.04],[-77.4,33.06],[-77.38,33.06],[-77.36,33.06],[-77.34,33.06],[-76.64,33.06],[-76.62,33.06],[-76.6,33.06],[-76.58,33.06],[-76.56,33.06],[-76.54,33.06],[-77.42,33.08],[-77.4,33.08],[-77.38,33.08],[-77.36,33.08],[-76.68,33.08],[-76.66,33.08],[-76.64,33.08],[-76.62,33.08],[-76.6,33.08],[-76.58,33.08],[-76.56,33.08],[-76.54,33.08],[-77.44,33.1],[-77.42,33.1],[-77.4,33.1],[-77.38,33.1],[-77.36,33.1],[-76.68,33.1],[-76.66,33.1],[-76.64,33.1],[-76.62,33.1],[-76.6,33.1],[-76.58,33.1],[-76.56,33.1],[-77.46,33.12],[-77.44,33.12],[-77.42,33.12],[-77.4,33.12],[-77.38,33.12],[-76.7,33.12],[-76.68,33.12],[-76.66,33.12],[-76.64,33.12],[-76.62,33.12],[-76.58,33.12],[-76.56,33.12],[-77.48,33.14],[-77.46,33.14],[-77.44,33.14],[-77.42,33.14],[-77.4,33.14],[-76.7,33.14],[-76.68,33.14],[-76.66,33.14],[-76.64,33.14],[-76.62,33.14],[-77.54,33.16],[-77.52,33.16],[-77.5,33.16],[-77.48,33.16],[-77.46,33.16],[-77.44,33.16],[-77.42,33.16],[-77.4,33.16],[-76.72,33.16],[-76.7,33.16],[-76.68,33.16],[-76.66,33.16],[-76.64,33.16],[-76.62,33.16],[-76.6,33.16],[-76.58,33.16],[-76.56,33.16],[-77.56,33.18],[-77.54,33.18],[-77.52,33.18],[-77.5,33.18],[-77.48,33.18],[-77.46,33.18],[-77.44,33.18],[-76.72,33.18],[-76.7,33.18],[-76.68,33.18],[-76.62,33.18],[-76.6,33.18],[-76.58,33.18],[-76.56,33.18],[-77.56,33.2],[-77.54,33.2],[-77.52,33.2],[-77.5,33.2],[-77.4,33.2],[-77.38,33.2],[-76.72,33.2],[-76.7,33.2],[-76.68,33.2],[-76.66,33.2],[-76.64,33.2],[-76.62,33.2],[-76.6,33.2],[-77.58,33.22],[-77.56,33.22],[-77.54,33.22],[-77.52,33.22],[-77.5,33.22],[-77.4,33.22],[-77.38,33.22],[-76.72,33.22],[-76.7,33.22],[-76.68,33.22],[-76.66,33.22],[-76.64,33.22],[-76.62,33.22],[-77.58,33.24],[-77.56,33.24],[-77.54,33.24],[-77.52,33.24],[-77.4,33.24],[-77.38,33.24],[-76.72,33.24],[-76.7,33.24],[-76.68,33.24],[-76.66,33.24],[-76.64,33.24],[-77.58,33.26],[-77.56,33.26],[-77.54,33.26],[-77.52,33.26],[-77.44,33.26],[-77.42,33.26],[-77.4,33.26],[-77.38,33.26],[-76.72,33.26],[-76.7,33.26],[-76.68,33.26],[-76.66,33.26],[-77.58,33.28],[-77.56,33.28],[-77.54,33.28],[-77.52,33.28],[-77.48,33.28],[-77.46,33.28],[-77.44,33.28],[-77.42,33.28],[-77.4,33.28],[-77.38,33.28],[-76.72,33.28],[-76.7,33.28],[-76.68,33.28],[-76.66,33.28],[-77.54,33.3],[-77.52,33.3],[-77.48,33.3],[-77.46,33.3],[-77.44,33.3],[-77.42,33.3],[-77.4,33.3],[-76.72,33.3],[-76.7,33.3],[-76.68,33.3],[-77.58,33.32],[-77.56,33.32],[-77.54,33.32],[-77.52,33.32],[-77.5,33.32],[-77.48,33.32],[-77.46,33.32],[-77.44,33.32],[-76.72,33.32],[-76.7,33.32],[-76.68,33.32],[-77.58,33.34],[-77.56,33.34],[-77.54,33.34],[-77.52,33.34],[-77.5,33.34],[-77.48,33.34],[-77.46,33.34],[-76.72,33.34],[-76.7,33.34],[-76.68,33.34],[-77.54,33.36],[-77.52,33.36],[-77.5,33.36],[-77.48,33.36],[-76.74,33.36],[-76.72,33.36],[-76.7,33.36],[-76.68,33.36],[-77.56,33.38],[-77.54,33.38],[-77.52,33.38],[-77.5,33.38],[-77.04,33.38],[-77.02,33.38],[-77.0,33.38],[-76.76,33.38],[-76.74,33.38],[-76.72,33.38],[-76.7,33.38],[-76.68,33.38],[-77.56,33.4],[-77.54,33.4],[-77.52,33.4],[-77.5,33.4],[-77.12,33.4],[-77.1,33.4],[-77.08,33.4],[-77.06,33.4],[-77.04,33.4],[-77.02,33.4],[-77.0,33.4],[-76.98,33.4],[-76.96,33.4],[-76.94,33.4],[-76.92,33.4],[-76.9,33.4],[-76.88,33.4],[-76.86,33.4],[-76.84,33.4],[-76.82,33.4],[-76.8,33.4],[-76.78,33.4],[-76.76,33.4],[-76.74,33.4],[-76.72,33.4],[-76.7,33.4],[-76.68,33.4],[-77.56,33.42],[-77.54,33.42],[-77.52,33.42],[-77.5,33.42],[-77.12,33.42],[-77.1,33.42],[-77.08,33.42],[-77.06,33.42],[-77.04,33.42],[-77.02,33.42],[-77.0,33.42],[-76.98,33.42],[-76.96,33.42],[-76.94,33.42],[-76.92,33.42],[-76.9,33.42],[-76.88,33.42],[-76.86,33.42],[-76.84,33.42],[-76.82,33.42],[-76.8,33.42],[-76.78,33.42],[-76.76,33.42],[-77.54,33.44],[-77.52,33.44],[-77.5,33.44],[-77.48,33.44],[-77.16,33.44],[-77.14,33.44],[-77.12,33.44],[-77.1,33.44],[-77.08,33.44],[-77.06,33.44],[-77.04,33.44],[-76.98,33.44],[-76.96,33.44],[-76.94,33.44],[-76.92,33.44],[-76.9,33.44],[-76.88,33.44],[-76.86,33.44],[-76.84,33.44],[-76.82,33.44],[-76.8,33.44],[-76.78,33.44],[-77.84,33.46],[-77.82,33.46],[-77.8,33.46],[-77.78,33.46],[-77.76,33.46],[-77.74,33.46],[-77.72,33.46],[-77.7,33.46],[-77.68,33.46],[-77.54,33.46],[-77.52,33.46],[-77.5,33.46],[-77.48,33.46],[-77.46,33.46],[-77.16,33.46],[-77.14,33.46],[-77.12,33.46],[-77.1,33.46],[-77.08,33.46],[-76.92,33.46],[-76.9,33.46],[-76.88,33.46],[-76.86,33.46],[-76.84,33.46],[-76.82,33.46],[-76.8,33.46],[-77.88,33.48],[-77.86,33.48],[-77.84,33.48],[-77.82,33.48],[-77.8,33.48],[-77.78,33.48],[-77.76,33.48],[-77.74,33.48],[-77.72,33.48],[-77.7,33.48],[-77.68,33.48],[-77.66,33.48],[-77.64,33.48],[-77.54,33.48],[-77.52,33.48],[-77.5,33.48],[-77.48,33.48],[-77.46,33.48],[-77.44,33.48],[-77.42,33.48],[-77.4,33.48],[-77.16,33.48],[-77.14,33.48],[-77.12,33.48],[-77.1,33.48],[-77.88,33.5],[-77.86,33.5],[-77.84,33.5],[-77.82,33.5],[-77.78,33.5],[-77.76,33.5],[-77.74,33.5],[-77.72,33.5],[-77.7,33.5],[-77.68,33.5],[-77.66,33.5],[-77.64,33.5],[-77.62,33.5],[-77.6,33.5],[-77.52,33.5],[-77.5,33.5],[-77.48,33.5],[-77.44,33.5],[-77.42,33.5],[-77.4,33.5],[-77.18,33.5],[-77.16,33.5],[-77.14,33.5],[-77.12,33.5],[-77.9,33.52],[-77.88,33.52],[-77.86,33.52],[-77.84,33.52],[-77.82,33.52],[-77.78,33.52],[-77.76,33.52],[-77.74,33.52],[-77.72,33.52],[-77.7,33.52],[-77.68,33.52],[-77.66,33.52],[-77.64,33.52],[-77.62,33.52],[-77.6,33.52],[-77.58,33.52],[-77.56,33.52],[-77.54,33.52],[-77.52,33.52],[-77.5,33.52],[-77.48,33.52],[-77.44,33.52],[-77.42,33.52],[-77.4,33.52],[-77.22,33.52],[-77.2,33.52],[-77.18,33.52],[-77.16,33.52],[-77.14,33.52],[-77.12,33.52],[-77.92,33.54],[-77.9,33.54],[-77.88,33.54],[-77.86,33.54],[-77.84,33.54],[-77.82,33.54],[-77.64,33.54],[-77.62,33.54],[-77.6,33.54],[-77.58,33.54],[-77.56,33.54],[-77.54,33.54],[-77.52,33.54],[-77.5,33.54],[-77.48,33.54],[-77.22,33.54],[-77.2,33.54],[-77.18,33.54],[-77.16,33.54],[-77.14,33.54],[-77.92,33.56],[-77.9,33.56],[-77.88,33.56],[-77.86,33.56],[-77.64,33.56],[-77.62,33.56],[-77.6,33.56],[-77.58,33.56],[-77.56,33.56],[-77.54,33.56],[-77.52,33.56],[-77.5,33.56],[-77.48,33.56],[-77.24,33.56],[-77.22,33.56],[-77.2,33.56],[-77.18,33.56],[-77.16,33.56],[-77.14,33.56],[-77.94,33.58],[-77.92,33.58],[-77.9,33.58],[-77.88,33.58],[-77.86,33.58],[-77.84,33.58],[-77.56,33.58],[-77.54,33.58],[-77.52,33.58],[-77.5,33.58],[-77.28,33.58],[-77.26,33.58],[-77.24,33.58],[-77.22,33.58],[-77.2,33.58],[-77.18,33.58],[-77.16,33.58],[-77.14,33.58],[-77.94,33.6],[-77.92,33.6],[-77.9,33.6],[-77.88,33.6],[-77.86,33.6],[-77.84,33.6],[-77.28,33.6],[-77.26,33.6],[-77.24,33.6],[-77.22,33.6],[-77.2,33.6],[-77.18,33.6],[-77.16,33.6],[-77.94,33.62],[-77.92,33.62],[-77.9,33.62],[-77.88,33.62],[-77.32,33.62],[-77.3,33.62],[-77.28,33.62],[-77.26,33.62],[-77.24,33.62],[-77.22,33.62],[-77.2,33.62],[-77.18,33.62],[-77.16,33.62],[-77.96,33.64],[-77.94,33.64],[-77.92,33.64],[-77.9,33.64],[-77.88,33.64],[-77.36,33.64],[-77.34,33.64],[-77.32,33.64],[-77.3,33.64],[-77.28,33.64],[-77.26,33.64],[-77.24,33.64],[-77.22,33.64],[-77.2,33.64],[-77.18,33.64],[-77.16,33.64],[-77.96,33.66],[-77.94,33.66],[-77.92,33.66],[-77.9,33.66],[-77.88,33.66],[-77.36,33.66],[-77.34,33.66],[-77.32,33.66],[-77.3,33.66],[-77.28,33.66],[-77.26,33.66],[-77.24,33.66],[-77.22,33.66],[-77.2,33.66],[-78.0,33.68],[-77.98,33.68],[-77.96,33.68],[-77.94,33.68],[-77.92,33.68],[-77.9,33.68],[-77.88,33.68],[-77.4,33.68],[-77.38,33.68],[-77.36,33.68],[-77.34,33.68],[-77.32,33.68],[-77.3,33.68],[-77.28,33.68],[-77.26,33.68],[-77.24,33.68],[-78.0,33.7],[-77.98,33.7],[-77.96,33.7],[-77.94,33.7],[-77.92,33.7],[-77.9,33.7],[-77.88,33.7],[-77.4,33.7],[-77.38,33.7],[-77.36,33.7],[-77.34,33.7],[-77.32,33.7],[-77.3,33.7],[-77.28,33.7],[-78.06,33.72],[-78.04,33.72],[-78.02,33.72],[-78.0,33.72],[-77.98,33.72],[-77.96,33.72],[-77.94,33.72],[-77.92,33.72],[-77.9,33.72],[-77.88,33.72],[-77.44,33.72],[-77.42,33.72],[-77.4,33.72],[-77.38,33.72],[-77.36,33.72],[-77.34,33.72],[-77.32,33.72],[-78.08,33.74],[-78.06,33.74],[-78.04,33.74],[-78.02,33.74],[-78.0,33.74],[-77.98,33.74],[-77.96,33.74],[-77.94,33.74],[-77.92,33.74],[-77.44,33.74],[-77.42,33.74],[-77.4,33.74],[-77.38,33.74],[-77.36,33.74],[-78.08,33.76],[-78.06,33.76],[-78.04,33.76],[-78.02,33.76],[-78.0,33.76],[-77.98,33.76],[-77.96,33.76],[-77.94,33.76],[-77.92,33.76],[-77.54,33.76],[-77.52,33.76],[-77.46,33.76],[-77.44,33.76],[-77.42,33.76],[-77.4,33.76],[-77.38,33.76],[-77.36,33.76],[-78.1,33.78],[-78.08,33.78],[-78.06,33.78],[-78.04,33.78],[-78.02,33.78],[-78.0,33.78],[-77.96,33.78],[-77.94,33.78],[-77.54,33.78],[-77.52,33.78],[-77.46,33.78],[-77.44,33.78],[-77.42,33.78],[-77.4,33.78],[-77.38,33.78],[-77.36,33.78],[-78.1,33.8],[-78.08,33.8],[-78.06,33.8],[-78.04,33.8],[-78.02,33.8],[-78.0,33.8],[-77.58,33.8],[-77.56,33.8],[-77.54,33.8],[-77.52,33.8],[-77.5,33.8],[-77.48,33.8],[-77.46,33.8],[-77.44,33.8],[-77.42,33.8],[-77.4,33.8],[-77.38,33.8],[-77.36,33.8],[-77.34,33.8],[-78.12,33.82],[-78.1,33.82],[-78.08,33.82],[-78.06,33.82],[-78.04,33.82],[-77.64,33.82],[-77.62,33.82],[-77.6,33.82],[-77.58,33.82],[-77.56,33.82],[-77.54,33.82],[-77.52,33.82],[-77.5,33.82],[-77.48,33.82],[-77.46,33.82],[-77.44,33.82],[-77.4,33.82],[-77.38,33.82],[-77.36,33.82],[-77.34,33.82],[-78.12,33.84],[-78.1,33.84],[-78.08,33.84],[-78.06,33.84],[-78.04,33.84],[-77.68,33.84],[-77.66,33.84],[-77.64,33.84],[-77.62,33.84],[-77.6,33.84],[-77.58,33.84],[-77.56,33.84],[-77.54,33.84],[-77.52,33.84],[-78.12,33.86],[-78.1,33.86],[-78.08,33.86],[-77.7,33.86],[-77.68,33.86],[-77.66,33.86],[-77.64,33.86],[-77.62,33.86],[-77.6,33.86],[-78.12,33.88],[-78.1,33.88],[-78.08,33.88],[-78.06,33.88],[-77.72,33.88],[-77.7,33.88],[-77.68,33.88],[-77.66,33.88],[-77.64,33.88],[-77.62,33.88],[-77.6,33.88],[-78.12,33.9],[-78.1,33.9],[-78.08,33.9],[-78.06,33.9],[-77.72,33.9],[-77.7,33.9],[-77.68,33.9],[-77.66,33.9],[-77.64,33.9],[-77.62,33.9],[-78.16,33.92],[-78.14,33.92],[-78.12,33.92],[-78.1,33.92],[-78.08,33.92],[-78.06,33.92],[-77.76,33.92],[-77.74,33.92],[-77.72,33.92],[-77.7,33.92],[-77.68,33.92],[-77.66,33.92],[-77.64,33.92],[-77.62,33.92],[-78.22,33.94],[-78.2,33.94],[-78.18,33.94],[-78.16,33.94],[-78.14,33.94],[-78.12,33.94],[-78.1,33.94],[-78.08,33.94],[-78.06,33.94],[-77.76,33.94],[-77.74,33.94],[-77.72,33.94],[-77.68,33.94],[-77.66,33.94],[-77.64,33.94],[-78.26,33.96],[-78.24,33.96],[-78.22,33.96],[-78.2,33.96],[-78.18,33.96],[-78.16,33.96],[-78.14,33.96],[-78.12,33.96],[-78.1,33.96],[-78.08,33.96],[-77.76,33.96],[-77.74,33.96],[-77.7,33.96],[-77.68,33.96],[-77.66,33.96],[-77.64,33.96],[-78.26,33.98],[-78.24,33.98],[-78.22,33.98],[-78.2,33.98],[-78.18,33.98],[-77.76,33.98],[-77.74,33.98],[-77.72,33.98],[-77.7,33.98],[-77.68,33.98],[-77.66,33.98],[-77.64,33.98],[-77.52,33.98],[-77.5,33.98],[-77.48,33.98],[-78.28,34.0],[-78.26,34.0],[-78.24,34.0],[-78.22,34.0],[-78.2,34.0],[-78.18,34.0],[-77.76,34.0],[-77.74,34.0],[-77.72,34.0],[-77.7,34.0],[-77.68,34.0],[-77.66,34.0],[-77.64,34.0],[-77.62,34.0],[-77.6,34.0],[-77.58,34.0],[-77.56,34.0],[-77.54,34.0],[-77.52,34.0],[-77.5,34.0],[-77.48,34.0],[-78.28,34.02],[-78.26,34.02],[-78.24,34.02],[-77.76,34.02],[-77.74,34.02],[-77.7,34.02],[-77.68,34.02],[-77.66,34.02],[-77.64,34.02],[-77.62,34.02],[-77.6,34.02],[-77.58,34.02],[-77.56,34.02],[-77.54,34.02],[-77.52,34.02],[-77.78,34.04],[-77.76,34.04],[-77.74,34.04],[-77.7,34.04],[-77.68,34.04],[-77.66,34.04],[-77.64,34.04],[-77.62,34.04],[-77.6,34.04],[-77.58,34.04],[-77.56,34.04],[-77.54,34.04],[-77.52,34.04],[-77.78,34.06],[-77.76,34.06],[-77.74,34.06],[-77.68,34.06],[-77.66,34.06],[-77.64,34.06],[-77.62,34.06],[-77.6,34.06],[-77.58,34.06],[-77.56,34.06],[-77.54,34.06],[-77.52,34.06],[-77.58,34.08],[-77.56,34.08],[-77.54,34.08],[-77.52,34.08],[-77.64,34.1],[-77.62,34.1],[-77.6,34.1],[-77.58,34.1],[-77.56,34.1],[-77.64,34.12],[-77.62,34.12],[-77.6,34.12],[-77.58,34.12],[-77.56,34.12],[-77.64,34.14],[-77.62,34.14],[-77.6,34.14],[-77.58,34.14],[-77.64,34.16],[-77.62,34.16],[-77.6,34.16],[-77.58,34.16],[-77.64,34.18],[-77.62,34.18],[-77.6,34.18],[-77.7,34.2],[-77.68,34.2],[-77.66,34.2],[-77.64,34.2],[-77.62,34.2],[-77.6,34.2],[-77.7,34.22],[-77.68,34.22],[-77.66,34.22],[-77.64,34.22],[-77.62,34.22],[-77.68,34.24],[-77.66,34.24],[-77.64,34.24],[-77.62,34.24]]},"properties":{"source_var":"sst","pixel_count":1971,"strength_unit":"degC","strength_median":2.0916,"strength_max":3.7004}},{"type":"Feature","geometry":{"type":"LineString","coordinates":[[-78.58,34.24],[-78.56,34.24],[-78.54,34.24],[-78.52,34.24],[-78.5,34.24],[-77.88,34.24],[-77.86,34.24],[-78.58,34.26],[-78.56,34.26],[-78.54,34.26],[-78.52,34.26],[-78.5,34.26],[-77.88,34.26],[-77.86,34.26],[-78.64,34.28],[-78.62,34.28],[-78.6,34.28],[-78.58,34.28],[-78.56,34.28],[-78.54,34.28],[-78.52,34.28],[-78.28,34.28],[-78.26,34.28],[-78.24,34.28],[-78.22,34.28],[-78.2,34.28],[-77.88,34.28],[-77.86,34.28],[-78.72,34.3],[-78.7,34.3],[-78.68,34.3],[-78.66,34.3],[-78.64,34.3],[-78.62,34.3],[-78.6,34.3],[-78.58,34.3],[-78.56,34.3],[-78.32,34.3],[-78.3,34.3],[-78.28,34.3],[-78.26,34.3],[-78.24,34.3],[-78.22,34.3],[-78.2,34.3],[-78.18,34.3],[-78.16,34.3],[-78.14,34.3],[-78.12,34.3],[-78.06,34.3],[-78.04,34.3],[-78.02,34.3],[-78.0,34.3],[-77.88,34.3],[-77.86,34.3],[-77.84,34.3],[-77.82,34.3],[-78.72,34.32],[-78.7,34.32],[-78.68,34.32],[-78.66,34.32],[-78.64,34.32],[-78.62,34.32],[-78.6,34.32],[-78.32,34.32],[-78.3,34.32],[-78.22,34.32],[-78.2,34.32],[-78.18,34.32],[-78.16,34.32],[-78.14,34.32],[-78.12,34.32],[-78.1,34.32],[-78.08,34.32],[-78.06,34.32],[-78.04,34.32],[-78.02,34.32],[-78.0,34.32],[-77.98,34.32],[-77.96,34.32],[-77.94,34.32],[-77.92,34.32],[-77.9,34.32],[-77.88,34.32],[-77.86,34.32],[-77.84,34.32],[-77.82,34.32],[-78.68,34.34],[-78.66,34.34],[-78.64,34.34],[-78.28,34.34],[-78.26,34.34],[-78.24,34.34],[-78.22,34.34],[-78.2,34.34],[-78.18,34.34],[-78.16,34.34],[-78.14,34.34],[-78.12,34.34],[-78.1,34.34],[-78.08,34.34],[-78.06,34.34],[-78.04,34.34],[-78.02,34.34],[-78.0,34.34],[-77.98,34.34],[-77.96,34.34],[-77.94,34.34],[-77.92,34.34],[-77.9,34.34],[-77.88,34.34],[-77.86,34.34],[-78.7,34.36],[-78.68,34.36],[-78.66,34.36],[-78.64,34.36],[-78.54,34.36],[-78.52,34.36],[-78.5,34.36],[-78.48,34.36],[-78.46,34.36],[-78.44,34.36],[-78.42,34.36],[-78.4,34.36],[-78.38,34.36],[-78.36,34.36],[-78.34,34.36],[-78.3,34.36],[-78.28,34.36],[-78.26,34.36],[-78.24,34.36],[-78.22,34.36],[-78.2,34.36],[-78.18,34.36],[-78.16,34.36],[-78.14,34.36],[-78.12,34.36],[-78.1,34.36],[-78.08,34.36],[-78.06,34.36],[-78.04,34.36],[-78.02,34.36],[-78.0,34.36],[-77.98,34.36],[-77.96,34.36],[-77.94,34.36],[-77.92,34.36],[-77.9,34.36],[-77.88,34.36],[-77.86,34.36],[-78.7,34.38],[-78.68,34.38],[-78.66,34.38],[-78.54,34.38],[-78.52,34.38],[-78.5,34.38],[-78.48,34.38],[-78.46,34.38],[-78.44,34.38],[-78.42,34.38],[-78.4,34.38],[-78.38,34.38],[-78.36,34.38],[-78.34,34.38],[-78.32,34.38],[-78.3,34.38],[-78.28,34.38],[-78.72,34.4],[-78.7,34.4],[-78.68,34.4],[-78.66,34.4],[-78.64,34.4],[-78.62,34.4],[-78.6,34.4],[-78.58,34.4],[-78.56,34.4],[-78.54,34.4],[-78.52,34.4],[-78.5,34.4],[-78.48,34.4],[-78.46,34.4],[-78.44,34.4],[-78.42,34.4],[-78.4,34.4],[-78.38,34.4],[-78.36,34.4],[-78.34,34.4],[-78.32,34.4],[-78.76,34.42],[-78.74,34.42],[-78.72,34.42],[-78.7,34.42],[-78.68,34.42],[-78.66,34.42],[-78.64,34.42],[-78.62,34.42],[-78.6,34.42],[-78.58,34.42],[-78.56,34.42],[-78.54,34.42],[-78.76,34.44],[-78.74,34.44],[-78.72,34.44],[-78.7,34.44],[-78.68,34.44],[-78.66,34.44],[-78.64,34.44],[-78.62,34.44],[-78.6,34.44],[-78.58,34.44],[-78.8,34.46],[-78.78,34.46],[-78.76,34.46],[-78.74,34.46],[-78.72,34.46],[-78.7,34.46],[-78.68,34.46],[-78.66,34.46],[-78.64,34.46],[-78.62,34.46],[-78.6,34.46],[-78.82,34.48],[-78.8,34.48],[-78.78,34.48],[-78.76,34.48],[-78.74,34.48],[-78.72,34.48],[-78.7,34.48],[-78.68,34.48],[-78.66,34.48],[-78.64,34.48],[-78.62,34.48],[-78.6,34.48],[-78.82,34.5],[-78.8,34.5],[-78.78,34.5],[-78.76,34.5],[-78.74,34.5],[-78.72,34.5],[-78.7,34.5],[-78.68,34.5],[-78.84,34.52],[-78.82,34.52],[-78.8,34.52],[-78.78,34.52],[-78.76,34.52],[-78.74,34.52],[-78.72,34.52],[-78.7,34.52],[-78.84,34.54],[-78.82,34.54],[-78.8,34.54],[-78.78,34.54],[-78.76,34.54],[-78.74,34.54],[-78.72,34.54],[-78.86,34.56],[-78.84,34.56],[-78.82,34.56],[-78.92,34.58],[-78.9,34.58],[-78.88,34.58],[-78.86,34.58],[-78.84,34.58],[-78.96,34.6],[-78.94,34.6],[-78.92,34.6],[-78.9,34.6],[-78.88,34.6],[-78.86,34.6],[-78.84,34.6],[-78.98,34.62],[-78.96,34.62],[-78.94,34.62],[-78.92,34.62],[-79.02,34.64],[-79.0,34.64],[-78.98,34.64],[-78.96,34.64],[-79.06,34.66],[-79.04,34.66],[-79.02,34.66],[-79.0,34.66],[-78.98,34.66],[-78.96,34.66],[-79.08,34.68],[-79.06,34.68],[-79.04,34.68],[-79.12,34.7],[-79.1,34.7],[-79.08,34.7],[-79.06,34.7],[-79.14,34.72],[-79.12,34.72],[-79.1,34.72],[-79.08,34.72],[-79.06,34.72],[-79.2,34.74],[-79.18,34.74],[-79.16,34.74],[-79.14,34.74],[-79.12,34.74],[-79.26,34.76],[-79.24,34.76],[-79.22,34.76],[-79.2,34.76],[-79.18,34.76],[-79.16,34.76],[-79.3,34.78],[-79.28,34.78],[-79.26,34.78],[-79.24,34.78],[-79.22,34.78],[-79.2,34.78],[-79.44,34.8],[-79.42,34.8],[-79.4,34.8],[-79.34,34.8],[-79.32,34.8],[-79.3,34.8],[-79.28,34.8],[-79.26,34.8],[-79.46,34.82],[-79.44,34.82],[-79.42,34.82],[-79.4,34.82],[-79.38,34.82],[-79.36,34.82],[-79.34,34.82],[-79.32,34.82],[-79.3,34.82],[-79.5,34.84],[-79.48,34.84],[-79.46,34.84],[-79.44,34.84],[-79.42,34.84],[-79.4,34.84],[-79.38,34.84],[-79.36,34.84],[-79.34,34.84],[-79.32,34.84],[-79.3,34.84],[-79.28,34.84],[-79.26,34.84],[-79.24,34.84],[-79.22,34.84],[-79.2,34.84],[-79.5,34.86],[-79.48,34.86],[-79.46,34.86],[-79.44,34.86],[-79.42,34.86],[-79.4,34.86],[-79.28,34.86],[-79.26,34.86],[-79.24,34.86],[-79.22,34.86],[-79.2,34.86],[-79.52,34.88],[-79.5,34.88],[-79.48,34.88],[-79.46,34.88],[-79.44,34.88],[-79.42,34.88],[-79.4,34.88],[-79.22,34.88],[-79.2,34.88],[-79.18,34.88],[-79.58,34.9],[-79.56,34.9],[-79.54,34.9],[-79.52,34.9],[-79.5,34.9],[-79.48,34.9],[-79.44,34.9],[-79.42,34.9],[-79.22,34.9],[-79.2,34.9],[-79.18,34.9],[-79.6,34.92],[-79.58,34.92],[-79.56,34.92],[-79.54,34.92],[-79.52,34.92],[-79.44,34.92],[-79.42,34.92],[-79.68,34.94],[-79.66,34.94],[-79.64,34.94],[-79.62,34.94],[-79.6,34.94],[-79.58,34.94],[-79.56,34.94],[-79.54,34.94],[-79.72,34.96],[-79.7,34.96],[-79.68,34.96],[-79.66,34.96],[-79.64,34.96],[-79.62,34.96],[-79.6,34.96],[-79.58,34.96],[-79.56,34.96],[-79.54,34.96],[-79.78,34.98],[-79.76,34.98],[-79.74,34.98],[-79.72,34.98],[-79.7,34.98],[-79.68,34.98],[-79.56,34.98],[-79.54,34.98],[-79.82,35.0],[-79.8,35.0],[-79.78,35.0],[-79.76,35.0],[-79.74,35.0],[-79.72,35.0],[-79.56,35.0],[-79.54,35.0],[-79.86,35.02],[-79.84,35.02],[-79.82,35.02],[-79.8,35.02],[-79.78,35.02],[-79.56,35.02],[-79.54,35.02],[-79.9,35.04],[-79.88,35.04],[-79.86,35.04],[-79.84,35.04],[-79.82,35.04],[-79.8,35.04],[-79.56,35.04],[-79.54,35.04],[-79.94,35.06],[-79.92,35.06],[-79.9,35.06],[-79.88,35.06],[-79.86,35.06],[-79.84,35.06],[-79.56,35.06],[-79.54,35.06],[-79.96,35.08],[-79.94,35.08],[-79.92,35.08],[-79.9,35.08],[-79.88,35.08],[-79.86,35.08],[-79.84,35.08],[-79.56,35.08],[-79.54,35.08],[-79.98,35.1],[-79.96,35.1],[-79.94,35.1],[-79.92,35.1],[-80.0,35.12],[-79.98,35.12],[-79.96,35.12],[-80.02,35.14],[-80.0,35.14],[-79.98,35.14],[-79.96,35.14],[-80.04,35.16],[-80.02,35.16],[-80.0,35.16],[-79.98,35.16],[-80.04,35.18],[-80.02,35.18],[-80.0,35.18],[-80.06,35.2],[-80.04,35.2],[-80.02,35.2],[-80.0,35.2],[-80.08,35.22],[-80.06,35.22],[-80.04,35.22],[-80.08,35.24],[-80.06,35.24],[-80.04,35.24],[-80.1,35.26],[-80.08,35.26],[-80.06,35.26],[-80.04,35.26],[-80.12,35.28],[-80.1,35.28],[-80.08,35.28],[-80.12,35.3],[-80.1,35.3],[-80.14,35.32],[-80.12,35.32],[-80.1,35.32],[-80.16,35.34],[-80.14,35.34],[-80.12,35.34],[-80.18,35.36],[-80.16,35.36],[-80.14,35.36],[-80.18,35.38],[-80.16,35.38],[-80.2,35.4],[-80.18,35.4],[-80.16,35.4],[-80.22,35.42],[-80.2,35.42],[-80.18,35.42],[-80.16,35.42],[-80.22,35.44],[-80.2,35.44],[-80.18,35.44],[-80.16,35.44]]},"properties":{"source_var":"sst","pixel_count":510,"strength_unit":"degC","strength_median":2.9213,"strength_max":4.2563}},{"type":"Feature","geometry":{"type":"LineString","coordinates":[[-75.78,31.12],[-75.76,31.12],[-75.74,31.12],[-75.72,31.12],[-75.78,31.14],[-75.76,31.14],[-75.74,31.14],[-75.72,31.14],[-75.76,31.16],[-75.74,31.16],[-75.72,31.16],[-75.74,31.18],[-75.72,31.18],[-75.76,31.2],[-75.74,31.2],[-75.72,31.2],[-75.76,31.22],[-75.74,31.22],[-75.72,31.22],[-75.76,31.24],[-75.74,31.24],[-75.72,31.24],[-75.72,31.26],[-75.7,31.26],[-75.72,31.28],[-75.7,31.28],[-75.72,31.3],[-75.7,31.3],[-75.74,31.32],[-75.72,31.32],[-75.7,31.32],[-75.74,31.34],[-75.72,31.34],[-75.78,31.36],[-75.76,31.36],[-75.74,31.36],[-75.72,31.36],[-75.9,31.38],[-75.88,31.38],[-75.86,31.38],[-75.84,31.38],[-75.82,31.38],[-75.8,31.38],[-75.78,31.38],[-75.76,31.38],[-75.74,31.38],[-75.92,31.4],[-75.9,31.4],[-75.88,31.4],[-75.86,31.4],[-75.84,31.4],[-75.82,31.4],[-75.8,31.4],[-75.78,31.4],[-75.76,31.4],[-75.94,31.42],[-75.92,31.42],[-75.9,31.42],[-75.88,31.42],[-75.86,31.42],[-75.84,31.42],[-75.82,31.42],[-75.8,31.42],[-75.98,31.44],[-75.96,31.44],[-75.94,31.44],[-75.92,31.44],[-75.9,31.44],[-75.88,31.44],[-76.0,31.46],[-75.98,31.46],[-75.96,31.46],[-75.94,31.46],[-75.92,31.46],[-76.0,31.48],[-75.98,31.48],[-75.96,31.48],[-75.94,31.48],[-75.92,31.48],[-76.02,31.5],[-76.0,31.5],[-75.98,31.5],[-75.96,31.5],[-76.02,31.52],[-76.0,31.52],[-75.98,31.52],[-75.96,31.52],[-76.02,31.54],[-76.0,31.54],[-75.98,31.54],[-75.96,31.54],[-76.1,31.56],[-76.08,31.56],[-76.02,31.56],[-76.0,31.56],[-76.1,31.58],[-76.08,31.58],[-76.06,31.58],[-76.04,31.58],[-76.02,31.58],[-76.0,31.58],[-76.5,31.6],[-76.48,31.6],[-76.46,31.6],[-76.44,31.6],[-76.42,31.6],[-76.4,31.6],[-76.38,31.6],[-76.14,31.6],[-76.12,31.6],[-76.1,31.6],[-76.08,31.6],[-76.06,31.6],[-76.04,31.6],[-76.02,31.6],[-76.5,31.62],[-76.48,31.62],[-76.46,31.62],[-76.44,31.62],[-76.42,31.62],[-76.4,31.62],[-76.38,31.62],[-76.22,31.62],[-76.2,31.62],[-76.18,31.62],[-76.16,31.62],[-76.14,31.62],[-76.12,31.62],[-76.1,31.62],[-76.08,31.62],[-76.06,31.62],[-76.04,31.62],[-76.46,31.64],[-76.44,31.64],[-76.42,31.64],[-76.4,31.64],[-76.38,31.64],[-76.36,31.64],[-76.34,31.64],[-76.32,31.64],[-76.3,31.64],[-76.28,31.64],[-76.26,31.64],[-76.24,31.64],[-76.22,31.64],[-76.2,31.64],[-76.18,31.64],[-76.16,31.64],[-76.14,31.64],[-76.12,31.64],[-76.1,31.64],[-76.08,31.64],[-76.5,31.66],[-76.48,31.66],[-76.46,31.66],[-76.38,31.66],[-76.36,31.66],[-76.34,31.66],[-76.32,31.66],[-76.3,31.66],[-76.28,31.66],[-76.26,31.66],[-76.24,31.66],[-76.22,31.66],[-76.2,31.66],[-76.18,31.66],[-76.16,31.66],[-76.5,31.68],[-76.48,31.68],[-76.46,31.68],[-76.3,31.68],[-76.28,31.68],[-76.26,31.68],[-76.24,31.68],[-76.48,31.7],[-76.46,31.7],[-76.48,31.72],[-76.46,31.72],[-76.44,31.72],[-76.48,31.74],[-76.46,31.74],[-76.44,31.74],[-76.5,31.76],[-76.48,31.76],[-76.46,31.76],[-76.44,31.76],[-76.52,31.78],[-76.5,31.78],[-76.48,31.78],[-76.46,31.78],[-76.44,31.78],[-76.56,31.8],[-76.54,31.8],[-76.52,31.8],[-76.5,31.8],[-76.46,31.8],[-76.44,31.8],[-76.56,31.82],[-76.54,31.82],[-76.52,31.82],[-76.48,31.82],[-76.46,31.82],[-76.44,31.82],[-76.56,31.84],[-76.54,31.84],[-76.52,31.84],[-76.5,31.84],[-76.48,31.84],[-76.46,31.84],[-76.44,31.84],[-76.56,31.86],[-76.54,31.86],[-76.5,31.86],[-76.48,31.86],[-76.46,31.86],[-76.44,31.86],[-76.58,31.88],[-76.56,31.88],[-76.54,31.88],[-76.5,31.88],[-76.48,31.88],[-76.46,31.88],[-76.44,31.88],[-76.58,31.9],[-76.56,31.9],[-76.5,31.9],[-76.48,31.9],[-76.46,31.9],[-76.44,31.9],[-76.08,31.9],[-76.06,31.9],[-76.58,31.92],[-76.56,31.92],[-76.46,31.92],[-76.44,31.92],[-76.1,31.92],[-76.08,31.92],[-76.06,31.92],[-76.58,31.94],[-76.56,31.94],[-76.54,31.94],[-76.52,31.94],[-76.5,31.94],[-76.48,31.94],[-76.46,31.94],[-76.44,31.94],[-76.12,31.94],[-76.1,31.94],[-76.08,31.94],[-76.06,31.94],[-76.58,31.96],[-76.56,31.96],[-76.54,31.96],[-76.52,31.96],[-76.5,31.96],[-76.48,31.96],[-76.46,31.96],[-76.44,31.96],[-76.42,31.96],[-76.4,31.96],[-76.38,31.96],[-76.36,31.96],[-76.34,31.96],[-76.32,31.96],[-76.14,31.96],[-76.12,31.96],[-76.1,31.96],[-76.08,31.96],[-76.56,31.98],[-76.54,31.98],[-76.52,31.98],[-76.5,31.98],[-76.48,31.98],[-76.46,31.98],[-76.44,31.98],[-76.42,31.98],[-76.4,31.98],[-76.38,31.98],[-76.36,31.98],[-76.34,31.98],[-76.32,31.98],[-76.3,31.98],[-76.16,31.98],[-76.14,31.98],[-76.12,31.98],[-76.1,31.98],[-76.56,32.0],[-76.54,32.0],[-76.52,32.0],[-76.5,32.0],[-76.48,32.0],[-76.36,32.0],[-76.34,32.0],[-76.32,32.0],[-76.3,32.0],[-76.28,32.0],[-76.18,32.0],[-76.16,32.0],[-76.14,32.0],[-76.3,32.02],[-76.28,32.02],[-76.26,32.02],[-76.24,32.02],[-76.22,32.02],[-76.2,32.02],[-76.18,32.02],[-76.16,32.02],[-76.34,32.04],[-76.32,32.04],[-76.3,32.04],[-76.28,32.04],[-76.26,32.04],[-76.24,32.04],[-76.22,32.04],[-76.2,32.04],[-76.18,32.04],[-76.36,32.06],[-76.34,32.06],[-76.32,32.06],[-76.3,32.06],[-76.28,32.06],[-76.26,32.06],[-76.24,32.06],[-76.22,32.06],[-76.36,32.08],[-76.34,32.08],[-76.32,32.08],[-76.3,32.08],[-76.28,32.08],[-76.26,32.08],[-76.24,32.08],[-76.36,32.1],[-76.34,32.1],[-76.32,32.1],[-76.3,32.1],[-76.28,32.1],[-76.26,32.1],[-76.36,32.12],[-76.34,32.12],[-76.32,32.12],[-76.3,32.12],[-76.28,32.12],[-76.36,32.14],[-76.34,32.14],[-76.32,32.14],[-76.36,32.16],[-76.34,32.16]]},"properties":{"source_var":"sst","pixel_count":347,"strength_unit":"degC","strength_median":2.8853,"strength_max":3.2956}},{"type":"Feature","geometry":{"type":"LineString","coordinates":[[-74.0,32.84],[-73.98,32.84],[-73.96,32.84],[-73.94,32.84],[-74.0,32.86],[-73.98,32.86],[-73.96,32.86],[-73.94,32.86],[-74.04,32.88],[-74.02,32.88],[-74.0,32.88],[-73.98,32.88],[-74.04,32.9],[-74.02,32.9],[-74.0,32.9],[-73.98,32.9],[-73.96,32.9],[-73.94,32.9],[-74.18,32.92],[-74.16,32.92],[-74.1,32.92],[-74.08,32.92],[-74.06,32.92],[-74.04,32.92],[-74.02,32.92],[-74.0,32.92],[-73.98,32.92],[-73.96,32.92],[-73.94,32.92],[-74.18,32.94],[-74.16,32.94],[-74.14,32.94],[-74.1,32.94],[-74.08,32.94],[-74.06,32.94],[-74.04,32.94],[-74.02,32.94],[-74.0,32.94],[-73.98,32.94],[-73.96,32.94],[-73.94,32.94],[-74.18,32.96],[-74.16,32.96],[-74.14,32.96],[-74.12,32.96],[-74.1,32.96],[-74.08,32.96],[-74.06,32.96],[-74.04,32.96],[-74.02,32.96],[-74.0,32.96],[-73.98,32.96],[-73.96,32.96],[-74.26,32.98],[-74.24,32.98],[-74.22,32.98],[-74.16,32.98],[-74.14,32.98],[-74.12,32.98],[-74.1,32.98],[-74.08,32.98],[-74.06,32.98],[-74.04,32.98],[-74.02,32.98],[-74.0,32.98],[-73.98,32.98],[-74.28,33.0],[-74.26,33.0],[-74.24,33.0],[-74.22,33.0],[-74.18,33.0],[-74.16,33.0],[-74.14,33.0],[-74.12,33.0],[-74.1,33.0],[-74.08,33.0],[-74.3,33.02],[-74.28,33.02],[-74.26,33.02],[-74.24,33.02],[-74.22,33.02],[-74.2,33.02],[-74.18,33.02],[-74.16,33.02],[-74.14,33.02],[-74.12,33.02],[-74.1,33.02],[-74.08,33.02],[-74.06,33.02],[-74.04,33.02],[-74.02,33.02],[-73.94,33.02],[-73.92,33.02],[-73.9,33.02],[-73.88,33.02],[-74.36,33.04],[-74.34,33.04],[-74.32,33.04],[-74.3,33.04],[-74.28,33.04],[-74.26,33.04],[-74.24,33.04],[-74.22,33.04],[-74.2,33.04],[-74.18,33.04],[-74.16,33.04],[-74.14,33.04],[-74.12,33.04],[-74.1,33.04],[-74.08,33.04],[-74.06,33.04],[-74.04,33.04],[-74.02,33.04],[-74.0,33.04],[-73.98,33.04],[-73.96,33.04],[-73.94,33.04],[-73.92,33.04],[-73.9,33.04],[-73.88,33.04],[-74.36,33.06],[-74.34,33.06],[-74.32,33.06],[-74.3,33.06],[-74.28,33.06],[-74.26,33.06],[-74.24,33.06],[-74.22,33.06],[-74.2,33.06],[-74.18,33.06],[-74.16,33.06],[-74.14,33.06],[-74.12,33.06],[-74.1,33.06],[-74.08,33.06],[-74.06,33.06],[-74.04,33.06],[-74.0,33.06],[-73.98,33.06],[-73.96,33.06],[-73.94,33.06],[-73.92,33.06],[-74.36,33.08],[-74.34,33.08],[-74.28,33.08],[-74.26,33.08],[-74.24,33.08],[-74.22,33.08],[-74.2,33.08],[-74.18,33.08],[-74.16,33.08],[-74.36,33.1],[-74.34,33.1],[-74.3,33.1],[-74.28,33.1],[-74.26,33.1],[-74.24,33.1],[-74.22,33.1],[-74.2,33.1],[-74.36,33.12],[-74.34,33.12],[-74.32,33.12],[-74.3,33.12],[-74.28,33.12],[-74.26,33.12],[-74.24,33.12],[-74.32,33.14],[-74.3,33.14],[-74.28,33.14],[-74.26,33.14],[-74.32,33.16],[-74.3,33.16],[-74.28,33.16],[-74.26,33.16],[-74.24,33.16],[-74.3,33.18],[-74.28,33.18],[-74.26,33.18],[-74.24,33.18],[-74.28,33.2],[-74.26,33.2],[-74.24,33.2],[-74.22,33.2],[-74.3,33.22],[-74.28,33.22],[-74.26,33.22],[-74.24,33.22],[-74.22,33.22],[-74.2,33.22],[-74.0,33.22],[-73.98,33.22],[-74.3,33.24],[-74.28,33.24],[-74.26,33.24],[-74.22,33.24],[-74.2,33.24],[-74.18,33.24],[-74.16,33.24],[-74.14,33.24],[-74.12,33.24],[-74.1,33.24],[-74.08,33.24],[-74.06,33.24],[-74.04,33.24],[-74.02,33.24],[-74.0,33.24],[-73.98,33.24],[-74.28,33.26],[-74.26,33.26],[-74.24,33.26],[-74.2,33.26],[-74.18,33.26],[-74.16,33.26],[-74.14,33.26],[-74.12,33.26],[-74.1,33.26],[-74.08,33.26],[-74.06,33.26],[-74.04,33.26],[-74.02,33.26],[-74.0,33.26],[-74.26,33.28],[-74.24,33.28],[-74.22,33.28],[-74.2,33.28],[-74.18,33.28],[-74.16,33.28],[-74.14,33.28],[-74.12,33.28],[-74.1,33.28],[-74.08,33.28],[-74.06,33.28],[-74.04,33.28],[-74.02,33.28],[-74.0,33.28],[-73.98,33.28],[-73.96,33.28],[-73.94,33.28],[-74.22,33.3],[-74.2,33.3],[-74.18,33.3],[-74.16,33.3],[-74.14,33.3],[-74.12,33.3],[-74.1,33.3],[-74.08,33.3],[-74.06,33.3],[-74.04,33.3],[-74.02,33.3],[-74.0,33.3],[-73.98,33.3],[-73.96,33.3],[-73.94,33.3],[-74.06,33.32],[-74.04,33.32],[-74.02,33.32],[-74.0,33.32],[-73.98,33.32],[-73.96,33.32],[-73.94,33.32],[-73.92,33.32],[-74.02,33.34],[-74.0,33.34],[-73.98,33.34],[-73.96,33.34],[-73.94,33.34],[-73.92,33.34],[-73.9,33.34],[-73.88,33.34],[-73.98,33.36],[-73.96,33.36],[-73.94,33.36],[-73.92,33.36],[-73.9,33.36],[-73.88,33.36],[-73.94,33.38],[-73.92,33.38],[-73.9,33.38],[-73.88,33.38],[-73.86,33.38],[-73.9,33.4],[-73.88,33.4],[-73.86,33.4],[-73.84,33.4],[-73.82,33.4],[-73.88,33.42],[-73.86,33.42],[-73.84,33.42],[-73.82,33.42],[-73.86,33.44],[-73.84,33.44],[-73.82,33.44],[-73.8,33.44],[-73.78,33.44],[-73.76,33.44],[-73.84,33.46],[-73.82,33.46],[-73.8,33.46],[-73.78,33.46],[-73.76,33.46]]},"properties":{"source_var":"sst","pixel_count":300,"strength_unit":"degC","strength_median":1.6415,"strength_max":3.3821}},{"type":"Feature","geometry":{"type":"LineString","coordinates":[[-75.84,33.62],[-75.82,33.62],[-75.8,33.62],[-75.86,33.64],[-75.84,33.64],[-75.82,33.64],[-75.8,33.64],[-75.86,33.66],[-75.84,33.66],[-75.82,33.66],[-75.86,33.68],[-75.84,33.68],[-75.82,33.68],[-75.9,33.7],[-75.88,33.7],[-75.86,33.7],[-75.84,33.7],[-75.82,33.7],[-75.92,33.72],[-75.9,33.72],[-75.88,33.72],[-75.86,33.72],[-75.92,33.74],[-75.9,33.74],[-75.88,33.74],[-76.0,33.76],[-75.98,33.76],[-75.96,33.76],[-75.94,33.76],[-75.92,33.76],[-75.9,33.76],[-75.88,33.76],[-76.0,33.78],[-75.98,33.78],[-75.96,33.78],[-75.94,33.78],[-75.92,33.78],[-76.0,33.8],[-75.98,33.8],[-75.96,33.8],[-75.94,33.8],[-76.0,33.82],[-75.98,33.82],[-75.96,33.82],[-75.94,33.82],[-75.98,33.84],[-75.96,33.84],[-76.02,33.86],[-76.0,33.86],[-75.98,33.86],[-75.96,33.86],[-76.02,33.88],[-76.0,33.88],[-75.98,33.88],[-75.96,33.88],[-76.02,33.9],[-76.0,33.9],[-75.98,33.9],[-76.08,33.92],[-76.06,33.92],[-76.04,33.92],[-76.02,33.92],[-76.0,33.92],[-76.08,33.94],[-76.06,33.94],[-76.04,33.94],[-76.02,33.94],[-76.12,33.96],[-76.1,33.96],[-76.08,33.96],[-76.06,33.96],[-76.14,33.98],[-76.12,33.98],[-76.1,33.98],[-76.08,33.98],[-76.2,34.0],[-76.18,34.0],[-76.16,34.0],[-76.14,34.0],[-76.12,34.0],[-76.2,34.02],[-76.18,34.02],[-76.16,34.02],[-76.14,34.02],[-76.12,34.02],[-76.2,34.04],[-76.18,34.04],[-76.16,34.04],[-76.14,34.04],[-76.2,34.06],[-76.18,34.06],[-76.16,34.06],[-76.22,34.08],[-76.2,34.08],[-76.18,34.08],[-76.22,34.1],[-76.2,34.1],[-76.22,34.12],[-76.2,34.12],[-76.18,34.12],[-76.22,34.14],[-76.2,34.14],[-76.18,34.14],[-76.22,34.16],[-76.2,34.16],[-76.18,34.16],[-76.16,34.16],[-76.24,34.18],[-76.22,34.18],[-76.2,34.18],[-76.18,34.18],[-76.16,34.18],[-76.28,34.2],[-76.26,34.2],[-76.24,34.2],[-76.22,34.2],[-76.2,34.2],[-76.18,34.2],[-76.16,34.2],[-76.32,34.22],[-76.3,34.22],[-76.28,34.22],[-76.26,34.22],[-76.24,34.22],[-76.22,34.22],[-76.2,34.22],[-76.56,34.24],[-76.54,34.24],[-76.52,34.24],[-76.5,34.24],[-76.48,34.24],[-76.46,34.24],[-76.44,34.24],[-76.42,34.24],[-76.4,34.24],[-76.38,34.24],[-76.36,34.24],[-76.34,34.24],[-76.32,34.24],[-76.3,34.24],[-76.28,34.24],[-76.26,34.24],[-76.24,34.24],[-76.22,34.24],[-76.56,34.26],[-76.54,34.26],[-76.52,34.26],[-76.5,34.26],[-76.48,34.26],[-76.46,34.26],[-76.44,34.26],[-76.42,34.26],[-76.4,34.26],[-76.38,34.26],[-76.36,34.26],[-76.34,34.26],[-76.32,34.26],[-76.3,34.26],[-76.28,34.26],[-76.26,34.26],[-76.58,34.28],[-76.56,34.28],[-76.54,34.28],[-76.52,34.28],[-76.5,34.28],[-76.44,34.28],[-76.42,34.28],[-76.4,34.28],[-76.38,34.28],[-76.36,34.28],[-76.34,34.28],[-76.32,34.28],[-76.86,34.3],[-76.84,34.3],[-76.82,34.3],[-76.8,34.3],[-76.78,34.3],[-76.76,34.3],[-76.74,34.3],[-76.72,34.3],[-76.7,34.3],[-76.68,34.3],[-76.66,34.3],[-76.64,34.3],[-76.62,34.3],[-76.6,34.3],[-76.58,34.3],[-76.56,34.3],[-76.54,34.3],[-76.52,34.3],[-76.92,34.32],[-76.9,34.32],[-76.88,34.32],[-76.86,34.32],[-76.84,34.32],[-76.82,34.32],[-76.8,34.32],[-76.78,34.32],[-76.76,34.32],[-76.74,34.32],[-76.72,34.32],[-76.7,34.32],[-76.68,34.32],[-76.66,34.32],[-76.64,34.32],[-76.62,34.32],[-76.6,34.32],[-76.58,34.32],[-76.56,34.32],[-76.54,34.32],[-77.0,34.34],[-76.98,34.34],[-76.96,34.34],[-76.94,34.34],[-76.92,34.34],[-76.9,34.34],[-76.88,34.34],[-76.86,34.34],[-76.84,34.34],[-76.82,34.34],[-76.8,34.34],[-76.78,34.34],[-76.72,34.34],[-76.7,34.34],[-76.68,34.34],[-76.66,34.34],[-76.64,34.34],[-76.62,34.34],[-76.6,34.34],[-76.58,34.34],[-76.56,34.34],[-76.54,34.34],[-76.52,34.34],[-76.5,34.34],[-77.04,34.36],[-77.02,34.36],[-77.0,34.36],[-76.98,34.36],[-76.96,34.36],[-76.94,34.36],[-76.92,34.36],[-76.9,34.36],[-76.88,34.36],[-76.86,34.36],[-76.84,34.36],[-76.82,34.36],[-76.8,34.36],[-76.78,34.36],[-76.76,34.36],[-76.72,34.36],[-76.7,34.36],[-76.68,34.36],[-76.66,34.36],[-76.64,34.36],[-76.62,34.36],[-76.6,34.36],[-76.58,34.36],[-76.56,34.36],[-76.54,34.36],[-76.52,34.36],[-76.5,34.36],[-77.04,34.38],[-77.02,34.38],[-77.0,34.38],[-76.98,34.38],[-76.96,34.38],[-76.94,34.38],[-76.92,34.38],[-76.8,34.38],[-76.78,34.38],[-76.76,34.38],[-77.04,34.4],[-77.02,34.4],[-77.0,34.4],[-76.98,34.4],[-76.96,34.4],[-76.94,34.4],[-76.92,34.4],[-76.8,34.4],[-76.78,34.4],[-76.76,34.4],[-77.04,34.42],[-77.02,34.42],[-77.0,34.42],[-76.98,34.42],[-76.96,34.42],[-76.82,34.42],[-76.8,34.42],[-76.78,34.42],[-76.82,34.44],[-76.8,34.44],[-76.78,34.44]]},"properties":{"source_var":"sst","pixel_count":292,"strength_unit":"degC","strength_median":1.5484,"strength_max":1.7467}},{"type":"Feature","geometry":{"type":"LineString","coordinates":[[-73.78,31.32],[-73.76,31.32],[-73.78,31.34],[-73.76,31.34],[-73.78,31.36],[-73.76,31.36],[-73.78,31.38],[-73.76,31.38],[-73.8,31.4],[-73.78,31.4],[-73.76,31.4],[-73.82,31.42],[-73.8,31.42],[-73.78,31.42],[-73.84,31.44],[-73.82,31.44],[-73.8,31.44],[-73.78,31.44],[-73.86,31.46],[-73.84,31.46],[-73.82,31.46],[-73.8,31.46],[-73.92,31.48],[-73.9,31.48],[-73.88,31.48],[-73.86,31.48],[-73.84,31.48],[-73.82,31.48],[-73.92,31.5],[-73.9,31.5],[-73.88,31.5],[-73.86,31.5],[-73.96,31.52],[-73.94,31.52],[-73.92,31.52],[-73.9,31.52],[-73.98,31.54],[-73.96,31.54],[-73.94,31.54],[-73.92,31.54],[-73.98,31.56],[-73.96,31.56],[-74.0,31.58],[-73.98,31.58],[-73.96,31.58],[-74.06,31.6],[-74.04,31.6],[-74.02,31.6],[-74.0,31.6],[-73.98,31.6],[-74.06,31.62],[-74.04,31.62],[-74.02,31.62],[-74.0,31.62],[-74.08,31.64],[-74.06,31.64],[-74.04,31.64],[-74.02,31.64],[-74.1,31.66],[-74.08,31.66],[-74.06,31.66],[-74.04,31.66],[-74.1,31.68],[-74.08,31.68],[-74.06,31.68],[-74.12,31.7],[-74.1,31.7],[-74.08,31.7],[-74.16,31.72],[-74.14,31.72],[-74.12,31.72],[-74.1,31.72],[-74.16,31.74],[-74.14,31.74],[-74.12,31.74],[-74.1,31.74],[-74.16,31.76],[-74.14,31.76],[-74.12,31.76],[-74.18,31.78],[-74.16,31.78],[-74.14,31.78],[-74.2,31.8],[-74.18,31.8],[-74.16,31.8],[-74.22,31.82],[-74.2,31.82],[-74.18,31.82],[-74.28,31.84],[-74.26,31.84],[-74.24,31.84],[-74.22,31.84],[-74.2,31.84],[-74.28,31.86],[-74.26,31.86],[-74.24,31.86],[-74.22,31.86],[-74.28,31.88],[-74.26,31.88],[-74.24,31.88],[-74.3,31.9],[-74.28,31.9],[-74.26,31.9],[-74.32,31.92],[-74.3,31.92],[-74.28,31.92],[-74.26,31.92],[-74.32,31.94],[-74.3,31.94],[-74.36,31.96],[-74.34,31.96],[-74.32,31.96],[-74.3,31.96],[-74.36,31.98],[-74.34,31.98],[-74.32,31.98],[-74.4,32.0],[-74.38,32.0],[-74.36,32.0],[-74.34,32.0],[-74.4,32.02],[-74.38,32.02],[-74.36,32.02],[-74.4,32.04],[-74.38,32.04],[-74.36,32.04],[-74.4,32.06],[-74.38,32.06],[-74.42,32.08],[-74.4,32.08],[-74.38,32.08],[-74.42,32.1],[-74.4,32.1],[-74.46,32.12],[-74.44,32.12],[-74.42,32.12],[-74.4,32.12],[-74.48,32.14],[-74.46,32.14],[-74.44,32.14],[-74.42,32.14],[-74.52,32.16],[-74.5,32.16],[-74.48,32.16],[-74.46,32.16],[-74.44,32.16],[-74.52,32.18],[-74.5,32.18],[-74.48,32.18],[-74.54,32.2],[-74.52,32.2],[-74.5,32.2],[-74.48,32.2],[-74.54,32.22],[-74.52,32.22],[-74.5,32.22],[-74.56,32.24],[-74.54,32.24],[-74.52,32.24],[-74.58,32.26],[-74.56,32.26],[-74.54,32.26],[-74.6,32.28],[-74.58,32.28],[-74.56,32.28],[-74.64,32.3],[-74.62,32.3],[-74.6,32.3],[-74.58,32.3],[-74.64,32.32],[-74.62,32.32],[-74.6,32.32],[-74.64,32.34],[-74.62,32.34],[-74.6,32.34],[-74.66,32.36],[-74.64,32.36],[-74.62,32.36],[-74.66,32.38],[-74.64,32.38],[-74.66,32.4],[-74.64,32.4],[-74.68,32.42],[-74.66,32.42],[-74.68,32.44],[-74.66,32.44],[-74.68,32.46],[-74.66,32.46],[-74.68,32.48],[-74.66,32.48],[-74.68,32.5],[-74.66,32.5],[-74.68,32.52],[-74.66,32.52],[-74.68,32.54],[-74.66,32.54],[-74.68,32.56],[-74.66,32.56],[-74.68,32.58],[-74.66,32.58],[-74.68,32.6],[-74.66,32.6],[-74.68,32.62],[-74.66,32.62],[-74.68,32.64],[-74.66,32.64],[-74.68,32.66],[-74.66,32.66],[-74.68,32.68],[-74.66,32.68],[-74.68,32.7],[-74.66,32.7],[-74.7,32.72],[-74.68,32.72],[-74.66,32.72],[-74.7,32.74],[-74.68,32.74],[-74.66,32.74],[-74.72,32.76],[-74.7,32.76],[-74.68,32.76],[-74.72,32.78],[-74.7,32.78],[-74.68,32.78],[-74.72,32.8],[-74.7,32.8],[-74.68,32.8],[-74.72,32.82],[-74.7,32.82],[-74.68,32.82],[-74.66,32.82],[-74.64,32.82],[-74.72,32.84],[-74.7,32.84],[-74.68,32.84],[-74.66,32.84],[-74.64,32.84],[-74.76,32.86],[-74.74,32.86],[-74.72,32.86],[-74.7,32.86],[-74.68,32.86],[-74.66,32.86],[-74.64,32.86],[-74.76,32.88],[-74.74,32.88],[-74.7,32.88],[-74.68,32.88],[-74.66,32.88],[-74.76,32.9],[-74.74,32.9],[-74.72,32.9],[-74.7,32.9],[-74.76,32.92],[-74.74,32.92],[-74.72,32.92],[-74.7,32.92]]},"properties":{"source_var":"sst","pixel_count":257,"strength_unit":"degC","strength_median":3.4349,"strength_max":3.6699}},{"type":"Feature","geometry":{"type":"LineString","coordinates":[[-73.88,32.74],[-73.86,32.74],[-73.88,32.76],[-73.86,32.76],[-73.84,32.76],[-73.86,32.78],[-73.84,32.78],[-73.82,32.78],[-73.88,32.8],[-73.86,32.8],[-73.84,32.8],[-73.82,32.8],[-73.8,32.8],[-73.88,32.82],[-73.86,32.82],[-73.84,32.82],[-73.82,32.82],[-73.8,32.82],[-73.84,32.84],[-73.82,32.84],[-73.8,32.84],[-73.78,32.84],[-73.76,32.84],[-73.74,32.84],[-73.72,32.84],[-73.84,32.86],[-73.82,32.86],[-73.8,32.86],[-73.78,32.86],[-73.76,32.86],[-73.74,32.86],[-73.72,32.86],[-73.7,32.86],[-73.68,32.86],[-73.78,32.88],[-73.76,32.88],[-73.74,32.88],[-73.72,32.88],[-73.7,32.88],[-73.68,32.88],[-73.66,32.88],[-73.64,32.88],[-73.88,32.9],[-73.86,32.9],[-73.84,32.9],[-73.82,32.9],[-73.8,32.9],[-73.78,32.9],[-73.76,32.9],[-73.74,32.9],[-73.72,32.9],[-73.7,32.9],[-73.68,32.9],[-73.66,32.9],[-73.64,32.9],[-73.62,32.9],[-73.88,32.92],[-73.86,32.92],[-73.84,32.92],[-73.82,32.92],[-73.8,32.92],[-73.78,32.92],[-73.76,32.92],[-73.74,32.92],[-73.72,32.92],[-73.7,32.92],[-73.68,32.92],[-73.66,32.92],[-73.64,32.92],[-73.62,32.92],[-73.6,32.92],[-73.58,32.92],[-73.74,32.94],[-73.72,32.94],[-73.7,32.94],[-73.68,32.94],[-73.66,32.94],[-73.64,32.94],[-73.62,32.94],[-73.6,32.94],[-73.58,32.94],[-73.7,32.96],[-73.68,32.96],[-73.66,32.96],[-73.64,32.96],[-73.62,32.96],[-73.6,32.96],[-73.58,32.96],[-73.56,32.96],[-73.54,32.96],[-73.68,32.98],[-73.66,32.98],[-73.64,32.98],[-73.62,32.98],[-73.6,32.98],[-73.58,32.98],[-73.56,32.98],[-73.54,32.98],[-73.64,33.0],[-73.62,33.0],[-73.58,33.0],[-73.56,33.0],[-73.54,33.0],[-73.52,33.0],[-73.5,33.0],[-73.48,33.0],[-73.46,33.0],[-73.44,33.0],[-73.56,33.02],[-73.54,33.02],[-73.52,33.02],[-73.5,33.02],[-73.48,33.02],[-73.46,33.02],[-73.44,33.02],[-73.56,33.04],[-73.54,33.04],[-73.52,33.04],[-73.5,33.04],[-73.48,33.04],[-73.46,33.04],[-73.44,33.04],[-73.42,33.04],[-73.48,33.06],[-73.46,33.06],[-73.44,33.06],[-73.42,33.06],[-73.46,33.08],[-73.44,33.08],[-73.42,33.08],[-73.4,33.08],[-73.44,33.1],[-73.42,33.1],[-73.4,33.1],[-73.44,33.12],[-73.42,33.12],[-73.4,33.12],[-73.38,33.12],[-73.4,33.14],[-73.38,33.14],[-73.36,33.14],[-73.34,33.14],[-73.4,33.16],[-73.38,33.16],[-73.36,33.16],[-73.34,33.16],[-73.32,33.16],[-73.3,33.16],[-73.34,33.18],[-73.32,33.18],[-73.3,33.18]]},"properties":{"source_var":"sst","pixel_count":151,"strength_unit":"degC","strength_median":1.5276,"strength_max":1.6415}},{"type":"Feature","geometry":{"type":"LineString","coordinates":[[-77.0,32.98],[-76.98,32.98],[-77.04,33.0],[-77.02,33.0],[-77.0,33.0],[-76.98,33.0],[-77.04,33.02],[-77.02,33.02],[-77.0,33.02],[-76.98,33.02],[-76.96,33.02],[-77.1,33.04],[-77.08,33.04],[-77.06,33.04],[-77.04,33.04],[-77.02,33.04],[-77.0,33.04],[-76.98,33.04],[-76.96,33.04],[-77.1,33.06],[-77.08,33.06],[-77.06,33.06],[-77.04,33.06],[-77.0,33.06],[-76.98,33.06],[-77.12,33.08],[-77.1,33.08],[-77.08,33.08],[-77.04,33.08],[-77.02,33.08],[-77.0,33.08],[-76.98,33.08],[-77.16,33.1],[-77.14,33.1],[-77.12,33.1],[-77.1,33.1],[-77.04,33.1],[-77.02,33.1],[-77.0,33.1],[-77.16,33.12],[-77.14,33.12],[-77.06,33.12],[-77.04,33.12],[-77.02,33.12],[-77.0,33.12],[-77.16,33.14],[-77.14,33.14],[-77.08,33.14],[-77.06,33.14],[-77.04,33.14],[-77.02,33.14],[-77.22,33.16],[-77.2,33.16],[-77.18,33.16],[-77.16,33.16],[-77.14,33.16],[-77.12,33.16],[-77.1,33.16],[-77.08,33.16],[-77.06,33.16],[-77.04,33.16],[-77.02,33.16],[-77.22,33.18],[-77.2,33.18],[-77.18,33.18],[-77.16,33.18],[-77.12,33.18],[-77.1,33.18],[-77.08,33.18],[-77.06,33.18],[-77.04,33.18],[-77.24,33.2],[-77.22,33.2],[-77.2,33.2],[-77.18,33.2],[-77.16,33.2],[-77.12,33.2],[-77.1,33.2],[-77.08,33.2],[-77.28,33.22],[-77.26,33.22],[-77.24,33.22],[-77.22,33.22],[-77.12,33.22],[-77.1,33.22],[-77.3,33.24],[-77.28,33.24],[-77.26,33.24],[-77.12,33.24],[-77.1,33.24],[-77.3,33.26],[-77.28,33.26],[-77.16,33.26],[-77.14,33.26],[-77.12,33.26],[-77.1,33.26],[-77.08,33.26],[-77.32,33.28],[-77.3,33.28],[-77.28,33.28],[-77.16,33.28],[-77.14,33.28],[-77.12,33.28],[-77.1,33.28],[-77.08,33.28],[-77.32,33.3],[-77.3,33.3],[-77.28,33.3],[-77.16,33.3],[-77.14,33.3],[-77.12,33.3],[-77.1,33.3],[-77.32,33.32],[-77.3,33.32],[-77.28,33.32],[-77.16,33.32],[-77.14,33.32],[-77.12,33.32],[-77.32,33.34],[-77.3,33.34],[-77.28,33.34],[-77.26,33.34],[-77.18,33.34],[-77.16,33.34],[-77.14,33.34],[-77.32,33.36],[-77.3,33.36],[-77.28,33.36],[-77.26,33.36],[-77.24,33.36],[-77.22,33.36],[-77.2,33.36],[-77.18,33.36],[-77.16,33.36],[-77.14,33.36],[-77.28,33.38],[-77.26,33.38],[-77.24,33.38],[-77.22,33.38],[-77.2,33.38],[-77.18,33.38],[-77.16,33.38],[-77.28,33.4],[-77.26,33.4],[-77.24,33.4],[-77.22,33.4],[-77.2,33.4],[-77.18,33.4],[-77.16,33.4]]},"properties":{"source_var":"sst","pixel_count":149,"strength_unit":"degC","strength_median":1.4064,"strength_max":2.5866}},{"type":"Feature","geometry":{"type":"LineString","coordinates":[[-75.64,31.16],[-75.62,31.16],[-75.64,31.18],[-75.62,31.18],[-75.6,31.18],[-75.62,31.2],[-75.6,31.2],[-75.62,31.22],[-75.6,31.22],[-75.6,31.24],[-75.58,31.24],[-75.56,31.24],[-75.6,31.26],[-75.58,31.26],[-75.56,31.26],[-75.6,31.28],[-75.58,31.28],[-75.56,31.28],[-75.58,31.3],[-75.56,31.3],[-75.54,31.3],[-75.56,31.32],[-75.54,31.32],[-75.56,31.34],[-75.54,31.34],[-75.48,31.34],[-75.46,31.34],[-75.56,31.36],[-75.54,31.36],[-75.52,31.36],[-75.5,31.36],[-75.48,31.36],[-75.46,31.36],[-75.54,31.38],[-75.52,31.38],[-75.5,31.38],[-75.48,31.38],[-75.46,31.38],[-75.52,31.4],[-75.5,31.4],[-75.48,31.4],[-75.46,31.4],[-75.52,31.42],[-75.5,31.42],[-75.48,31.42],[-75.46,31.42],[-75.52,31.44],[-75.5,31.44],[-75.48,31.44],[-75.46,31.44],[-75.52,31.46],[-75.5,31.46],[-75.48,31.46],[-75.46,31.46],[-75.54,31.48],[-75.52,31.48],[-75.5,31.48],[-75.48,31.48],[-75.46,31.48],[-75.54,31.5],[-75.52,31.5],[-75.48,31.5],[-75.46,31.5],[-75.54,31.52],[-75.52,31.52],[-75.48,31.52],[-75.46,31.52],[-75.54,31.54],[-75.52,31.54],[-75.48,31.54],[-75.46,31.54],[-75.54,31.56],[-75.52,31.56],[-75.54,31.58],[-75.52,31.58],[-75.56,31.6],[-75.54,31.6],[-75.52,31.6],[-75.5,31.6],[-75.48,31.6],[-75.56,31.62],[-75.54,31.62],[-75.5,31.62],[-75.48,31.62],[-75.58,31.64],[-75.56,31.64],[-75.54,31.64],[-75.5,31.64],[-75.48,31.64],[-75.62,31.66],[-75.6,31.66],[-75.58,31.66],[-75.56,31.66],[-75.5,31.66],[-75.48,31.66],[-75.66,31.68],[-75.64,31.68],[-75.62,31.68],[-75.6,31.68],[-75.58,31.68],[-75.52,31.68],[-75.5,31.68],[-75.7,31.7],[-75.68,31.7],[-75.66,31.7],[-75.64,31.7],[-75.62,31.7],[-75.6,31.7],[-75.52,31.7],[-75.5,31.7],[-75.7,31.72],[-75.68,31.72],[-75.66,31.72],[-75.64,31.72],[-75.62,31.72],[-75.6,31.72],[-75.54,31.72],[-75.52,31.72],[-75.72,31.74],[-75.7,31.74],[-75.68,31.74],[-75.66,31.74],[-75.62,31.74],[-75.6,31.74],[-75.58,31.74],[-75.56,31.74],[-75.54,31.74],[-75.52,31.74],[-75.72,31.76],[-75.7,31.76],[-75.68,31.76],[-75.66,31.76],[-75.62,31.76],[-75.6,31.76],[-75.58,31.76],[-75.56,31.76],[-75.54,31.76],[-75.7,31.78],[-75.68,31.78],[-75.66,31.78]]},"properties":{"source_var":"sst","pixel_count":140,"strength_unit":"degC","strength_median":3.33,"strength_max":3.6424}},{"type":"Feature","geometry":{"type":"LineString","coordinates":[[-76.68,34.64],[-76.66,34.64],[-76.64,34.64],[-76.62,34.64],[-76.6,34.64],[-76.58,34.64],[-76.56,34.64],[-76.32,34.64],[-76.3,34.64],[-76.28,34.64],[-76.26,34.64],[-76.68,34.66],[-76.66,34.66],[-76.64,34.66],[-76.62,34.66],[-76.6,34.66],[-76.58,34.66],[-76.56,34.66],[-76.54,34.66],[-76.52,34.66],[-76.36,34.66],[-76.34,34.66],[-76.32,34.66],[-76.3,34.66],[-76.28,34.66],[-76.26,34.66],[-76.68,34.68],[-76.66,34.68],[-76.64,34.68],[-76.62,34.68],[-76.6,34.68],[-76.58,34.68],[-76.56,34.68],[-76.54,34.68],[-76.52,34.68],[-76.5,34.68],[-76.44,34.68],[-76.42,34.68],[-76.4,34.68],[-76.38,34.68],[-76.36,34.68],[-76.34,34.68],[-76.32,34.68],[-76.3,34.68],[-76.28,34.68],[-76.68,34.7],[-76.66,34.7],[-76.64,34.7],[-76.62,34.7],[-76.56,34.7],[-76.54,34.7],[-76.52,34.7],[-76.5,34.7],[-76.48,34.7],[-76.46,34.7],[-76.44,34.7],[-76.42,34.7],[-76.4,34.7],[-76.38,34.7],[-76.36,34.7],[-76.34,34.7],[-76.32,34.7],[-76.3,34.7],[-76.28,34.7],[-76.26,34.7],[-76.24,34.7],[-76.22,34.7],[-76.2,34.7],[-76.68,34.72],[-76.66,34.72],[-76.64,34.72],[-76.62,34.72],[-76.6,34.72],[-76.58,34.72],[-76.56,34.72],[-76.54,34.72],[-76.52,34.72],[-76.5,34.72],[-76.48,34.72],[-76.46,34.72],[-76.44,34.72],[-76.42,34.72],[-76.4,34.72],[-76.38,34.72],[-76.36,34.72],[-76.34,34.72],[-76.3,34.72],[-76.28,34.72],[-76.26,34.72],[-76.24,34.72],[-76.22,34.72],[-76.2,34.72],[-76.64,34.74],[-76.62,34.74],[-76.6,34.74],[-76.58,34.74],[-76.56,34.74],[-76.54,34.74],[-76.46,34.74],[-76.44,34.74],[-76.42,34.74],[-76.4,34.74],[-76.38,34.74],[-76.28,34.74],[-76.26,34.74],[-76.24,34.74],[-76.22,34.74],[-76.6,34.76],[-76.58,34.76],[-76.56,34.76],[-76.54,34.76],[-76.46,34.76],[-76.44,34.76],[-76.42,34.76],[-76.56,34.78],[-76.54,34.78]]},"properties":{"source_var":"sst","pixel_count":116,"strength_unit":"degC","strength_median":1.5226,"strength_max":1.7467}},{"type":"Feature","geometry":{"type":"LineString","coordinates":[[-76.44,32.2],[-76.42,32.2],[-76.4,32.2],[-76.38,32.2],[-76.44,32.22],[-76.42,32.22],[-76.4,32.22],[-76.38,32.22],[-76.44,32.24],[-76.42,32.24],[-76.4,32.24],[-76.68,32.26],[-76.66,32.26],[-76.64,32.26],[-76.46,32.26],[-76.44,32.26],[-76.42,32.26],[-77.02,32.28],[-77.0,32.28],[-76.92,32.28],[-76.9,32.28],[-76.88,32.28],[-76.86,32.28],[-76.84,32.28],[-76.82,32.28],[-76.8,32.28],[-76.78,32.28],[-76.76,32.28],[-76.74,32.28],[-76.72,32.28],[-76.7,32.28],[-76.68,32.28],[-76.66,32.28],[-76.64,32.28],[-76.48,32.28],[-76.46,32.28],[-76.44,32.28],[-77.16,32.3],[-77.14,32.3],[-77.08,32.3],[-77.06,32.3],[-77.04,32.3],[-77.02,32.3],[-77.0,32.3],[-76.98,32.3],[-76.96,32.3],[-76.94,32.3],[-76.92,32.3],[-76.9,32.3],[-76.88,32.3],[-76.86,32.3],[-76.84,32.3],[-76.82,32.3],[-76.8,32.3],[-76.78,32.3],[-76.76,32.3],[-76.74,32.3],[-76.72,32.3],[-76.7,32.3],[-76.66,32.3],[-76.64,32.3],[-76.62,32.3],[-76.6,32.3],[-76.5,32.3],[-76.48,32.3],[-76.46,32.3],[-77.18,32.32],[-77.16,32.32],[-77.14,32.32],[-77.12,32.32],[-77.1,32.32],[-77.08,32.32],[-77.06,32.32],[-77.04,32.32],[-77.02,32.32],[-77.0,32.32],[-76.98,32.32],[-76.96,32.32],[-76.94,32.32],[-76.62,32.32],[-76.6,32.32],[-76.58,32.32],[-76.56,32.32],[-76.52,32.32],[-76.5,32.32],[-76.48,32.32],[-77.24,32.34],[-77.22,32.34],[-77.2,32.34],[-77.18,32.34],[-77.16,32.34],[-77.14,32.34],[-77.12,32.34],[-77.1,32.34],[-77.08,32.34],[-77.06,32.34],[-76.58,32.34],[-76.56,32.34],[-76.52,32.34],[-76.5,32.34],[-77.24,32.36],[-77.22,32.36],[-77.2,32.36],[-77.18,32.36],[-77.16,32.36],[-77.14,32.36],[-76.56,32.36],[-76.54,32.36],[-76.52,32.36],[-77.24,32.38],[-77.22,32.38],[-76.56,32.38],[-76.54,32.38],[-76.52,32.38]]},"properties":{"source_var":"sst","pixel_count":114,"strength_unit":"degC","strength_median":3.0845,"strength_max":3.0845}},{"type":"Feature","geometry":{"type":"LineString","coordinates":[[-76.98,33.62],[-76.96,33.62],[-76.94,33.62],[-76.92,33.62],[-76.9,33.62],[-76.88,33.62],[-77.04,33.64],[-77.02,33.64],[-77.0,33.64],[-76.98,33.64],[-76.96,33.64],[-76.94,33.64],[-76.92,33.64],[-76.9,33.64],[-76.88,33.64],[-76.86,33.64],[-76.84,33.64],[-77.04,33.66],[-77.02,33.66],[-77.0,33.66],[-76.98,33.66],[-76.96,33.66],[-76.94,33.66],[-76.92,33.66],[-76.9,33.66],[-76.88,33.66],[-76.86,33.66],[-76.84,33.66],[-77.04,33.68],[-77.02,33.68],[-77.0,33.68],[-76.98,33.68],[-76.96,33.68],[-76.86,33.68],[-76.84,33.68],[-77.04,33.7],[-77.02,33.7],[-77.0,33.7],[-76.98,33.7],[-76.86,33.7],[-76.84,33.7],[-77.04,33.72],[-77.02,33.72],[-77.0,33.72],[-76.98,33.72],[-76.88,33.72],[-76.86,33.72],[-76.84,33.72],[-77.04,33.74],[-77.02,33.74],[-77.0,33.74],[-76.88,33.74],[-76.86,33.74],[-76.84,33.74],[-77.06,33.76],[-77.04,33.76],[-77.02,33.76],[-77.0,33.76],[-76.98,33.76],[-76.96,33.76],[-76.94,33.76],[-76.92,33.76],[-76.9,33.76],[-76.88,33.76],[-76.86,33.76],[-76.84,33.76],[-77.06,33.78],[-77.04,33.78],[-77.02,33.78],[-77.0,33.78],[-76.98,33.78],[-76.96,33.78],[-76.94,33.78],[-76.92,33.78],[-76.9,33.78],[-76.88,33.78],[-77.06,33.8],[-77.04,33.8],[-77.02,33.8],[-77.0,33.8],[-76.98,33.8],[-76.96,33.8],[-76.94,33.8],[-76.92,33.8],[-76.9,33.8],[-77.0,33.82],[-76.98,33.82],[-76.96,33.82],[-76.94,33.82],[-76.92,33.82],[-76.9,33.82],[-77.0,33.84],[-76.98,33.84],[-76.92,33.84],[-76.9,33.84],[-77.0,33.86],[-76.98,33.86],[-76.96,33.86],[-76.94,33.86],[-76.92,33.86],[-77.0,33.88],[-76.98,33.88],[-76.96,33.88],[-76.94,33.88],[-76.92,33.88]]},"properties":{"source_var":"sst","pixel_count":105,"strength_unit":"degC","strength_median":1.3191,"strength_max":1.9223}},{"type":"Feature","geometry":{"type":"LineString","coordinates":[[-74.94,32.64],[-74.92,32.64],[-74.94,32.66],[-74.92,32.66],[-74.94,32.68],[-74.92,32.68],[-74.94,32.7],[-74.92,32.7],[-74.96,32.72],[-74.94,32.72],[-74.92,32.72],[-74.96,32.74],[-74.94,32.74],[-74.96,32.76],[-74.94,32.76],[-74.96,32.78],[-74.94,32.78],[-74.96,32.8],[-74.94,32.8],[-74.92,32.8],[-74.94,32.82],[-74.92,32.82],[-74.94,32.84],[-74.92,32.84],[-74.94,32.86],[-74.92,32.86],[-74.94,32.88],[-74.92,32.88],[-74.96,32.9],[-74.94,32.9],[-75.0,32.92],[-74.98,32.92],[-74.96,32.92],[-74.94,32.92],[-74.92,32.92],[-75.0,32.94],[-74.98,32.94],[-74.96,32.94],[-74.94,32.94],[-74.92,32.94],[-75.0,32.96],[-74.98,32.96],[-74.96,32.96],[-74.94,32.96],[-74.92,32.96],[-75.0,32.98],[-74.98,32.98],[-74.96,32.98],[-75.02,33.0],[-75.0,33.0],[-74.98,33.0],[-74.96,33.0],[-75.04,33.02],[-75.02,33.02],[-75.0,33.02],[-74.98,33.02],[-75.06,33.04],[-75.04,33.04],[-75.02,33.04],[-75.0,33.04],[-74.98,33.04],[-75.06,33.06],[-75.04,33.06],[-75.02,33.06],[-75.0,33.06],[-75.08,33.08],[-75.06,33.08],[-75.04,33.08],[-75.02,33.08],[-75.0,33.08],[-75.12,33.1],[-75.1,33.1],[-75.08,33.1],[-75.06,33.1],[-75.04,33.1],[-75.14,33.12],[-75.12,33.12],[-75.1,33.12],[-75.08,33.12],[-75.06,33.12],[-75.16,33.14],[-75.14,33.14],[-75.12,33.14],[-75.1,33.14],[-75.08,33.14],[-75.26,33.16],[-75.24,33.16],[-75.22,33.16],[-75.2,33.16],[-75.18,33.16],[-75.16,33.16],[-75.14,33.16],[-75.12,33.16],[-75.1,33.16],[-75.08,33.16],[-75.26,33.18],[-75.24,33.18],[-75.22,33.18],[-75.2,33.18],[-75.18,33.18],[-75.12,33.18],[-75.1,33.18],[-75.22,33.2],[-75.2,33.2]]},"properties":{"source_var":"sst","pixel_count":104,"strength_unit":"degC","strength_median":2.2596,"strength_max":3.6488}},{"type":"Feature","geometry":{"type":"LineString","coordinates":[[-79.82,34.16],[-79.8,34.16],[-79.82,34.18],[-79.8,34.18],[-79.86,34.2],[-79.84,34.2],[-79.82,34.2],[-79.8,34.2],[-79.86,34.22],[-79.84,34.22],[-79.82,34.22],[-79.8,34.22],[-79.94,34.24],[-79.92,34.24],[-79.88,34.24],[-79.86,34.24],[-79.84,34.24],[-79.94,34.26],[-79.92,34.26],[-79.88,34.26],[-79.86,34.26],[-79.94,34.28],[-79.92,34.28],[-79.88,34.28],[-79.86,34.28],[-79.92,34.3],[-79.9,34.3],[-79.88,34.3],[-79.94,34.32],[-79.92,34.32],[-79.9,34.32],[-79.88,34.32],[-80.14,34.34],[-80.12,34.34],[-80.1,34.34],[-80.06,34.34],[-80.04,34.34],[-79.96,34.34],[-79.94,34.34],[-79.92,34.34],[-80.14,34.36],[-80.12,34.36],[-80.1,34.36],[-80.08,34.36],[-80.06,34.36],[-80.04,34.36],[-80.02,34.36],[-80.0,34.36],[-79.98,34.36],[-79.96,34.36],[-79.94,34.36],[-80.12,34.38],[-80.1,34.38],[-80.08,34.38],[-80.06,34.38],[-80.04,34.38],[-80.02,34.38],[-80.0,34.38],[-79.98,34.38],[-80.16,34.4],[-80.14,34.4],[-80.12,34.4],[-80.1,34.4],[-80.08,34.4],[-80.06,34.4],[-80.22,34.42],[-80.2,34.42],[-80.18,34.42],[-80.16,34.42],[-80.14,34.42],[-80.22,34.44],[-80.2,34.44],[-80.18,34.44],[-80.16,34.44]]},"properties":{"source_var":"sst","pixel_count":74,"strength_unit":"degC","strength_median":4.3559,"strength_max":4.3559}},{"type":"Feature","geometry":{"type":"LineString","coordinates":[[-78.16,34.12],[-78.14,34.12],[-78.12,34.12],[-78.1,34.12],[-78.08,34.12],[-78.06,34.12],[-78.04,34.12],[-78.02,34.12],[-78.0,34.12],[-78.16,34.14],[-78.14,34.14],[-78.12,34.14],[-78.1,34.14],[-78.08,34.14],[-78.06,34.14],[-78.04,34.14],[-78.02,34.14],[-78.0,34.14],[-78.16,34.16],[-78.14,34.16],[-78.12,34.16],[-78.06,34.16],[-78.04,34.16],[-78.02,34.16],[-78.0,34.16],[-77.98,34.16],[-78.16,34.18],[-78.14,34.18],[-78.12,34.18],[-78.1,34.18],[-78.06,34.18],[-78.04,34.18],[-78.02,34.18],[-78.0,34.18],[-77.98,34.18],[-77.96,34.18],[-78.14,34.2],[-78.12,34.2],[-78.1,34.2],[-78.08,34.2],[-78.04,34.2],[-78.02,34.2],[-78.0,34.2],[-77.98,34.2],[-77.96,34.2],[-77.94,34.2],[-78.12,34.22],[-78.1,34.22],[-78.08,34.22],[-78.06,34.22],[-78.02,34.22],[-78.0,34.22],[-77.98,34.22],[-77.96,34.22],[-77.94,34.22],[-78.12,34.24],[-78.1,34.24],[-78.08,34.24],[-78.06,34.24],[-78.04,34.24],[-78.02,34.24],[-78.0,34.24],[-77.98,34.24],[-77.96,34.24],[-77.94,34.24],[-78.06,34.26],[-78.04,34.26],[-78.02,34.26],[-78.0,34.26]]},"properties":{"source_var":"sst","pixel_count":69,"strength_unit":"degC","strength_median":1.8968,"strength_max":2.0194}},{"type":"Feature","geometry":{"type":"LineString","coordinates":[[-74.6,33.4],[-74.58,33.4],[-74.6,33.42],[-74.58,33.42],[-74.6,33.44],[-74.58,33.44],[-74.58,33.46],[-74.56,33.46],[-74.58,33.48],[-74.56,33.48],[-74.54,33.48],[-74.56,33.5],[-74.54,33.5],[-74.52,33.5],[-74.56,33.52],[-74.54,33.52],[-74.52,33.52],[-74.5,33.52],[-74.48,33.52],[-74.52,33.54],[-74.5,33.54],[-74.48,33.54],[-74.46,33.54],[-74.48,33.56],[-74.46,33.56],[-74.44,33.56],[-74.42,33.56],[-74.46,33.58],[-74.44,33.58],[-74.42,33.58],[-74.4,33.58],[-74.44,33.6],[-74.42,33.6],[-74.4,33.6],[-74.38,33.6],[-74.36,33.6],[-74.4,33.62],[-74.38,33.62],[-74.36,33.62],[-74.34,33.62],[-74.32,33.62],[-74.3,33.62],[-74.4,33.64],[-74.38,33.64],[-74.36,33.64],[-74.34,33.64],[-74.32,33.64],[-74.3,33.64],[-74.28,33.64],[-74.26,33.64],[-74.34,33.66],[-74.32,33.66],[-74.3,33.66],[-74.28,33.66],[-74.26,33.66],[-74.24,33.66],[-74.22,33.66],[-74.28,33.68],[-74.26,33.68],[-74.24,33.68],[-74.22,33.68],[-74.28,33.7],[-74.26,33.7],[-74.24,33.7]]},"properties":{"source_var":"sst","pixel_count":64,"strength_unit":"degC","strength_median":3.2547,"strength_max":3.6488}},{"type":"Feature","geometry":{"type":"LineString","coordinates":[[-73.7,33.08],[-73.68,33.08],[-73.66,33.08],[-73.64,33.08],[-73.62,33.08],[-73.6,33.08],[-73.72,33.1],[-73.7,33.1],[-73.68,33.1],[-73.66,33.1],[-73.64,33.1],[-73.62,33.1],[-73.6,33.1],[-73.74,33.12],[-73.72,33.12],[-73.7,33.12],[-73.68,33.12],[-73.64,33.12],[-73.62,33.12],[-73.6,33.12],[-73.74,33.14],[-73.72,33.14],[-73.7,33.14],[-73.64,33.14],[-73.62,33.14],[-73.6,33.14],[-73.74,33.16],[-73.72,33.16],[-73.7,33.16],[-73.68,33.16],[-73.64,33.16],[-73.62,33.16],[-73.6,33.16],[-73.72,33.18],[-73.7,33.18],[-73.68,33.18],[-73.62,33.18],[-73.6,33.18],[-73.72,33.2],[-73.7,33.2],[-73.68,33.2],[-73.66,33.2],[-73.64,33.2],[-73.62,33.2],[-73.6,33.2],[-73.7,33.22],[-73.68,33.22],[-73.66,33.22],[-73.64,33.22],[-73.62,33.22],[-73.6,33.22],[-73.68,33.24],[-73.66,33.24],[-73.64,33.24],[-73.62,33.24],[-73.6,33.24]]},"properties":{"source_var":"sst","pixel_count":56,"strength_unit":"degC","strength_median":1.6415,"strength_max":1.9564}},{"type":"Feature","geometry":{"type":"LineString","coordinates":[[-80.52,34.68],[-80.5,34.68],[-80.48,34.68],[-80.76,34.7],[-80.74,34.7],[-80.6,34.7],[-80.58,34.7],[-80.56,34.7],[-80.54,34.7],[-80.52,34.7],[-80.5,34.7],[-80.48,34.7],[-80.76,34.72],[-80.74,34.72],[-80.72,34.72],[-80.7,34.72],[-80.68,34.72],[-80.66,34.72],[-80.64,34.72],[-80.62,34.72],[-80.6,34.72],[-80.58,34.72],[-80.56,34.72],[-80.54,34.72],[-80.76,34.74],[-80.74,34.74],[-80.72,34.74],[-80.7,34.74],[-80.68,34.74],[-80.66,34.74],[-80.64,34.74],[-80.62,34.74],[-80.76,34.76],[-80.74,34.76],[-80.7,34.76],[-80.68,34.76],[-80.66,34.76],[-80.76,34.78],[-80.74,34.78],[-80.7,34.78],[-80.68,34.78],[-80.66,34.78],[-80.7,34.8],[-80.68,34.8],[-80.66,34.8],[-80.76,34.82],[-80.74,34.82],[-80.72,34.82],[-80.7,34.82],[-80.68,34.82],[-80.78,34.84],[-80.76,34.84],[-80.74,34.84],[-80.72,34.84],[-80.78,34.86],[-80.76,34.86]]},"properties":{"source_var":"sst","pixel_count":56,"strength_unit":"degC","strength_median":4.213,"strength_max":4.3454}},{"type":"Feature","geometry":{"type":"LineString","coordinates":[[-75.48,33.34],[-75.46,33.34],[-75.54,33.36],[-75.52,33.36],[-75.5,33.36],[-75.48,33.36],[-75.46,33.36],[-75.56,33.38],[-75.54,33.38],[-75.52,33.38],[-75.5,33.38],[-75.48,33.38],[-75.46,33.38],[-75.6,33.4],[-75.58,33.4],[-75.56,33.4],[-75.54,33.4],[-75.52,33.4],[-75.5,33.4],[-75.48,33.4],[-75.6,33.42],[-75.58,33.42],[-75.6,33.44],[-75.58,33.44],[-75.64,33.46],[-75.62,33.46],[-75.6,33.46],[-75.58,33.46],[-75.68,33.48],[-75.66,33.48],[-75.64,33.48],[-75.62,33.48],[-75.6,33.48],[-75.58,33.48],[-75.72,33.5],[-75.7,33.5],[-75.68,33.5],[-75.66,33.5],[-75.64,33.5],[-75.74,33.52],[-75.72,33.52],[-75.7,33.52],[-75.68,33.52],[-75.66,33.52],[-75.74,33.54],[-75.72,33.54],[-75.7,33.54],[-75.74,33.56],[-75.72,33.56]]},"properties":{"source_var":"sst","pixel_count":49,"strength_unit":"degC","strength_median":1.6184,"strength_max":2.1826}},{"type":"Feature","geometry":{"type":"LineString","coordinates":[[-78.78,34.82],[-78.76,34.82],[-78.86,34.84],[-78.84,34.84],[-78.82,34.84],[-78.8,34.84],[-78.78,34.84],[-78.76,34.84],[-78.86,34.86],[-78.84,34.86],[-78.82,34.86],[-78.8,34.86],[-78.78,34.86],[-78.9,34.88],[-78.88,34.88],[-78.86,34.88],[-78.84,34.88],[-78.82,34.88],[-78.9,34.9],[-78.88,34.9],[-78.86,34.9],[-78.84,34.9],[-78.92,34.92],[-78.9,34.92],[-78.88,34.92],[-78.92,34.94],[-78.9,34.94],[-78.96,34.96],[-78.94,34.96],[-78.92,34.96],[-78.9,34.96],[-78.96,34.98],[-78.94,34.98],[-78.92,34.98],[-78.96,35.0],[-78.94,35.0],[-78.96,35.02],[-78.94,35.02],[-78.96,35.04],[-78.94,35.04],[-78.96,35.06],[-78.94,35.06],[-78.96,35.08],[-78.94,35.08],[-78.92,35.08],[-78.96,35.1],[-78.94,35.1],[-78.92,35.1]]},"properties":{"source_var":"sst","pixel_count":48,"strength_unit":"degC","strength_median":0.9163,"strength_max":3.2714}},{"type":"Feature","geometry":{"type":"LineString","coordinates":[[-79.2,33.7],[-79.18,33.7],[-79.2,33.72],[-79.18,33.72],[-79.2,33.74],[-79.18,33.74],[-79.22,33.76],[-79.2,33.76],[-79.18,33.76],[-79.22,33.78],[-79.2,33.78],[-79.18,33.78],[-79.22,33.8],[-79.2,33.8],[-79.18,33.8],[-79.22,33.82],[-79.2,33.82],[-79.24,33.84],[-79.22,33.84],[-79.2,33.84],[-79.3,33.86],[-79.28,33.86],[-79.26,33.86],[-79.24,33.86],[-79.22,33.86],[-79.32,33.88],[-79.3,33.88],[-79.28,33.88],[-79.26,33.88],[-79.24,33.88],[-79.34,33.9],[-79.32,33.9],[-79.3,33.9],[-79.28,33.9],[-79.26,33.9],[-79.34,33.92],[-79.32,33.92],[-79.3,33.92],[-79.36,33.94],[-79.34,33.94],[-79.32,33.94],[-79.38,33.96],[-79.36,33.96],[-79.34,33.96],[-79.38,33.98],[-79.36,33.98]]},"properties":{"source_var":"sst","pixel_count":46,"strength_unit":"degC","strength_median":4.3559,"strength_max":4.3559}},{"type":"Feature","geometry":{"type":"LineString","coordinates":[[-80.3,35.48],[-80.28,35.48],[-80.26,35.48],[-80.3,35.5],[-80.28,35.5],[-80.26,35.5],[-80.32,35.52],[-80.3,35.52],[-80.28,35.52],[-80.34,35.54],[-80.32,35.54],[-80.3,35.54],[-80.28,35.54],[-80.36,35.56],[-80.34,35.56],[-80.32,35.56],[-80.3,35.56],[-80.28,35.56],[-80.36,35.58],[-80.34,35.58],[-80.32,35.58],[-80.38,35.6],[-80.36,35.6],[-80.34,35.6],[-80.4,35.62],[-80.38,35.62],[-80.36,35.62],[-80.42,35.64],[-80.4,35.64],[-80.38,35.64],[-80.42,35.66],[-80.4,35.66],[-80.44,35.68],[-80.42,35.68],[-80.4,35.68],[-80.46,35.7],[-80.44,35.7],[-80.42,35.7],[-80.5,35.72],[-80.48,35.72],[-80.46,35.72],[-80.44,35.72],[-80.5,35.74],[-80.48,35.74]]},"properties":{"source_var":"sst","pixel_count":44,"strength_unit":"degC","strength_median":2.7431,"strength_max":3.2779}},{"type":"Feature","geometry":{"type":"LineString","coordinates":[[-80.28,34.44],[-80.26,34.44],[-80.32,34.46],[-80.3,34.46],[-80.28,34.46],[-80.26,34.46],[-80.36,34.48],[-80.34,34.48],[-80.32,34.48],[-80.3,34.48],[-80.28,34.48],[-80.36,34.5],[-80.34,34.5],[-80.32,34.5],[-80.3,34.5],[-80.44,34.52],[-80.42,34.52],[-80.4,34.52],[-80.38,34.52],[-80.36,34.52],[-80.34,34.52],[-80.32,34.52],[-80.44,34.54],[-80.42,34.54],[-80.4,34.54],[-80.38,34.54],[-80.44,34.56],[-80.42,34.56],[-80.4,34.56],[-80.42,34.58],[-80.4,34.58],[-80.44,34.6],[-80.42,34.6],[-80.4,34.6],[-80.44,34.62],[-80.42,34.62],[-80.4,34.62],[-80.46,34.64],[-80.44,34.64],[-80.42,34.64],[-80.46,34.66],[-80.44,34.66]]},"properties":{"source_var":"sst","pixel_count":42,"strength_unit":"degC","strength_median":4.3454,"strength_max":4.3518}},{"type":"Feature","geometry":{"type":"LineString","coordinates":[[-74.64,33.06],[-74.62,33.06],[-74.64,33.08],[-74.62,33.08],[-74.64,33.1],[-74.62,33.1],[-74.64,33.12],[-74.62,33.12],[-74.64,33.14],[-74.62,33.14],[-74.64,33.16],[-74.62,33.16],[-74.64,33.18],[-74.62,33.18],[-74.6,33.18],[-74.64,33.2],[-74.62,33.2],[-74.6,33.2],[-74.64,33.22],[-74.62,33.22],[-74.64,33.24],[-74.62,33.24],[-74.64,33.26],[-74.62,33.26],[-74.64,33.28],[-74.62,33.28],[-74.6,33.28],[-74.64,33.3],[-74.62,33.3],[-74.6,33.3],[-74.64,33.32],[-74.62,33.32],[-74.6,33.32],[-74.64,33.34],[-74.62,33.34],[-74.6,33.34],[-74.64,33.36],[-74.62,33.36],[-74.6,33.36]]},"properties":{"source_var":"sst","pixel_count":39,"strength_unit":"degC","strength_median":3.6488,"strength_max":3.6488}},{"type":"Feature","geometry":{"type":"LineString","coordinates":[[-77.06,35.0],[-77.04,35.0],[-77.02,35.0],[-77.06,35.02],[-77.04,35.02],[-77.02,35.02],[-77.04,35.04],[-77.02,35.04],[-77.0,35.04],[-77.04,35.06],[-77.02,35.06],[-77.0,35.06],[-77.04,35.08],[-77.02,35.08],[-77.0,35.08],[-77.04,35.1],[-77.02,35.1],[-77.0,35.1],[-77.04,35.12],[-77.02,35.12],[-77.0,35.12],[-77.04,35.14],[-77.02,35.14],[-77.0,35.14],[-77.04,35.16],[-77.02,35.16],[-77.04,35.18],[-77.02,35.18],[-77.0,35.18],[-76.98,35.18],[-77.04,35.2],[-77.02,35.2],[-77.0,35.2],[-76.98,35.2],[-77.04,35.22],[-77.02,35.22],[-77.0,35.22],[-76.98,35.22]]},"properties":{"source_var":"sst","pixel_count":38,"strength_unit":"degC","strength_median":1.7122,"strength_max":1.7467}},{"type":"Feature","geometry":{"type":"LineString","coordinates":[[-78.3,33.06],[-78.28,33.06],[-78.26,33.06],[-78.24,33.06],[-78.22,33.06],[-78.2,33.06],[-78.18,33.06],[-78.16,33.06],[-78.14,33.06],[-78.12,33.06],[-78.1,33.06],[-78.3,33.08],[-78.28,33.08],[-78.26,33.08],[-78.24,33.08],[-78.22,33.08],[-78.2,33.08],[-78.18,33.08],[-78.16,33.08],[-78.14,33.08],[-78.12,33.08],[-78.1,33.08],[-78.3,33.1],[-78.28,33.1],[-78.26,33.1],[-78.24,33.1],[-78.22,33.1],[-78.2,33.1],[-78.18,33.1],[-78.16,33.1],[-78.14,33.1],[-78.12,33.1],[-78.1,33.1]]},"properties":{"source_var":"sst","pixel_count":33,"strength_unit":"degC","strength_median":2.4352,"strength_max":2.5866}},{"type":"Feature","geometry":{"type":"LineString","coordinates":[[-75.84,31.78],[-75.82,31.78],[-75.8,31.78],[-75.86,31.8],[-75.84,31.8],[-75.82,31.8],[-75.8,31.8],[-75.9,31.82],[-75.88,31.82],[-75.86,31.82],[-75.84,31.82],[-75.82,31.82],[-75.8,31.82],[-75.98,31.84],[-75.96,31.84],[-75.94,31.84],[-75.92,31.84],[-75.9,31.84],[-75.88,31.84],[-75.86,31.84],[-75.84,31.84],[-75.98,31.86],[-75.96,31.86],[-75.94,31.86],[-75.92,31.86],[-75.9,31.86],[-75.98,31.88],[-75.96,31.88],[-75.94,31.88],[-75.98,31.9],[-75.96,31.9]]},"properties":{"source_var":"sst","pixel_count":31,"strength_unit":"degC","strength_median":3.0454,"strength_max":3.1879}},{"type":"Feature","geometry":{"type":"LineString","coordinates":[[-77.72,32.64],[-77.7,32.64],[-77.74,32.66],[-77.72,32.66],[-77.7,32.66],[-77.76,32.68],[-77.74,32.68],[-77.72,32.68],[-77.78,32.7],[-77.76,32.7],[-77.74,32.7],[-77.8,32.72],[-77.78,32.72],[-77.76,32.72],[-77.82,32.74],[-77.8,32.74],[-77.78,32.74],[-77.76,32.74],[-77.84,32.76],[-77.82,32.76],[-77.8,32.76],[-77.78,32.76],[-77.86,32.78],[-77.84,32.78],[-77.82,32.78],[-77.8,32.78],[-77.86,32.8],[-77.84,32.8],[-77.82,32.8],[-77.84,32.82],[-77.82,32.82]]},"properties":{"source_var":"sst","pixel_count":31,"strength_unit":"degC","strength_median":2.5866,"strength_max":2.6109}},{"type":"Feature","geometry":{"type":"LineString","coordinates":[[-78.9,35.28],[-78.88,35.28],[-78.86,35.28],[-78.84,35.28],[-78.82,35.28],[-78.8,35.28],[-78.78,35.28],[-78.76,35.28],[-78.92,35.3],[-78.9,35.3],[-78.88,35.3],[-78.86,35.3],[-78.84,35.3],[-78.82,35.3],[-78.8,35.3],[-78.78,35.3],[-78.76,35.3],[-78.92,35.32],[-78.9,35.32],[-78.88,35.32],[-78.86,35.32],[-78.84,35.32],[-78.82,35.32],[-78.8,35.32],[-78.78,35.32],[-78.76,35.32],[-78.92,35.34],[-78.9,35.34],[-78.88,35.34],[-78.86,35.34],[-78.84,35.34]]},"properties":{"source_var":"sst","pixel_count":31,"strength_unit":"degC","strength_median":2.805,"strength_max":2.9451}},{"type":"Feature","geometry":{"type":"LineString","coordinates":[[-76.16,34.48],[-76.14,34.48],[-76.12,34.48],[-76.16,34.5],[-76.14,34.5],[-76.12,34.5],[-76.14,34.52],[-76.12,34.52],[-76.14,34.54],[-76.12,34.54],[-76.2,34.56],[-76.18,34.56],[-76.16,34.56],[-76.14,34.56],[-76.12,34.56],[-76.22,34.58],[-76.2,34.58],[-76.18,34.58],[-76.16,34.58],[-76.14,34.58],[-76.12,34.58],[-76.22,34.6],[-76.2,34.6],[-76.18,34.6],[-76.16,34.6],[-76.14,34.6],[-76.12,34.6],[-76.16,34.62],[-76.14,34.62]]},"properties":{"source_var":"sst","pixel_count":29,"strength_unit":"degC","strength_median":1.3717,"strength_max":1.6197}},{"type":"Feature","geometry":{"type":"LineString","coordinates":[[-78.72,35.28],[-78.7,35.28],[-78.68,35.28],[-78.72,35.3],[-78.7,35.3],[-78.68,35.3],[-78.66,35.3],[-78.68,35.32],[-78.66,35.32],[-78.64,35.32],[-78.62,35.32],[-78.6,35.32],[-78.64,35.34],[-78.62,35.34],[-78.6,35.34],[-78.62,35.36],[-78.6,35.36],[-78.62,35.38],[-78.6,35.38],[-78.62,35.4],[-78.6,35.4],[-78.62,35.42],[-78.6,35.42],[-78.64,35.44],[-78.62,35.44],[-78.6,35.44],[-78.64,35.46],[-78.62,35.46],[-78.6,35.46]]},"properties":{"source_var":"sst","pixel_count":29,"strength_unit":"degC","strength_median":2.6373,"strength_max":2.8137}},{"type":"Feature","geometry":{"type":"LineString","coordinates":[[-77.34,32.42],[-77.32,32.42],[-77.38,32.44],[-77.36,32.44],[-77.34,32.44],[-77.32,32.44],[-77.44,32.46],[-77.42,32.46],[-77.4,32.46],[-77.38,32.46],[-77.36,32.46],[-77.34,32.46],[-77.48,32.48],[-77.46,32.48],[-77.44,32.48],[-77.42,32.48],[-77.4,32.48],[-77.52,32.5],[-77.5,32.5],[-77.48,32.5],[-77.46,32.5],[-77.44,32.5],[-77.54,32.52],[-77.52,32.52],[-77.5,32.52],[-77.54,32.54],[-77.52,32.54]]},"properties":{"source_var":"sst","pixel_count":27,"strength_unit":"degC","strength_median":2.9683,"strength_max":2.9683}},{"type":"Feature","geometry":{"type":"LineString","coordinates":[[-78.5,33.1],[-78.48,33.1],[-78.5,33.12],[-78.48,33.12],[-78.64,33.14],[-78.62,33.14],[-78.56,33.14],[-78.54,33.14],[-78.52,33.14],[-78.5,33.14],[-78.68,33.16],[-78.66,33.16],[-78.64,33.16],[-78.62,33.16],[-78.6,33.16],[-78.58,33.16],[-78.56,33.16],[-78.54,33.16],[-78.52,33.16],[-78.5,33.16],[-78.68,33.18],[-78.66,33.18],[-78.64,33.18],[-78.62,33.18],[-78.6,33.18],[-78.58,33.18],[-78.56,33.18]]},"properties":{"source_var":"sst","pixel_count":27,"strength_unit":"degC","strength_median":2.2532,"strength_max":2.2532}},{"type":"Feature","geometry":{"type":"LineString","coordinates":[[-78.48,33.9],[-78.46,33.9],[-78.48,33.92],[-78.46,33.92],[-78.52,33.94],[-78.5,33.94],[-78.48,33.94],[-78.46,33.94],[-78.54,33.96],[-78.52,33.96],[-78.5,33.96],[-78.48,33.96],[-78.46,33.96],[-78.54,33.98],[-78.52,33.98],[-78.5,33.98],[-78.48,33.98],[-78.58,34.0],[-78.56,34.0],[-78.54,34.0],[-78.52,34.0],[-78.5,34.0],[-78.48,34.0],[-78.58,34.02],[-78.56,34.02],[-78.54,34.02],[-78.52,34.02]]},"properties":{"source_var":"sst","pixel_count":27,"strength_unit":"degC","strength_median":1.1501,"strength_max":1.3788}},{"type":"Feature","geometry":{"type":"LineString","coordinates":[[-76.22,33.14],[-76.2,33.14],[-76.18,33.14],[-76.16,33.14],[-76.24,33.16],[-76.22,33.16],[-76.2,33.16],[-76.18,33.16],[-76.16,33.16],[-76.24,33.18],[-76.22,33.18],[-76.2,33.18],[-76.26,33.2],[-76.24,33.2],[-76.26,33.22],[-76.24,33.22],[-76.26,33.24],[-76.24,33.24],[-76.32,33.26],[-76.3,33.26],[-76.28,33.26],[-76.26,33.26],[-76.32,33.28],[-76.3,33.28],[-76.28,33.28],[-76.26,33.28]]},"properties":{"source_var":"sst","pixel_count":26,"strength_unit":"degC","strength_median":2.1033,"strength_max":2.1877}},{"type":"Feature","geometry":{"type":"LineString","coordinates":[[-79.08,35.28],[-79.06,35.28],[-79.04,35.28],[-79.02,35.28],[-79.16,35.3],[-79.14,35.3],[-79.12,35.3],[-79.1,35.3],[-79.08,35.3],[-79.06,35.3],[-79.04,35.3],[-79.02,35.3],[-79.0,35.3],[-78.98,35.3],[-78.96,35.3],[-79.16,35.32],[-79.14,35.32],[-79.12,35.32],[-79.1,35.32],[-79.08,35.32],[-79.06,35.32],[-79.04,35.32],[-79.02,35.32],[-79.0,35.32],[-78.98,35.32],[-78.96,35.32]]},"properties":{"source_var":"sst","pixel_count":26,"strength_unit":"degC","strength_median":3.0009,"strength_max":3.0059}},{"type":"Feature","geometry":{"type":"LineString","coordinates":[[-79.5,33.98],[-79.48,33.98],[-79.46,33.98],[-79.56,34.0],[-79.54,34.0],[-79.52,34.0],[-79.5,34.0],[-79.48,34.0],[-79.46,34.0],[-79.56,34.02],[-79.54,34.02],[-79.52,34.02],[-79.5,34.02],[-79.48,34.02],[-79.56,34.04],[-79.54,34.04],[-79.52,34.04],[-79.5,34.04],[-79.58,34.06],[-79.56,34.06],[-79.54,34.06],[-79.52,34.06],[-79.58,34.08],[-79.56,34.08]]},"properties":{"source_var":"sst","pixel_count":24,"strength_unit":"degC","strength_median":4.3506,"strength_max":4.3559}},{"type":"Feature","geometry":{"type":"LineString","coordinates":[[-77.88,35.42],[-77.86,35.42],[-77.88,35.44],[-77.86,35.44],[-77.84,35.44],[-77.82,35.44],[-77.96,35.46],[-77.94,35.46],[-77.92,35.46],[-77.9,35.46],[-77.88,35.46],[-77.86,35.46],[-77.84,35.46],[-77.82,35.46],[-77.8,35.46],[-77.78,35.46],[-77.96,35.48],[-77.94,35.48],[-77.92,35.48],[-77.9,35.48],[-77.84,35.48],[-77.82,35.48],[-77.8,35.48],[-77.78,35.48]]},"properties":{"source_var":"sst","pixel_count":24,"strength_unit":"degC","strength_median":0.8686,"strength_max":1.1877}}]}