{"type":"FeatureCollection","variable":"chl_front_trial","source_variable":"chl","source_frame":"data/usec_south/chl/usec_south_20260519_2026139.1450_chl_S3A.json","generated_at":"2026-05-19T20:04:25.305502Z","bbox":[-81.0,31.0,-73.0,36.0],"ny":743,"nx":1188,"algorithm":{"name":"chl_log_multiscale_gradient_ridge_v0","window_px":0,"stride_px":0,"transform":"log_chl","min_class_delta":0.22314355131420976,"min_cohesion":0.0},"features":[{"type":"Feature","geometry":{"type":"LineString","coordinates":[[-76.322662,34.699461],[-76.322662,34.706199],[-76.322662,34.712938],[-76.450716,34.719677],[-76.322662,34.719677],[-76.477675,34.726415],[-76.470935,34.726415],[-76.457456,34.726415],[-76.450716,34.726415],[-76.443976,34.726415],[-76.437237,34.726415],[-76.430497,34.726415],[-76.322662,34.726415],[-76.484414,34.733154],[-76.470935,34.733154],[-76.464195,34.733154],[-76.457456,34.733154],[-76.329402,34.733154],[-76.322662,34.733154],[-76.491154,34.739892],[-76.484414,34.739892],[-76.477675,34.739892],[-76.470935,34.739892],[-76.464195,34.739892],[-76.336142,34.739892],[-76.329402,34.739892],[-76.464195,34.746631],[-76.457456,34.746631],[-76.450716,34.746631],[-76.336142,34.746631],[-76.464195,34.753369],[-76.450716,34.753369],[-76.336142,34.753369],[-76.464195,34.760108],[-76.457456,34.760108],[-76.410278,34.760108],[-76.336142,34.760108],[-76.457456,34.766846],[-76.410278,34.766846],[-76.336142,34.766846],[-76.457456,34.773585],[-76.437237,34.773585],[-76.430497,34.773585],[-76.410278,34.773585],[-76.336142,34.773585],[-76.457456,34.780323],[-76.450716,34.780323],[-76.443976,34.780323],[-76.430497,34.780323],[-76.410278,34.780323],[-76.403538,34.780323],[-76.396799,34.780323],[-76.390059,34.780323],[-76.383319,34.780323],[-76.37658,34.780323],[-76.36984,34.780323],[-76.3631,34.780323],[-76.356361,34.780323],[-76.349621,34.780323],[-76.342881,34.780323],[-76.336142,34.780323],[-76.443976,34.787062],[-76.437237,34.787062],[-76.430497,34.787062],[-76.423757,34.787062],[-76.417018,34.787062],[-76.410278,34.787062],[-76.342881,34.787062],[-76.430497,34.793801],[-76.417018,34.793801],[-76.410278,34.793801],[-76.342881,34.793801],[-76.430497,34.800539],[-76.423757,34.800539],[-76.410278,34.800539],[-76.403538,34.800539],[-76.423757,34.807278],[-76.417018,34.807278],[-76.403538,34.807278],[-76.396799,34.807278],[-76.417018,34.814016],[-76.410278,34.814016],[-76.396799,34.814016],[-76.410278,34.820755],[-76.403538,34.820755],[-76.403538,34.827493]]},"properties":{"source_var":"chl","pixel_count":86,"strength_unit":"log_chl_gradient","strength_median":1.3654,"strength_max":6.8239}},{"type":"Feature","geometry":{"type":"LineString","coordinates":[[-76.720303,34.638814],[-76.720303,34.645553],[-76.720303,34.652291],[-76.720303,34.65903],[-76.720303,34.665768],[-76.713564,34.665768],[-76.706824,34.665768],[-76.700084,34.665768],[-76.693345,34.665768],[-76.727043,34.672507],[-76.693345,34.672507],[-76.652906,34.672507],[-76.592249,34.672507],[-76.733783,34.679245],[-76.727043,34.679245],[-76.693345,34.679245],[-76.652906,34.679245],[-76.646167,34.679245],[-76.639427,34.679245],[-76.632687,34.679245],[-76.625948,34.679245],[-76.619208,34.679245],[-76.612468,34.679245],[-76.605729,34.679245],[-76.598989,34.679245],[-76.592249,34.679245],[-76.733783,34.685984],[-76.693345,34.685984],[-76.686605,34.685984],[-76.679865,34.685984],[-76.673126,34.685984],[-76.666386,34.685984],[-76.659646,34.685984],[-76.652906,34.685984],[-76.592249,34.685984],[-76.79444,34.692722],[-76.7877,34.692722],[-76.78096,34.692722],[-76.774221,34.692722],[-76.767481,34.692722],[-76.760741,34.692722],[-76.754002,34.692722],[-76.747262,34.692722],[-76.740522,34.692722],[-76.733783,34.692722],[-76.727043,34.692722],[-76.720303,34.692722],[-76.713564,34.692722],[-76.706824,34.692722],[-76.700084,34.692722],[-76.693345,34.692722],[-76.592249,34.692722],[-76.58551,34.692722],[-76.57877,34.692722],[-76.57203,34.692722],[-76.565291,34.692722],[-76.558551,34.692722],[-76.592249,34.699461],[-76.592249,34.706199],[-76.598989,34.712938],[-76.592249,34.712938],[-76.58551,34.712938],[-76.598989,34.719677],[-76.58551,34.719677],[-76.605729,34.726415],[-76.598989,34.726415],[-76.592249,34.726415],[-76.58551,34.726415],[-76.605729,34.733154],[-76.605729,34.739892]]},"properties":{"source_var":"chl","pixel_count":70,"strength_unit":"log_chl_gradient","strength_median":1.843,"strength_max":5.939}},{"type":"Feature","geometry":{"type":"LineString","coordinates":[[-78.021061,33.681941],[-78.021061,33.688679],[-78.021061,33.695418],[-78.021061,33.702156],[-78.014322,33.702156],[-78.007582,33.702156],[-78.000842,33.702156],[-77.994103,33.702156],[-77.987363,33.702156],[-77.980623,33.702156],[-77.973884,33.702156],[-77.967144,33.702156],[-77.960404,33.702156],[-77.953665,33.702156],[-78.021061,33.708895],[-78.021061,33.715633],[-78.021061,33.722372],[-78.021061,33.729111],[-78.021061,33.735849],[-78.034541,33.742588],[-78.027801,33.742588],[-78.021061,33.742588],[-78.034541,33.749326],[-78.021061,33.749326],[-78.014322,33.749326],[-78.007582,33.749326],[-78.000842,33.749326],[-78.034541,33.756065],[-78.027801,33.756065],[-78.014322,33.756065],[-78.027801,33.762803],[-78.021061,33.762803],[-78.027801,33.769542],[-78.041281,33.77628],[-78.034541,33.77628],[-78.027801,33.77628],[-78.05476,33.783019],[-78.04802,33.783019],[-78.041281,33.783019],[-78.027801,33.783019],[-78.068239,33.789757],[-78.0615,33.789757],[-78.05476,33.789757],[-78.041281,33.789757],[-78.034541,33.789757],[-78.027801,33.789757],[-78.068239,33.796496],[-78.05476,33.796496],[-78.04802,33.796496],[-78.041281,33.796496],[-78.034541,33.796496],[-78.068239,33.803235],[-78.0615,33.803235],[-78.05476,33.803235],[-78.041281,33.803235],[-78.034541,33.803235],[-78.027801,33.803235],[-78.021061,33.803235],[-78.014322,33.803235],[-78.007582,33.803235],[-78.000842,33.803235],[-77.994103,33.803235],[-78.041281,33.809973],[-78.041281,33.816712],[-78.041281,33.82345],[-78.04802,33.830189],[-78.041281,33.830189],[-78.034541,33.830189]]},"properties":{"source_var":"chl","pixel_count":68,"strength_unit":"log_chl_gradient","strength_median":1.3321,"strength_max":2.5515}},{"type":"Feature","geometry":{"type":"LineString","coordinates":[[-80.642797,32.030997],[-80.696714,32.037736],[-80.642797,32.037736],[-80.696714,32.044474],[-80.642797,32.044474],[-80.696714,32.051213],[-80.656276,32.051213],[-80.649537,32.051213],[-80.642797,32.051213],[-80.730413,32.057951],[-80.723673,32.057951],[-80.716933,32.057951],[-80.710194,32.057951],[-80.703454,32.057951],[-80.696714,32.057951],[-80.689975,32.057951],[-80.683235,32.057951],[-80.676495,32.057951],[-80.669756,32.057951],[-80.663016,32.057951],[-80.656276,32.057951],[-80.642797,32.057951],[-80.743892,32.06469],[-80.737152,32.06469],[-80.730413,32.06469],[-80.696714,32.06469],[-80.683235,32.06469],[-80.676495,32.06469],[-80.663016,32.06469],[-80.656276,32.06469],[-80.649537,32.06469],[-80.642797,32.06469],[-80.737152,32.071429],[-80.696714,32.071429],[-80.689975,32.071429],[-80.683235,32.071429],[-80.676495,32.071429],[-80.669756,32.071429],[-80.663016,32.071429],[-80.743892,32.078167],[-80.737152,32.078167],[-80.669756,32.078167],[-80.743892,32.084906],[-80.676495,32.084906],[-80.669756,32.084906],[-80.663016,32.084906],[-80.656276,32.084906],[-80.757372,32.091644],[-80.750632,32.091644],[-80.743892,32.091644],[-80.683235,32.091644],[-80.676495,32.091644],[-80.663016,32.091644],[-80.770851,32.098383],[-80.764111,32.098383],[-80.757372,32.098383],[-80.743892,32.098383],[-80.663016,32.098383],[-80.757372,32.105121],[-80.750632,32.105121],[-80.663016,32.105121],[-80.757372,32.11186],[-80.663016,32.11186],[-80.757372,32.118598],[-80.663016,32.118598],[-80.663016,32.125337],[-80.663016,32.132075]]},"properties":{"source_var":"chl","pixel_count":67,"strength_unit":"log_chl_gradient","strength_median":1.8833,"strength_max":4.1663}},{"type":"Feature","geometry":{"type":"LineString","coordinates":[[-79.982308,32.516173],[-79.975569,32.516173],[-79.968829,32.516173],[-79.962089,32.516173],[-79.95535,32.516173],[-79.94861,32.516173],[-79.94187,32.516173],[-79.982308,32.522911],[-79.94187,32.522911],[-79.935131,32.522911],[-79.989048,32.52965],[-79.935131,32.52965],[-79.989048,32.536388],[-79.935131,32.536388],[-79.928391,32.536388],[-79.921651,32.536388],[-79.914912,32.536388],[-79.908172,32.536388],[-79.989048,32.543127],[-79.935131,32.543127],[-79.921651,32.543127],[-79.908172,32.543127],[-79.989048,32.549865],[-79.935131,32.549865],[-79.928391,32.549865],[-79.908172,32.549865],[-79.901432,32.549865],[-79.989048,32.556604],[-79.94187,32.556604],[-79.935131,32.556604],[-79.914912,32.556604],[-79.901432,32.556604],[-79.894693,32.556604],[-80.042965,32.563342],[-80.036226,32.563342],[-80.029486,32.563342],[-80.022746,32.563342],[-80.016007,32.563342],[-80.009267,32.563342],[-80.002527,32.563342],[-79.995788,32.563342],[-79.989048,32.563342],[-79.94861,32.563342],[-79.94187,32.563342],[-79.914912,32.563342],[-79.908172,32.563342],[-79.901432,32.563342],[-79.989048,32.570081],[-79.982308,32.570081],[-79.975569,32.570081],[-79.968829,32.570081],[-79.95535,32.570081],[-79.94861,32.570081],[-79.921651,32.570081],[-79.914912,32.570081],[-79.968829,32.576819],[-79.962089,32.576819],[-79.95535,32.576819],[-79.928391,32.576819],[-79.921651,32.576819],[-79.968829,32.583558],[-79.94861,32.583558],[-79.94187,32.583558],[-79.935131,32.583558],[-79.928391,32.583558]]},"properties":{"source_var":"chl","pixel_count":65,"strength_unit":"log_chl_gradient","strength_median":1.4192,"strength_max":2.5304}},{"type":"Feature","geometry":{"type":"LineString","coordinates":[[-80.137321,32.455526],[-80.15754,32.462264],[-80.137321,32.462264],[-80.110362,32.462264],[-80.103623,32.462264],[-80.096883,32.462264],[-80.15754,32.469003],[-80.137321,32.469003],[-80.110362,32.469003],[-80.096883,32.469003],[-80.090143,32.469003],[-80.083404,32.469003],[-80.076664,32.469003],[-80.15754,32.475741],[-80.137321,32.475741],[-80.110362,32.475741],[-80.103623,32.475741],[-80.090143,32.475741],[-80.15754,32.48248],[-80.137321,32.48248],[-80.117102,32.48248],[-80.110362,32.48248],[-80.103623,32.48248],[-80.096883,32.48248],[-80.15754,32.489218],[-80.137321,32.489218],[-80.123842,32.489218],[-80.117102,32.489218],[-80.218197,32.495957],[-80.211457,32.495957],[-80.204718,32.495957],[-80.197978,32.495957],[-80.191238,32.495957],[-80.184499,32.495957],[-80.177759,32.495957],[-80.171019,32.495957],[-80.16428,32.495957],[-80.15754,32.495957],[-80.1508,32.495957],[-80.144061,32.495957],[-80.137321,32.495957],[-80.130581,32.495957],[-80.123842,32.495957],[-80.204718,32.502695],[-80.123842,32.502695],[-80.204718,32.509434],[-80.123842,32.509434],[-80.130581,32.516173],[-80.123842,32.516173],[-80.117102,32.516173],[-80.110362,32.516173],[-80.137321,32.522911],[-80.130581,32.522911],[-80.137321,32.52965]]},"properties":{"source_var":"chl","pixel_count":54,"strength_unit":"log_chl_gradient","strength_median":1.7788,"strength_max":3.0043}},{"type":"Feature","geometry":{"type":"LineString","coordinates":[[-79.187026,33.088949],[-79.180286,33.088949],[-79.173547,33.088949],[-79.187026,33.095687],[-79.173547,33.095687],[-79.166807,33.095687],[-79.160067,33.095687],[-79.187026,33.102426],[-79.180286,33.102426],[-79.166807,33.102426],[-79.160067,33.102426],[-79.153328,33.102426],[-79.207245,33.109164],[-79.200505,33.109164],[-79.193766,33.109164],[-79.187026,33.109164],[-79.180286,33.109164],[-79.173547,33.109164],[-79.166807,33.109164],[-79.153328,33.109164],[-79.146588,33.109164],[-79.133109,33.109164],[-79.166807,33.115903],[-79.160067,33.115903],[-79.146588,33.115903],[-79.139848,33.115903],[-79.133109,33.115903],[-79.160067,33.122642],[-79.153328,33.122642],[-79.139848,33.122642],[-79.160067,33.12938],[-79.153328,33.12938],[-79.146588,33.12938],[-79.139848,33.12938],[-79.160067,33.136119],[-79.160067,33.142857],[-79.160067,33.149596],[-79.160067,33.156334],[-79.160067,33.163073],[-79.166807,33.169811],[-79.160067,33.169811],[-79.153328,33.169811],[-79.146588,33.169811],[-79.173547,33.17655],[-79.166807,33.17655],[-79.173547,33.183288],[-79.173547,33.190027],[-79.173547,33.196765],[-79.173547,33.203504],[-79.173547,33.210243],[-79.173547,33.216981],[-79.173547,33.22372]]},"properties":{"source_var":"chl","pixel_count":52,"strength_unit":"log_chl_gradient","strength_median":2.0323,"strength_max":4.2223}},{"type":"Feature","geometry":{"type":"LineString","coordinates":[[-76.383319,35.30593],[-76.275484,35.30593],[-76.268745,35.30593],[-76.262005,35.30593],[-76.255265,35.30593],[-76.383319,35.312668],[-76.282224,35.312668],[-76.275484,35.312668],[-76.383319,35.319407],[-76.295703,35.319407],[-76.288964,35.319407],[-76.282224,35.319407],[-76.383319,35.326146],[-76.309183,35.326146],[-76.302443,35.326146],[-76.295703,35.326146],[-76.417018,35.332884],[-76.410278,35.332884],[-76.403538,35.332884],[-76.396799,35.332884],[-76.390059,35.332884],[-76.383319,35.332884],[-76.37658,35.332884],[-76.36984,35.332884],[-76.3631,35.332884],[-76.356361,35.332884],[-76.349621,35.332884],[-76.342881,35.332884],[-76.336142,35.332884],[-76.329402,35.332884],[-76.322662,35.332884],[-76.315922,35.332884],[-76.309183,35.332884],[-76.295703,35.332884],[-76.396799,35.339623],[-76.309183,35.339623],[-76.302443,35.339623],[-76.295703,35.339623],[-76.396799,35.346361],[-76.396799,35.3531],[-76.396799,35.359838],[-76.403538,35.366577],[-76.396799,35.366577],[-76.403538,35.373315],[-76.410278,35.380054],[-76.403538,35.380054],[-76.417018,35.386792],[-76.410278,35.386792],[-76.410278,35.393531],[-76.410278,35.40027]]},"properties":{"source_var":"chl","pixel_count":50,"strength_unit":"log_chl_gradient","strength_median":1.9578,"strength_max":4.5697}},{"type":"Feature","geometry":{"type":"LineString","coordinates":[[-79.422915,32.893531],[-79.416175,32.893531],[-79.416175,32.90027],[-79.416175,32.907008],[-79.416175,32.913747],[-79.416175,32.920485],[-79.416175,32.927224],[-79.416175,32.933962],[-79.422915,32.940701],[-79.416175,32.940701],[-79.429655,32.947439],[-79.422915,32.947439],[-79.436394,32.954178],[-79.429655,32.954178],[-79.557709,32.960916],[-79.456613,32.960916],[-79.443134,32.960916],[-79.436394,32.960916],[-79.557709,32.967655],[-79.456613,32.967655],[-79.449874,32.967655],[-79.443134,32.967655],[-79.557709,32.974394],[-79.456613,32.974394],[-79.557709,32.981132],[-79.463353,32.981132],[-79.456613,32.981132],[-79.557709,32.987871],[-79.470093,32.987871],[-79.463353,32.987871],[-79.557709,32.994609],[-79.51727,32.994609],[-79.476832,32.994609],[-79.470093,32.994609],[-79.557709,33.001348],[-79.550969,33.001348],[-79.544229,33.001348],[-79.537489,33.001348],[-79.53075,33.001348],[-79.52401,33.001348],[-79.51727,33.001348],[-79.483572,33.001348],[-79.476832,33.001348],[-79.51727,33.008086],[-79.510531,33.008086],[-79.503791,33.008086],[-79.497051,33.008086],[-79.490312,33.008086],[-79.483572,33.008086]]},"properties":{"source_var":"chl","pixel_count":49,"strength_unit":"log_chl_gradient","strength_median":1.4564,"strength_max":2.2595}},{"type":"Feature","geometry":{"type":"LineString","coordinates":[[-75.52064,35.669811],[-75.513901,35.669811],[-75.507161,35.669811],[-75.500421,35.669811],[-75.52064,35.67655],[-75.507161,35.67655],[-75.554339,35.683288],[-75.547599,35.683288],[-75.540859,35.683288],[-75.53412,35.683288],[-75.52738,35.683288],[-75.52064,35.683288],[-75.513901,35.683288],[-75.507161,35.683288],[-75.513901,35.690027],[-75.513901,35.696765],[-75.52064,35.703504],[-75.513901,35.703504],[-75.507161,35.703504],[-75.52738,35.710243],[-75.52064,35.710243],[-75.507161,35.710243],[-75.53412,35.716981],[-75.52738,35.716981],[-75.507161,35.716981],[-75.540859,35.72372],[-75.53412,35.72372],[-75.507161,35.72372],[-75.547599,35.730458],[-75.540859,35.730458],[-75.507161,35.730458],[-75.507161,35.737197],[-75.507161,35.743935],[-75.507161,35.750674],[-75.507161,35.757412],[-75.513901,35.764151],[-75.507161,35.764151],[-75.500421,35.764151],[-75.52064,35.770889],[-75.513901,35.770889],[-75.567818,35.777628],[-75.561078,35.777628],[-75.554339,35.777628],[-75.547599,35.777628],[-75.540859,35.777628],[-75.53412,35.777628],[-75.52738,35.777628],[-75.52064,35.777628],[-75.52738,35.784367]]},"properties":{"source_var":"chl","pixel_count":49,"strength_unit":"log_chl_gradient","strength_median":1.5858,"strength_max":9.0444}},{"type":"Feature","geometry":{"type":"LineString","coordinates":[[-76.430497,35.238544],[-76.430497,35.245283],[-76.430497,35.252022],[-76.430497,35.25876],[-76.437237,35.265499],[-76.430497,35.265499],[-76.423757,35.265499],[-76.417018,35.265499],[-76.410278,35.265499],[-76.437237,35.272237],[-76.437237,35.278976],[-76.450716,35.285714],[-76.443976,35.285714],[-76.437237,35.285714],[-76.464195,35.292453],[-76.450716,35.292453],[-76.437237,35.292453],[-76.464195,35.299191],[-76.457456,35.299191],[-76.450716,35.299191],[-76.443976,35.299191],[-76.437237,35.299191],[-76.437237,35.30593],[-76.437237,35.312668],[-76.437237,35.319407],[-76.443976,35.326146],[-76.437237,35.326146],[-76.430497,35.326146],[-76.423757,35.326146],[-76.457456,35.332884],[-76.450716,35.332884],[-76.443976,35.332884],[-76.457456,35.339623],[-76.443976,35.339623],[-76.457456,35.346361],[-76.450716,35.346361],[-76.443976,35.346361],[-76.457456,35.3531],[-76.497894,35.359838],[-76.491154,35.359838],[-76.484414,35.359838],[-76.477675,35.359838],[-76.470935,35.359838],[-76.464195,35.359838],[-76.457456,35.359838]]},"properties":{"source_var":"chl","pixel_count":45,"strength_unit":"log_chl_gradient","strength_median":1.6141,"strength_max":4.871}},{"type":"Feature","geometry":{"type":"LineString","coordinates":[[-76.322662,34.834232],[-76.383319,34.84097],[-76.37658,34.84097],[-76.36984,34.84097],[-76.3631,34.84097],[-76.356361,34.84097],[-76.349621,34.84097],[-76.322662,34.84097],[-76.3631,34.847709],[-76.349621,34.847709],[-76.342881,34.847709],[-76.336142,34.847709],[-76.322662,34.847709],[-76.3631,34.854447],[-76.356361,34.854447],[-76.349621,34.854447],[-76.336142,34.854447],[-76.329402,34.854447],[-76.322662,34.854447],[-76.309183,34.854447],[-76.302443,34.854447],[-76.295703,34.854447],[-76.288964,34.854447],[-76.282224,34.854447],[-76.275484,34.854447],[-76.349621,34.861186],[-76.342881,34.861186],[-76.336142,34.861186],[-76.322662,34.861186],[-76.315922,34.861186],[-76.309183,34.861186],[-76.322662,34.867925],[-76.309183,34.867925],[-76.322662,34.874663],[-76.315922,34.874663],[-76.309183,34.874663],[-76.302443,34.874663],[-76.302443,34.881402],[-76.309183,34.88814],[-76.302443,34.88814],[-76.309183,34.894879],[-76.309183,34.901617],[-76.309183,34.908356],[-76.309183,34.915094]]},"properties":{"source_var":"chl","pixel_count":44,"strength_unit":"log_chl_gradient","strength_median":1.7057,"strength_max":5.7246}},{"type":"Feature","geometry":{"type":"LineString","coordinates":[[-79.072452,33.311321],[-79.079191,33.318059],[-79.072452,33.318059],[-79.085931,33.324798],[-79.079191,33.324798],[-79.09941,33.331536],[-79.085931,33.331536],[-79.052233,33.331536],[-79.045493,33.331536],[-79.09941,33.338275],[-79.092671,33.338275],[-79.085931,33.338275],[-79.079191,33.338275],[-79.072452,33.338275],[-79.058972,33.338275],[-79.052233,33.338275],[-79.038753,33.338275],[-79.10615,33.345013],[-79.09941,33.345013],[-79.085931,33.345013],[-79.072452,33.345013],[-79.065712,33.345013],[-79.058972,33.345013],[-79.045493,33.345013],[-79.038753,33.345013],[-79.032013,33.345013],[-79.025274,33.345013],[-79.11289,33.351752],[-79.10615,33.351752],[-79.085931,33.351752],[-79.079191,33.351752],[-79.072452,33.351752],[-79.058972,33.351752],[-79.052233,33.351752],[-79.045493,33.351752],[-79.11289,33.358491],[-79.11289,33.365229],[-79.11289,33.371968],[-79.11289,33.378706],[-79.11289,33.385445],[-79.11289,33.392183],[-79.11289,33.398922],[-79.11289,33.40566]]},"properties":{"source_var":"chl","pixel_count":43,"strength_unit":"log_chl_gradient","strength_median":1.2804,"strength_max":4.2762}},{"type":"Feature","geometry":{"type":"LineString","coordinates":[[-76.187869,34.955526],[-76.187869,34.962264],[-76.187869,34.969003],[-76.235046,34.975741],[-76.228307,34.975741],[-76.221567,34.975741],[-76.214827,34.975741],[-76.208088,34.975741],[-76.201348,34.975741],[-76.194608,34.975741],[-76.187869,34.975741],[-76.181129,34.975741],[-76.235046,34.98248],[-76.181129,34.98248],[-76.174389,34.98248],[-76.16765,34.98248],[-76.241786,34.989218],[-76.187869,34.989218],[-76.181129,34.989218],[-76.288964,34.995957],[-76.241786,34.995957],[-76.194608,34.995957],[-76.187869,34.995957],[-76.288964,35.002695],[-76.282224,35.002695],[-76.275484,35.002695],[-76.268745,35.002695],[-76.262005,35.002695],[-76.255265,35.002695],[-76.248526,35.002695],[-76.241786,35.002695],[-76.235046,35.002695],[-76.228307,35.002695],[-76.221567,35.002695],[-76.214827,35.002695],[-76.208088,35.002695],[-76.201348,35.002695],[-76.194608,35.002695],[-76.295703,35.009434],[-76.288964,35.009434],[-76.302443,35.016173],[-76.295703,35.016173]]},"properties":{"source_var":"chl","pixel_count":42,"strength_unit":"log_chl_gradient","strength_median":2.1223,"strength_max":7.5471}},{"type":"Feature","geometry":{"type":"LineString","coordinates":[[-80.710194,31.929919],[-80.703454,31.929919],[-80.703454,31.936658],[-80.703454,31.943396],[-80.78433,31.950135],[-80.710194,31.950135],[-80.703454,31.950135],[-80.78433,31.956873],[-80.777591,31.956873],[-80.770851,31.956873],[-80.764111,31.956873],[-80.757372,31.956873],[-80.750632,31.956873],[-80.743892,31.956873],[-80.737152,31.956873],[-80.730413,31.956873],[-80.723673,31.956873],[-80.716933,31.956873],[-80.710194,31.956873],[-80.78433,31.963612],[-80.78433,31.97035],[-80.838248,31.977089],[-80.831508,31.977089],[-80.824768,31.977089],[-80.818029,31.977089],[-80.811289,31.977089],[-80.804549,31.977089],[-80.79781,31.977089],[-80.79107,31.977089],[-80.78433,31.977089],[-80.838248,31.983827],[-80.78433,31.983827],[-80.838248,31.990566],[-80.79107,31.990566],[-80.78433,31.990566],[-80.777591,31.990566],[-80.79781,31.997305],[-80.79107,31.997305],[-80.804549,32.004043],[-80.79781,32.004043],[-80.804549,32.010782]]},"properties":{"source_var":"chl","pixel_count":41,"strength_unit":"log_chl_gradient","strength_median":1.1983,"strength_max":3.1251}},{"type":"Feature","geometry":{"type":"LineString","coordinates":[[-77.131424,34.571429],[-77.131424,34.578167],[-77.124684,34.578167],[-77.124684,34.584906],[-77.124684,34.591644],[-77.097725,34.591644],[-77.090986,34.591644],[-77.084246,34.591644],[-77.077506,34.591644],[-77.124684,34.598383],[-77.104465,34.598383],[-77.097725,34.598383],[-77.077506,34.598383],[-77.070767,34.598383],[-77.064027,34.598383],[-77.057287,34.598383],[-77.124684,34.605121],[-77.111205,34.605121],[-77.104465,34.605121],[-77.077506,34.605121],[-77.057287,34.605121],[-77.144903,34.61186],[-77.138163,34.61186],[-77.131424,34.61186],[-77.124684,34.61186],[-77.117944,34.61186],[-77.111205,34.61186],[-77.077506,34.61186],[-77.057287,34.61186],[-77.111205,34.618598],[-77.077506,34.618598],[-77.057287,34.618598],[-77.077506,34.625337],[-77.064027,34.625337],[-77.057287,34.625337],[-77.090986,34.632075],[-77.084246,34.632075],[-77.077506,34.632075],[-77.070767,34.632075],[-77.064027,34.632075],[-77.064027,34.638814]]},"properties":{"source_var":"chl","pixel_count":41,"strength_unit":"log_chl_gradient","strength_median":1.7666,"strength_max":5.5862}},{"type":"Feature","geometry":{"type":"LineString","coordinates":[[-79.490312,32.819407],[-79.557709,32.826146],[-79.490312,32.826146],[-79.557709,32.832884],[-79.490312,32.832884],[-79.557709,32.839623],[-79.497051,32.839623],[-79.490312,32.839623],[-79.564448,32.846361],[-79.557709,32.846361],[-79.550969,32.846361],[-79.544229,32.846361],[-79.537489,32.846361],[-79.53075,32.846361],[-79.52401,32.846361],[-79.51727,32.846361],[-79.510531,32.846361],[-79.503791,32.846361],[-79.497051,32.846361],[-79.571188,32.8531],[-79.564448,32.8531],[-79.497051,32.8531],[-79.611626,32.859838],[-79.604886,32.859838],[-79.598147,32.859838],[-79.591407,32.859838],[-79.584667,32.859838],[-79.577928,32.859838],[-79.571188,32.859838],[-79.497051,32.859838],[-79.584667,32.866577],[-79.497051,32.866577],[-79.490312,32.866577],[-79.584667,32.873315],[-79.490312,32.873315],[-79.490312,32.880054]]},"properties":{"source_var":"chl","pixel_count":36,"strength_unit":"log_chl_gradient","strength_median":1.5247,"strength_max":2.7812}},{"type":"Feature","geometry":{"type":"LineString","coordinates":[[-78.46588,33.783019],[-78.46588,33.789757],[-78.459141,33.789757],[-78.459141,33.796496],[-78.452401,33.796496],[-78.452401,33.803235],[-78.445661,33.803235],[-78.438922,33.803235],[-78.438922,33.809973],[-78.432182,33.809973],[-78.425442,33.809973],[-78.418703,33.809973],[-78.411963,33.809973],[-78.405223,33.809973],[-78.398484,33.809973],[-78.391744,33.809973],[-78.438922,33.816712],[-78.391744,33.816712],[-78.438922,33.82345],[-78.486099,33.830189],[-78.47936,33.830189],[-78.47262,33.830189],[-78.46588,33.830189],[-78.459141,33.830189],[-78.438922,33.830189],[-78.506318,33.836927],[-78.492839,33.836927],[-78.486099,33.836927],[-78.459141,33.836927],[-78.452401,33.836927],[-78.445661,33.836927],[-78.438922,33.836927],[-78.506318,33.843666],[-78.499579,33.843666],[-78.492839,33.843666],[-78.459141,33.843666]]},"properties":{"source_var":"chl","pixel_count":36,"strength_unit":"log_chl_gradient","strength_median":1.3835,"strength_max":2.917}},{"type":"Feature","geometry":{"type":"LineString","coordinates":[[-76.457456,35.117251],[-76.450716,35.117251],[-76.443976,35.117251],[-76.457456,35.123989],[-76.443976,35.123989],[-76.464195,35.130728],[-76.457456,35.130728],[-76.450716,35.130728],[-76.443976,35.130728],[-76.477675,35.137466],[-76.470935,35.137466],[-76.464195,35.137466],[-76.491154,35.144205],[-76.484414,35.144205],[-76.477675,35.144205],[-76.464195,35.144205],[-76.491154,35.150943],[-76.477675,35.150943],[-76.470935,35.150943],[-76.491154,35.157682],[-76.497894,35.16442],[-76.491154,35.16442],[-76.497894,35.171159],[-76.538332,35.177898],[-76.531592,35.177898],[-76.524853,35.177898],[-76.518113,35.177898],[-76.511373,35.177898],[-76.504634,35.177898],[-76.497894,35.177898],[-76.497894,35.184636],[-76.497894,35.191375],[-76.497894,35.198113],[-76.497894,35.204852],[-76.497894,35.21159],[-76.497894,35.218329]]},"properties":{"source_var":"chl","pixel_count":36,"strength_unit":"log_chl_gradient","strength_median":1.99,"strength_max":4.3099}},{"type":"Feature","geometry":{"type":"LineString","coordinates":[[-75.716091,35.123989],[-75.749789,35.130728],[-75.716091,35.130728],[-75.749789,35.137466],[-75.716091,35.137466],[-75.749789,35.144205],[-75.716091,35.144205],[-75.749789,35.150943],[-75.722831,35.150943],[-75.716091,35.150943],[-75.803707,35.157682],[-75.749789,35.157682],[-75.72957,35.157682],[-75.722831,35.157682],[-75.803707,35.16442],[-75.796967,35.16442],[-75.790227,35.16442],[-75.783488,35.16442],[-75.776748,35.16442],[-75.770008,35.16442],[-75.763269,35.16442],[-75.756529,35.16442],[-75.749789,35.16442],[-75.74305,35.16442],[-75.73631,35.16442],[-75.72957,35.16442],[-75.803707,35.171159],[-75.72957,35.171159],[-75.73631,35.177898],[-75.72957,35.177898],[-75.722831,35.177898],[-75.74305,35.184636],[-75.73631,35.184636],[-75.749789,35.191375],[-75.74305,35.191375],[-75.749789,35.198113]]},"properties":{"source_var":"chl","pixel_count":36,"strength_unit":"log_chl_gradient","strength_median":2.7222,"strength_max":7.4901}},{"type":"Feature","geometry":{"type":"LineString","coordinates":[[-80.595619,32.057951],[-80.595619,32.06469],[-80.595619,32.071429],[-80.595619,32.078167],[-80.58888,32.078167],[-80.555181,32.078167],[-80.595619,32.084906],[-80.58214,32.084906],[-80.555181,32.084906],[-80.595619,32.091644],[-80.58888,32.091644],[-80.58214,32.091644],[-80.5754,32.091644],[-80.56866,32.091644],[-80.561921,32.091644],[-80.555181,32.091644],[-80.548441,32.091644],[-80.541702,32.091644],[-80.534962,32.091644],[-80.528222,32.091644],[-80.521483,32.091644],[-80.602359,32.098383],[-80.595619,32.098383],[-80.58888,32.098383],[-80.541702,32.098383],[-80.595619,32.105121],[-80.58888,32.105121],[-80.58214,32.105121],[-80.595619,32.11186],[-80.58214,32.11186],[-80.595619,32.118598],[-80.58888,32.118598],[-80.58214,32.118598],[-80.595619,32.125337]]},"properties":{"source_var":"chl","pixel_count":34,"strength_unit":"log_chl_gradient","strength_median":1.5469,"strength_max":2.9766}},{"type":"Feature","geometry":{"type":"LineString","coordinates":[[-78.910699,33.567385],[-78.90396,33.567385],[-78.89722,33.567385],[-78.930918,33.574124],[-78.924179,33.574124],[-78.917439,33.574124],[-78.89722,33.574124],[-78.937658,33.580863],[-78.930918,33.580863],[-78.89722,33.580863],[-78.951137,33.587601],[-78.944398,33.587601],[-78.937658,33.587601],[-78.89722,33.587601],[-78.937658,33.59434],[-78.89722,33.59434],[-78.937658,33.601078],[-78.930918,33.601078],[-78.924179,33.601078],[-78.917439,33.601078],[-78.910699,33.601078],[-78.90396,33.601078],[-78.89722,33.601078],[-78.89048,33.601078],[-78.883741,33.601078],[-78.930918,33.607817],[-78.883741,33.607817],[-78.877001,33.607817],[-78.930918,33.614555],[-78.877001,33.614555],[-78.870261,33.614555],[-78.930918,33.621294],[-78.870261,33.621294],[-78.870261,33.628032]]},"properties":{"source_var":"chl","pixel_count":34,"strength_unit":"log_chl_gradient","strength_median":1.3746,"strength_max":5.2368}},{"type":"Feature","geometry":{"type":"LineString","coordinates":[[-78.68829,33.756065],[-78.68829,33.762803],[-78.68829,33.769542],[-78.600674,33.769542],[-78.593934,33.769542],[-78.587195,33.769542],[-78.580455,33.769542],[-78.573715,33.769542],[-78.68829,33.77628],[-78.68155,33.77628],[-78.67481,33.77628],[-78.668071,33.77628],[-78.661331,33.77628],[-78.654591,33.77628],[-78.647852,33.77628],[-78.641112,33.77628],[-78.634372,33.77628],[-78.627633,33.77628],[-78.620893,33.77628],[-78.614153,33.77628],[-78.607414,33.77628],[-78.600674,33.77628],[-78.715249,33.783019],[-78.708509,33.783019],[-78.701769,33.783019],[-78.695029,33.783019],[-78.68829,33.783019],[-78.68155,33.783019],[-78.600674,33.783019],[-78.68155,33.789757],[-78.600674,33.789757],[-78.607414,33.796496],[-78.600674,33.796496]]},"properties":{"source_var":"chl","pixel_count":33,"strength_unit":"log_chl_gradient","strength_median":0.9664,"strength_max":2.9551}},{"type":"Feature","geometry":{"type":"LineString","coordinates":[[-76.106992,35.022911],[-76.113732,35.02965],[-76.106992,35.02965],[-76.100253,35.02965],[-76.113732,35.036388],[-76.100253,35.036388],[-76.113732,35.043127],[-76.106992,35.043127],[-76.100253,35.043127],[-76.093513,35.043127],[-76.086773,35.043127],[-76.086773,35.049865],[-76.080034,35.049865],[-76.073294,35.049865],[-76.080034,35.056604],[-76.080034,35.063342],[-76.073294,35.063342],[-76.066554,35.063342],[-76.080034,35.070081],[-76.066554,35.070081],[-76.080034,35.076819],[-76.073294,35.076819],[-76.066554,35.076819],[-76.073294,35.083558],[-76.066554,35.083558],[-76.059815,35.083558],[-76.073294,35.090296],[-76.059815,35.090296],[-76.080034,35.097035],[-76.073294,35.097035],[-76.066554,35.097035],[-76.080034,35.103774],[-76.080034,35.110512]]},"properties":{"source_var":"chl","pixel_count":33,"strength_unit":"log_chl_gradient","strength_median":1.5732,"strength_max":4.9025}},{"type":"Feature","geometry":{"type":"LineString","coordinates":[[-75.904802,31.020216],[-75.898062,31.020216],[-75.891323,31.020216],[-75.884583,31.020216],[-75.877843,31.020216],[-75.871104,31.020216],[-75.864364,31.020216],[-75.904802,31.026954],[-75.864364,31.026954],[-75.904802,31.033693],[-75.864364,31.033693],[-75.904802,31.040431],[-75.864364,31.040431],[-75.904802,31.04717],[-75.864364,31.04717],[-75.904802,31.053908],[-75.864364,31.053908],[-75.904802,31.060647],[-75.898062,31.060647],[-75.891323,31.060647],[-75.884583,31.060647],[-75.877843,31.060647],[-75.871104,31.060647],[-75.871104,31.067385],[-75.871104,31.074124],[-75.871104,31.080863],[-75.871104,31.087601],[-75.871104,31.09434],[-75.871104,31.101078],[-75.877843,31.107817],[-75.871104,31.107817],[-75.877843,31.114555]]},"properties":{"source_var":"chl","pixel_count":32,"strength_unit":"log_chl_gradient","strength_median":1.9421,"strength_max":2.9127}},{"type":"Feature","geometry":{"type":"LineString","coordinates":[[-76.005897,35.056604],[-75.999158,35.056604],[-75.992418,35.056604],[-75.985678,35.056604],[-75.978939,35.056604],[-76.005897,35.063342],[-76.005897,35.070081],[-76.005897,35.076819],[-76.005897,35.083558],[-76.005897,35.090296],[-76.005897,35.097035],[-76.012637,35.103774],[-76.005897,35.103774],[-75.999158,35.103774],[-76.012637,35.110512],[-75.999158,35.110512],[-76.026116,35.117251],[-76.019377,35.117251],[-76.012637,35.117251],[-76.005897,35.117251],[-75.999158,35.117251],[-76.046335,35.123989],[-76.039596,35.123989],[-76.032856,35.123989],[-76.026116,35.123989],[-76.012637,35.123989],[-76.005897,35.123989],[-76.026116,35.130728],[-76.019377,35.130728],[-76.012637,35.130728],[-76.005897,35.130728],[-75.999158,35.130728]]},"properties":{"source_var":"chl","pixel_count":32,"strength_unit":"log_chl_gradient","strength_median":1.6139,"strength_max":3.0677}},{"type":"Feature","geometry":{"type":"LineString","coordinates":[[-75.473463,35.413747],[-75.473463,35.420485],[-75.453243,35.420485],[-75.446504,35.420485],[-75.439764,35.420485],[-75.433024,35.420485],[-75.426285,35.420485],[-75.419545,35.420485],[-75.412805,35.420485],[-75.406066,35.420485],[-75.399326,35.420485],[-75.473463,35.427224],[-75.459983,35.427224],[-75.453243,35.427224],[-75.473463,35.433962],[-75.466723,35.433962],[-75.459983,35.433962],[-75.466723,35.440701],[-75.466723,35.447439],[-75.466723,35.454178],[-75.466723,35.460916],[-75.466723,35.467655],[-75.466723,35.474394],[-75.466723,35.481132],[-75.466723,35.487871],[-75.466723,35.494609],[-75.466723,35.501348],[-75.466723,35.508086],[-75.466723,35.514825],[-75.466723,35.521563]]},"properties":{"source_var":"chl","pixel_count":30,"strength_unit":"log_chl_gradient","strength_median":2.7786,"strength_max":3.9261}},{"type":"Feature","geometry":{"type":"LineString","coordinates":[[-80.204718,32.428571],[-80.197978,32.428571],[-80.211457,32.43531],[-80.204718,32.43531],[-80.218197,32.442049],[-80.211457,32.442049],[-80.224937,32.448787],[-80.218197,32.448787],[-80.245156,32.455526],[-80.231676,32.455526],[-80.224937,32.455526],[-80.245156,32.462264],[-80.238416,32.462264],[-80.231676,32.462264],[-80.238416,32.469003],[-80.238416,32.475741],[-80.245156,32.48248],[-80.238416,32.48248],[-80.231676,32.48248],[-80.251896,32.489218],[-80.245156,32.489218],[-80.231676,32.489218],[-80.224937,32.489218],[-80.285594,32.495957],[-80.278854,32.495957],[-80.272115,32.495957],[-80.265375,32.495957],[-80.258635,32.495957],[-80.251896,32.495957]]},"properties":{"source_var":"chl","pixel_count":29,"strength_unit":"log_chl_gradient","strength_median":1.2101,"strength_max":1.7233}},{"type":"Feature","geometry":{"type":"LineString","coordinates":[[-78.775906,33.722372],[-78.769166,33.722372],[-78.782645,33.729111],[-78.775906,33.729111],[-78.762426,33.729111],[-78.775906,33.735849],[-78.769166,33.735849],[-78.762426,33.735849],[-78.748947,33.735849],[-78.742207,33.735849],[-78.735468,33.735849],[-78.762426,33.742588],[-78.755687,33.742588],[-78.748947,33.742588],[-78.735468,33.742588],[-78.728728,33.742588],[-78.721988,33.742588],[-78.715249,33.742588],[-78.708509,33.742588],[-78.701769,33.742588],[-78.695029,33.742588],[-78.748947,33.749326],[-78.742207,33.749326],[-78.728728,33.749326],[-78.695029,33.749326],[-78.742207,33.756065],[-78.735468,33.756065],[-78.728728,33.756065],[-78.735468,33.762803]]},"properties":{"source_var":"chl","pixel_count":29,"strength_unit":"log_chl_gradient","strength_median":1.2232,"strength_max":3.5063}},{"type":"Feature","geometry":{"type":"LineString","coordinates":[[-75.480202,35.339623],[-75.480202,35.346361],[-75.466723,35.346361],[-75.459983,35.346361],[-75.480202,35.3531],[-75.473463,35.3531],[-75.466723,35.3531],[-75.480202,35.359838],[-75.486942,35.366577],[-75.480202,35.366577],[-75.486942,35.373315],[-75.486942,35.380054],[-75.486942,35.386792],[-75.486942,35.393531],[-75.486942,35.40027],[-75.493682,35.407008],[-75.486942,35.407008],[-75.480202,35.407008],[-75.500421,35.413747],[-75.493682,35.413747],[-75.52738,35.420485],[-75.52064,35.420485],[-75.513901,35.420485],[-75.507161,35.420485],[-75.500421,35.420485],[-75.52738,35.427224],[-75.52738,35.433962],[-75.52738,35.440701],[-75.52738,35.447439]]},"properties":{"source_var":"chl","pixel_count":29,"strength_unit":"log_chl_gradient","strength_median":1.8432,"strength_max":3.8717}},{"type":"Feature","geometry":{"type":"LineString","coordinates":[[-80.898905,31.882749],[-80.939343,31.889488],[-80.898905,31.889488],[-80.892165,31.889488],[-80.885425,31.889488],[-80.939343,31.896226],[-80.932603,31.896226],[-80.925864,31.896226],[-80.919124,31.896226],[-80.912384,31.896226],[-80.905644,31.896226],[-80.898905,31.896226],[-80.939343,31.902965],[-80.925864,31.902965],[-80.912384,31.902965],[-80.939343,31.909704],[-80.919124,31.909704],[-80.912384,31.909704],[-80.905644,31.909704],[-80.939343,31.916442],[-80.905644,31.916442],[-80.939343,31.923181],[-80.912384,31.923181],[-80.905644,31.923181],[-80.939343,31.929919],[-80.932603,31.929919],[-80.925864,31.929919],[-80.919124,31.929919]]},"properties":{"source_var":"chl","pixel_count":28,"strength_unit":"log_chl_gradient","strength_median":1.2539,"strength_max":2.0918}},{"type":"Feature","geometry":{"type":"LineString","coordinates":[[-76.491154,35.326146],[-76.491154,35.332884],[-76.497894,35.339623],[-76.491154,35.339623],[-76.545072,35.346361],[-76.538332,35.346361],[-76.531592,35.346361],[-76.511373,35.346361],[-76.504634,35.346361],[-76.497894,35.346361],[-76.551811,35.3531],[-76.545072,35.3531],[-76.511373,35.3531],[-76.504634,35.3531],[-76.551811,35.359838],[-76.518113,35.359838],[-76.511373,35.359838],[-76.551811,35.366577],[-76.524853,35.366577],[-76.518113,35.366577],[-76.57203,35.373315],[-76.565291,35.373315],[-76.558551,35.373315],[-76.551811,35.373315],[-76.545072,35.373315],[-76.538332,35.373315],[-76.531592,35.373315],[-76.524853,35.373315]]},"properties":{"source_var":"chl","pixel_count":28,"strength_unit":"log_chl_gradient","strength_median":1.8105,"strength_max":5.1713}},{"type":"Feature","geometry":{"type":"LineString","coordinates":[[-80.393429,32.367925],[-80.393429,32.374663],[-80.393429,32.381402],[-80.393429,32.38814],[-80.393429,32.394879],[-80.393429,32.401617],[-80.420388,32.408356],[-80.413648,32.408356],[-80.406908,32.408356],[-80.400168,32.408356],[-80.393429,32.408356],[-80.427127,32.415094],[-80.420388,32.415094],[-80.406908,32.415094],[-80.393429,32.415094],[-80.440607,32.421833],[-80.433867,32.421833],[-80.427127,32.421833],[-80.413648,32.421833],[-80.406908,32.421833],[-80.427127,32.428571],[-80.420388,32.428571],[-80.413648,32.428571],[-80.406908,32.428571],[-80.406908,32.43531],[-80.406908,32.442049],[-80.406908,32.448787]]},"properties":{"source_var":"chl","pixel_count":27,"strength_unit":"log_chl_gradient","strength_median":1.5266,"strength_max":2.4486}},{"type":"Feature","geometry":{"type":"LineString","coordinates":[[-80.481045,32.179245],[-80.481045,32.185984],[-80.481045,32.192722],[-80.481045,32.199461],[-80.474305,32.199461],[-80.487784,32.206199],[-80.474305,32.206199],[-80.487784,32.212938],[-80.481045,32.212938],[-80.474305,32.212938],[-80.487784,32.219677],[-80.494524,32.226415],[-80.487784,32.226415],[-80.501264,32.233154],[-80.494524,32.233154],[-80.508003,32.239892],[-80.501264,32.239892],[-80.508003,32.246631],[-80.508003,32.253369],[-80.508003,32.260108],[-80.501264,32.260108],[-80.534962,32.266846],[-80.528222,32.266846],[-80.521483,32.266846],[-80.514743,32.266846],[-80.508003,32.266846]]},"properties":{"source_var":"chl","pixel_count":26,"strength_unit":"log_chl_gradient","strength_median":1.3093,"strength_max":2.1293}},{"type":"Feature","geometry":{"type":"LineString","coordinates":[[-77.83235,33.77628],[-77.83235,33.783019],[-77.83909,33.789757],[-77.83235,33.789757],[-77.83909,33.796496],[-77.83235,33.796496],[-77.825611,33.796496],[-77.83909,33.803235],[-77.83909,33.809973],[-77.812131,33.809973],[-77.84583,33.816712],[-77.83909,33.816712],[-77.83235,33.816712],[-77.825611,33.816712],[-77.818871,33.816712],[-77.812131,33.816712],[-77.805392,33.816712],[-77.798652,33.816712],[-77.791912,33.816712],[-77.84583,33.82345],[-77.825611,33.82345],[-77.791912,33.82345],[-77.785173,33.82345],[-77.825611,33.830189],[-77.825611,33.836927],[-77.825611,33.843666]]},"properties":{"source_var":"chl","pixel_count":26,"strength_unit":"log_chl_gradient","strength_median":1.0047,"strength_max":2.6711}},{"type":"Feature","geometry":{"type":"LineString","coordinates":[[-78.378265,33.836927],[-78.398484,33.843666],[-78.391744,33.843666],[-78.378265,33.843666],[-78.405223,33.850404],[-78.391744,33.850404],[-78.385004,33.850404],[-78.378265,33.850404],[-78.425442,33.857143],[-78.405223,33.857143],[-78.398484,33.857143],[-78.391744,33.857143],[-78.378265,33.857143],[-78.371525,33.857143],[-78.425442,33.863881],[-78.405223,33.863881],[-78.371525,33.863881],[-78.364785,33.863881],[-78.452401,33.87062],[-78.445661,33.87062],[-78.438922,33.87062],[-78.432182,33.87062],[-78.425442,33.87062],[-78.418703,33.87062],[-78.411963,33.87062],[-78.405223,33.87062]]},"properties":{"source_var":"chl","pixel_count":26,"strength_unit":"log_chl_gradient","strength_median":1.5704,"strength_max":6.9342}},{"type":"Feature","geometry":{"type":"LineString","coordinates":[[-75.31845,34.557951],[-75.31845,34.56469],[-75.352148,34.571429],[-75.345409,34.571429],[-75.338669,34.571429],[-75.331929,34.571429],[-75.32519,34.571429],[-75.31845,34.571429],[-75.31171,34.571429],[-75.304971,34.571429],[-75.32519,34.578167],[-75.31845,34.578167],[-75.304971,34.578167],[-75.331929,34.584906],[-75.32519,34.584906],[-75.31845,34.584906],[-75.31171,34.584906],[-75.304971,34.584906],[-75.31845,34.591644],[-75.31845,34.598383],[-75.31845,34.605121],[-75.31845,34.61186],[-75.31845,34.618598],[-75.31845,34.625337],[-75.31845,34.632075],[-75.31845,34.638814]]},"properties":{"source_var":"chl","pixel_count":26,"strength_unit":"log_chl_gradient","strength_median":1.3351,"strength_max":2.4517}},{"type":"Feature","geometry":{"type":"LineString","coordinates":[[-76.962932,31.438005],[-76.962932,31.444744],[-76.962932,31.451482],[-76.969671,31.458221],[-76.962932,31.458221],[-76.956192,31.458221],[-76.942713,31.458221],[-76.969671,31.46496],[-76.949452,31.46496],[-76.942713,31.46496],[-76.969671,31.471698],[-76.962932,31.471698],[-76.949452,31.471698],[-76.969671,31.478437],[-76.956192,31.478437],[-76.949452,31.478437],[-76.976411,31.485175],[-76.969671,31.485175],[-76.962932,31.485175],[-76.956192,31.485175],[-76.976411,31.491914],[-76.962932,31.491914],[-76.969671,31.498652],[-76.962932,31.498652],[-76.969671,31.505391]]},"properties":{"source_var":"chl","pixel_count":25,"strength_unit":"log_chl_gradient","strength_median":1.3374,"strength_max":1.6197}},{"type":"Feature","geometry":{"type":"LineString","coordinates":[[-76.214827,32.960916],[-76.268745,32.967655],[-76.262005,32.967655],[-76.255265,32.967655],[-76.248526,32.967655],[-76.241786,32.967655],[-76.235046,32.967655],[-76.228307,32.967655],[-76.221567,32.967655],[-76.214827,32.967655],[-76.201348,32.967655],[-76.241786,32.974394],[-76.221567,32.974394],[-76.208088,32.974394],[-76.201348,32.974394],[-76.241786,32.981132],[-76.221567,32.981132],[-76.214827,32.981132],[-76.208088,32.981132],[-76.255265,32.987871],[-76.248526,32.987871],[-76.241786,32.987871],[-76.235046,32.987871],[-76.228307,32.987871],[-76.221567,32.987871]]},"properties":{"source_var":"chl","pixel_count":25,"strength_unit":"log_chl_gradient","strength_median":1.3316,"strength_max":1.9858}},{"type":"Feature","geometry":{"type":"LineString","coordinates":[[-79.604886,32.704852],[-79.598147,32.704852],[-79.604886,32.71159],[-79.604886,32.718329],[-79.618366,32.725067],[-79.611626,32.725067],[-79.604886,32.725067],[-79.611626,32.731806],[-79.611626,32.738544],[-79.611626,32.745283],[-79.604886,32.745283],[-79.598147,32.745283],[-79.591407,32.745283],[-79.584667,32.745283],[-79.577928,32.745283],[-79.611626,32.752022],[-79.577928,32.752022],[-79.611626,32.75876],[-79.577928,32.75876],[-79.611626,32.765499],[-79.577928,32.765499],[-79.611626,32.772237],[-79.611626,32.778976],[-79.611626,32.785714]]},"properties":{"source_var":"chl","pixel_count":24,"strength_unit":"log_chl_gradient","strength_median":1.1863,"strength_max":1.6683}},{"type":"Feature","geometry":{"type":"LineString","coordinates":[[-76.720303,33.446092],[-76.713564,33.446092],[-76.706824,33.446092],[-76.700084,33.446092],[-76.693345,33.446092],[-76.693345,33.45283],[-76.686605,33.45283],[-76.686605,33.459569],[-76.686605,33.466307],[-76.693345,33.473046],[-76.686605,33.473046],[-76.700084,33.479784],[-76.686605,33.479784],[-76.700084,33.486523],[-76.693345,33.486523],[-76.686605,33.486523],[-76.713564,33.493261],[-76.706824,33.493261],[-76.700084,33.493261],[-76.713564,33.5],[-76.700084,33.5],[-76.713564,33.506739],[-76.706824,33.506739],[-76.700084,33.506739]]},"properties":{"source_var":"chl","pixel_count":24,"strength_unit":"log_chl_gradient","strength_median":1.7634,"strength_max":2.77}},{"type":"Feature","geometry":{"type":"LineString","coordinates":[[-76.470935,35.097035],[-76.477675,35.103774],[-76.470935,35.103774],[-76.504634,35.110512],[-76.497894,35.110512],[-76.491154,35.110512],[-76.484414,35.110512],[-76.477675,35.110512],[-76.511373,35.117251],[-76.504634,35.117251],[-76.484414,35.117251],[-76.518113,35.123989],[-76.511373,35.123989],[-76.484414,35.123989],[-76.524853,35.130728],[-76.518113,35.130728],[-76.484414,35.130728],[-76.531592,35.137466],[-76.524853,35.137466],[-76.538332,35.144205],[-76.531592,35.144205],[-76.538332,35.150943],[-76.538332,35.157682],[-76.538332,35.16442]]},"properties":{"source_var":"chl","pixel_count":24,"strength_unit":"log_chl_gradient","strength_median":2.1089,"strength_max":4.351}},{"type":"Feature","geometry":{"type":"LineString","coordinates":[[-75.931761,35.110512],[-75.931761,35.117251],[-75.931761,35.123989],[-75.925021,35.123989],[-75.918281,35.123989],[-75.958719,35.130728],[-75.95198,35.130728],[-75.94524,35.130728],[-75.9385,35.130728],[-75.931761,35.130728],[-75.918281,35.130728],[-75.911542,35.130728],[-75.992418,35.137466],[-75.985678,35.137466],[-75.978939,35.137466],[-75.972199,35.137466],[-75.965459,35.137466],[-75.958719,35.137466],[-75.94524,35.137466],[-75.985678,35.144205],[-75.958719,35.144205],[-75.95198,35.144205],[-75.94524,35.144205],[-75.985678,35.150943]]},"properties":{"source_var":"chl","pixel_count":24,"strength_unit":"log_chl_gradient","strength_median":2.2542,"strength_max":9.0703}},{"type":"Feature","geometry":{"type":"LineString","coordinates":[[-80.58888,32.010782],[-80.58888,32.01752],[-80.58888,32.024259],[-80.56866,32.024259],[-80.561921,32.024259],[-80.555181,32.024259],[-80.58888,32.030997],[-80.58214,32.030997],[-80.5754,32.030997],[-80.56866,32.030997],[-80.602359,32.037736],[-80.595619,32.037736],[-80.58888,32.037736],[-80.5754,32.037736],[-80.56866,32.037736],[-80.58888,32.044474],[-80.58214,32.044474],[-80.56866,32.044474],[-80.58888,32.051213],[-80.58214,32.051213],[-80.5754,32.051213],[-80.56866,32.051213],[-80.56866,32.057951]]},"properties":{"source_var":"chl","pixel_count":23,"strength_unit":"log_chl_gradient","strength_median":1.897,"strength_max":3.4435}},{"type":"Feature","geometry":{"type":"LineString","coordinates":[[-80.676495,32.253369],[-80.676495,32.260108],[-80.696714,32.266846],[-80.689975,32.266846],[-80.683235,32.266846],[-80.676495,32.266846],[-80.689975,32.273585],[-80.683235,32.273585],[-80.669756,32.273585],[-80.689975,32.280323],[-80.676495,32.280323],[-80.669756,32.280323],[-80.663016,32.280323],[-80.656276,32.280323],[-80.689975,32.287062],[-80.683235,32.287062],[-80.676495,32.287062],[-80.703454,32.293801],[-80.689975,32.293801],[-80.710194,32.300539],[-80.703454,32.300539],[-80.696714,32.300539],[-80.689975,32.300539]]},"properties":{"source_var":"chl","pixel_count":23,"strength_unit":"log_chl_gradient","strength_median":1.6644,"strength_max":3.0849}},{"type":"Feature","geometry":{"type":"LineString","coordinates":[[-79.719461,32.637466],[-79.712721,32.637466],[-79.705981,32.637466],[-79.699242,32.637466],[-79.726201,32.644205],[-79.719461,32.644205],[-79.759899,32.650943],[-79.73294,32.650943],[-79.726201,32.650943],[-79.820556,32.657682],[-79.813816,32.657682],[-79.807077,32.657682],[-79.800337,32.657682],[-79.793597,32.657682],[-79.786858,32.657682],[-79.780118,32.657682],[-79.773378,32.657682],[-79.766639,32.657682],[-79.759899,32.657682],[-79.753159,32.657682],[-79.74642,32.657682],[-79.73968,32.657682],[-79.73294,32.657682]]},"properties":{"source_var":"chl","pixel_count":23,"strength_unit":"log_chl_gradient","strength_median":4.244,"strength_max":5.3956}},{"type":"Feature","geometry":{"type":"LineString","coordinates":[[-80.413648,32.233154],[-80.406908,32.233154],[-80.400168,32.233154],[-80.413648,32.239892],[-80.413648,32.246631],[-80.413648,32.253369],[-80.400168,32.253369],[-80.413648,32.260108],[-80.406908,32.260108],[-80.400168,32.260108],[-80.420388,32.266846],[-80.413648,32.266846],[-80.427127,32.273585],[-80.420388,32.273585],[-80.460826,32.280323],[-80.454086,32.280323],[-80.447346,32.280323],[-80.440607,32.280323],[-80.433867,32.280323],[-80.427127,32.280323],[-80.427127,32.287062],[-80.427127,32.293801]]},"properties":{"source_var":"chl","pixel_count":22,"strength_unit":"log_chl_gradient","strength_median":1.234,"strength_max":2.401}},{"type":"Feature","geometry":{"type":"LineString","coordinates":[[-75.365628,32.731806],[-75.358888,32.731806],[-75.352148,32.731806],[-75.345409,32.731806],[-75.338669,32.731806],[-75.331929,32.731806],[-75.365628,32.738544],[-75.331929,32.738544],[-75.32519,32.738544],[-75.358888,32.745283],[-75.331929,32.745283],[-75.358888,32.752022],[-75.331929,32.752022],[-75.31171,32.752022],[-75.358888,32.75876],[-75.352148,32.75876],[-75.345409,32.75876],[-75.338669,32.75876],[-75.331929,32.75876],[-75.32519,32.75876],[-75.31845,32.75876],[-75.31171,32.75876]]},"properties":{"source_var":"chl","pixel_count":22,"strength_unit":"log_chl_gradient","strength_median":1.1371,"strength_max":1.6602}},{"type":"Feature","geometry":{"type":"LineString","coordinates":[[-78.007582,33.897574],[-78.000842,33.897574],[-77.994103,33.897574],[-77.987363,33.897574],[-78.000842,33.904313],[-77.987363,33.904313],[-78.000842,33.911051],[-77.994103,33.911051],[-77.987363,33.911051],[-77.980623,33.911051],[-77.973884,33.911051],[-77.987363,33.91779],[-77.973884,33.91779],[-77.987363,33.924528],[-77.980623,33.924528],[-77.973884,33.924528],[-77.973884,33.931267],[-77.967144,33.931267],[-77.960404,33.931267],[-77.953665,33.931267],[-77.946925,33.931267],[-77.940185,33.931267]]},"properties":{"source_var":"chl","pixel_count":22,"strength_unit":"log_chl_gradient","strength_median":1.4948,"strength_max":6.2523}},{"type":"Feature","geometry":{"type":"LineString","coordinates":[[-75.089301,35.252022],[-75.089301,35.25876],[-75.082561,35.25876],[-75.082561,35.265499],[-75.075821,35.265499],[-75.075821,35.272237],[-75.069082,35.272237],[-75.069082,35.278976],[-75.062342,35.278976],[-75.062342,35.285714],[-75.055602,35.285714],[-75.055602,35.292453],[-75.048863,35.292453],[-75.048863,35.299191],[-75.042123,35.299191],[-75.042123,35.30593],[-75.035383,35.30593],[-75.035383,35.312668],[-75.028644,35.312668],[-75.028644,35.319407],[-75.021904,35.319407],[-75.021904,35.326146]]},"properties":{"source_var":"chl","pixel_count":22,"strength_unit":"log_chl_gradient","strength_median":2.2575,"strength_max":2.6403}},{"type":"Feature","geometry":{"type":"LineString","coordinates":[[-80.885425,31.04717],[-80.878686,31.04717],[-80.871946,31.04717],[-80.865206,31.04717],[-80.858467,31.04717],[-80.851727,31.04717],[-80.844987,31.04717],[-80.838248,31.04717],[-80.831508,31.04717],[-80.824768,31.04717],[-80.818029,31.04717],[-80.811289,31.04717],[-80.885425,31.053908],[-80.831508,31.053908],[-80.885425,31.060647],[-80.831508,31.060647],[-80.885425,31.067385],[-80.878686,31.067385],[-80.871946,31.067385],[-80.865206,31.067385],[-80.831508,31.067385]]},"properties":{"source_var":"chl","pixel_count":21,"strength_unit":"log_chl_gradient","strength_median":1.2001,"strength_max":1.8007}},{"type":"Feature","geometry":{"type":"LineString","coordinates":[[-75.763269,31.909704],[-75.763269,31.916442],[-75.770008,31.923181],[-75.763269,31.923181],[-75.756529,31.923181],[-75.749789,31.923181],[-75.770008,31.929919],[-75.749789,31.929919],[-75.770008,31.936658],[-75.749789,31.936658],[-75.74305,31.936658],[-75.790227,31.943396],[-75.783488,31.943396],[-75.776748,31.943396],[-75.770008,31.943396],[-75.763269,31.943396],[-75.756529,31.943396],[-75.74305,31.943396],[-75.756529,31.950135],[-75.749789,31.950135],[-75.74305,31.950135]]},"properties":{"source_var":"chl","pixel_count":21,"strength_unit":"log_chl_gradient","strength_median":1.1784,"strength_max":2.1718}},{"type":"Feature","geometry":{"type":"LineString","coordinates":[[-79.288121,32.206199],[-79.281382,32.206199],[-79.274642,32.206199],[-79.267902,32.206199],[-79.261163,32.206199],[-79.261163,32.212938],[-79.254423,32.212938],[-79.247683,32.212938],[-79.240944,32.212938],[-79.240944,32.219677],[-79.234204,32.219677],[-79.227464,32.219677],[-79.227464,32.226415],[-79.220725,32.226415],[-79.213985,32.226415],[-79.213985,32.233154],[-79.207245,32.233154],[-79.200505,32.233154],[-79.200505,32.239892],[-79.193766,32.239892],[-79.187026,32.239892]]},"properties":{"source_var":"chl","pixel_count":21,"strength_unit":"log_chl_gradient","strength_median":1.4786,"strength_max":2.0682}},{"type":"Feature","geometry":{"type":"LineString","coordinates":[[-80.042965,32.502695],[-80.042965,32.509434],[-80.049705,32.516173],[-80.042965,32.516173],[-80.056445,32.522911],[-80.049705,32.522911],[-80.063184,32.52965],[-80.056445,32.52965],[-80.069924,32.536388],[-80.063184,32.536388],[-80.069924,32.543127],[-80.069924,32.549865],[-80.069924,32.556604],[-80.063184,32.556604],[-80.056445,32.556604],[-80.049705,32.556604],[-80.076664,32.563342],[-80.069924,32.563342],[-80.090143,32.570081],[-80.083404,32.570081],[-80.076664,32.570081]]},"properties":{"source_var":"chl","pixel_count":21,"strength_unit":"log_chl_gradient","strength_median":1.3947,"strength_max":1.7497}},{"type":"Feature","geometry":{"type":"LineString","coordinates":[[-79.470093,32.940701],[-79.52401,32.947439],[-79.51727,32.947439],[-79.510531,32.947439],[-79.503791,32.947439],[-79.497051,32.947439],[-79.490312,32.947439],[-79.483572,32.947439],[-79.476832,32.947439],[-79.470093,32.947439],[-79.463353,32.947439],[-79.490312,32.954178],[-79.463353,32.954178],[-79.497051,32.960916],[-79.490312,32.960916],[-79.503791,32.967655],[-79.497051,32.967655],[-79.510531,32.974394],[-79.503791,32.974394],[-79.510531,32.981132],[-79.510531,32.987871]]},"properties":{"source_var":"chl","pixel_count":21,"strength_unit":"log_chl_gradient","strength_median":1.1542,"strength_max":1.9703}},{"type":"Feature","geometry":{"type":"LineString","coordinates":[[-79.133109,32.987871],[-79.126369,32.987871],[-79.119629,32.987871],[-79.11289,32.987871],[-79.10615,32.987871],[-79.09941,32.987871],[-79.09941,32.994609],[-79.09941,33.001348],[-79.092671,33.001348],[-79.092671,33.008086],[-79.092671,33.014825],[-79.092671,33.021563],[-79.092671,33.028302],[-79.092671,33.03504],[-79.092671,33.041779],[-79.09941,33.048518],[-79.092671,33.048518],[-79.09941,33.055256],[-79.10615,33.061995],[-79.09941,33.061995],[-79.10615,33.068733]]},"properties":{"source_var":"chl","pixel_count":21,"strength_unit":"log_chl_gradient","strength_median":1.7425,"strength_max":2.2017}},{"type":"Feature","geometry":{"type":"LineString","coordinates":[[-77.906487,33.809973],[-77.913227,33.816712],[-77.906487,33.816712],[-77.919966,33.82345],[-77.913227,33.82345],[-77.926706,33.830189],[-77.919966,33.830189],[-77.940185,33.836927],[-77.933446,33.836927],[-77.926706,33.836927],[-77.933446,33.843666],[-77.933446,33.850404],[-77.940185,33.857143],[-77.933446,33.857143],[-77.940185,33.863881],[-77.940185,33.87062],[-77.940185,33.877358],[-77.940185,33.884097],[-77.940185,33.890836],[-77.940185,33.897574],[-77.940185,33.904313]]},"properties":{"source_var":"chl","pixel_count":21,"strength_unit":"log_chl_gradient","strength_median":2.0903,"strength_max":2.9388}},{"type":"Feature","geometry":{"type":"LineString","coordinates":[[-78.021061,33.843666],[-78.014322,33.843666],[-78.007582,33.843666],[-78.000842,33.843666],[-77.994103,33.843666],[-78.021061,33.850404],[-78.021061,33.857143],[-78.021061,33.863881],[-78.021061,33.87062],[-78.074979,33.877358],[-78.068239,33.877358],[-78.0615,33.877358],[-78.05476,33.877358],[-78.04802,33.877358],[-78.041281,33.877358],[-78.034541,33.877358],[-78.027801,33.877358],[-78.021061,33.877358],[-78.014322,33.877358],[-78.014322,33.884097],[-78.014322,33.890836]]},"properties":{"source_var":"chl","pixel_count":21,"strength_unit":"log_chl_gradient","strength_median":1.4042,"strength_max":3.0264}},{"type":"Feature","geometry":{"type":"LineString","coordinates":[[-76.497894,34.510782],[-76.491154,34.510782],[-76.484414,34.510782],[-76.504634,34.51752],[-76.497894,34.51752],[-76.504634,34.524259],[-76.511373,34.530997],[-76.504634,34.530997],[-76.497894,34.530997],[-76.511373,34.537736],[-76.497894,34.537736],[-76.511373,34.544474],[-76.504634,34.544474],[-76.497894,34.544474],[-76.504634,34.551213],[-76.518113,34.557951],[-76.511373,34.557951],[-76.504634,34.557951],[-76.497894,34.557951],[-76.491154,34.557951],[-76.518113,34.56469]]},"properties":{"source_var":"chl","pixel_count":21,"strength_unit":"log_chl_gradient","strength_median":1.6642,"strength_max":2.3479}},{"type":"Feature","geometry":{"type":"LineString","coordinates":[[-75.716091,35.184636],[-75.709351,35.184636],[-75.709351,35.191375],[-75.709351,35.198113],[-75.709351,35.204852],[-75.709351,35.21159],[-75.709351,35.218329],[-75.709351,35.225067],[-75.74305,35.231806],[-75.73631,35.231806],[-75.72957,35.231806],[-75.722831,35.231806],[-75.709351,35.231806],[-75.722831,35.238544],[-75.716091,35.238544],[-75.709351,35.238544],[-75.722831,35.245283],[-75.709351,35.245283],[-75.716091,35.252022],[-75.709351,35.252022],[-75.702612,35.252022]]},"properties":{"source_var":"chl","pixel_count":21,"strength_unit":"log_chl_gradient","strength_median":2.4241,"strength_max":5.881}}]}