{"type":"FeatureCollection","variable":"chl_front_trial","source_variable":"chl","source_frame":"data/usec_south/chl/usec_south_2026139.1748_chl_VJ1.json","generated_at":"2026-05-19T19:52:07.084973Z","bbox":[-81.0,31.0,-73.0,36.0],"ny":742,"nx":1187,"algorithm":{"name":"boa_local_histogram_log_chl_v0","window_px":41,"stride_px":6,"transform":"log_chl","min_class_delta":0.30010459245033816,"min_cohesion":0.45},"features":[{"type":"Feature","geometry":{"type":"LineString","coordinates":[[-80.190556,31.479082],[-80.183811,31.479082],[-80.190556,31.48583],[-80.183811,31.48583],[-80.190556,31.492578],[-80.183811,31.492578],[-80.177066,31.492578],[-80.17032,31.492578],[-80.190556,31.499325],[-80.183811,31.499325],[-80.177066,31.499325],[-80.17032,31.499325],[-80.183811,31.506073],[-80.177066,31.506073],[-80.17032,31.506073],[-80.183811,31.512821],[-80.177066,31.512821],[-80.183811,31.519568],[-80.177066,31.519568],[-80.17032,31.519568],[-80.163575,31.519568],[-80.15683,31.519568],[-80.177066,31.526316],[-80.17032,31.526316],[-80.163575,31.526316],[-80.15683,31.526316],[-80.150084,31.526316],[-80.17032,31.533063],[-80.163575,31.533063],[-80.15683,31.533063],[-80.150084,31.533063],[-80.17032,31.539811],[-80.163575,31.539811],[-80.15683,31.539811],[-80.150084,31.539811],[-80.143339,31.539811],[-80.136594,31.539811],[-80.129848,31.539811],[-80.17032,31.546559],[-80.163575,31.546559],[-80.15683,31.546559],[-80.150084,31.546559],[-80.143339,31.546559],[-80.136594,31.546559],[-80.129848,31.546559],[-80.123103,31.546559],[-80.150084,31.553306],[-80.143339,31.553306],[-80.136594,31.553306],[-80.129848,31.553306],[-80.123103,31.553306],[-80.116358,31.553306],[-80.190556,31.560054],[-80.183811,31.560054],[-80.177066,31.560054],[-80.143339,31.560054],[-80.136594,31.560054],[-80.129848,31.560054],[-80.123103,31.560054],[-80.116358,31.560054],[-80.190556,31.566802],[-80.183811,31.566802],[-80.177066,31.566802],[-80.17032,31.566802],[-80.150084,31.566802],[-80.143339,31.566802],[-80.136594,31.566802],[-80.129848,31.566802],[-80.123103,31.566802],[-80.116358,31.566802],[-80.177066,31.573549],[-80.17032,31.573549],[-80.163575,31.573549],[-80.15683,31.573549],[-80.150084,31.573549],[-80.143339,31.573549],[-80.136594,31.573549],[-80.129848,31.573549],[-80.123103,31.573549],[-80.197302,31.580297],[-80.190556,31.580297],[-80.17032,31.580297],[-80.163575,31.580297],[-80.15683,31.580297],[-80.150084,31.580297],[-80.143339,31.580297],[-80.136594,31.580297],[-80.129848,31.580297],[-80.123103,31.580297],[-80.116358,31.580297],[-80.096121,31.580297],[-80.089376,31.580297],[-80.197302,31.587045],[-80.190556,31.587045],[-80.183811,31.587045],[-80.177066,31.587045],[-80.17032,31.587045],[-80.163575,31.587045],[-80.15683,31.587045],[-80.150084,31.587045],[-80.143339,31.587045],[-80.136594,31.587045],[-80.129848,31.587045],[-80.123103,31.587045],[-80.116358,31.587045],[-80.109612,31.587045],[-80.096121,31.587045],[-80.089376,31.587045],[-80.082631,31.587045],[-80.183811,31.593792],[-80.177066,31.593792],[-80.17032,31.593792],[-80.150084,31.593792],[-80.143339,31.593792],[-80.136594,31.593792],[-80.129848,31.593792],[-80.123103,31.593792],[-80.116358,31.593792],[-80.109612,31.593792],[-80.102867,31.593792],[-80.096121,31.593792],[-80.089376,31.593792],[-80.082631,31.593792],[-80.143339,31.60054],[-80.136594,31.60054],[-80.129848,31.60054],[-80.123103,31.60054],[-80.116358,31.60054],[-80.109612,31.60054],[-80.102867,31.60054],[-80.136594,31.607287],[-80.129848,31.607287],[-80.123103,31.607287],[-80.116358,31.607287],[-80.109612,31.607287],[-80.102867,31.607287],[-80.096121,31.607287],[-80.129848,31.614035],[-80.123103,31.614035],[-80.116358,31.614035],[-80.102867,31.614035],[-80.096121,31.614035],[-80.129848,31.620783],[-80.123103,31.620783],[-80.102867,31.620783],[-80.096121,31.620783],[-80.129848,31.62753],[-80.123103,31.62753],[-80.116358,31.62753],[-80.109612,31.62753],[-80.102867,31.62753],[-80.096121,31.62753],[-80.089376,31.62753],[-80.082631,31.62753],[-80.075885,31.62753],[-80.06914,31.62753],[-80.129848,31.634278],[-80.123103,31.634278],[-80.116358,31.634278],[-80.109612,31.634278],[-80.102867,31.634278],[-80.096121,31.634278],[-80.089376,31.634278],[-80.082631,31.634278],[-80.075885,31.634278],[-80.06914,31.634278],[-80.062395,31.634278],[-80.055649,31.634278],[-80.048904,31.634278],[-80.042159,31.634278],[-80.123103,31.641026],[-80.116358,31.641026],[-80.109612,31.641026],[-80.102867,31.641026],[-80.096121,31.641026],[-80.089376,31.641026],[-80.082631,31.641026],[-80.06914,31.641026],[-80.062395,31.641026],[-80.055649,31.641026],[-80.048904,31.641026],[-80.042159,31.641026],[-80.129848,31.647773],[-80.123103,31.647773],[-80.116358,31.647773],[-80.102867,31.647773],[-80.096121,31.647773],[-80.089376,31.647773],[-80.075885,31.647773],[-80.06914,31.647773],[-80.062395,31.647773],[-80.042159,31.647773],[-80.035413,31.647773],[-80.129848,31.654521],[-80.123103,31.654521],[-80.116358,31.654521],[-80.109612,31.654521],[-80.102867,31.654521],[-80.096121,31.654521],[-80.089376,31.654521],[-80.082631,31.654521],[-80.075885,31.654521],[-80.06914,31.654521],[-80.062395,31.654521],[-80.042159,31.654521],[-80.035413,31.654521],[-80.116358,31.661269],[-80.109612,31.661269],[-80.102867,31.661269],[-80.096121,31.661269],[-80.089376,31.661269],[-80.082631,31.661269],[-80.075885,31.661269],[-80.06914,31.661269],[-80.062395,31.661269],[-80.055649,31.661269],[-80.048904,31.661269],[-80.042159,31.661269],[-80.035413,31.661269],[-80.116358,31.668016],[-80.109612,31.668016],[-80.102867,31.668016],[-80.096121,31.668016],[-80.089376,31.668016],[-80.082631,31.668016],[-80.075885,31.668016],[-80.06914,31.668016],[-80.062395,31.668016],[-80.055649,31.668016],[-80.048904,31.668016],[-80.042159,31.668016],[-80.035413,31.668016],[-80.028668,31.668016],[-80.116358,31.674764],[-80.109612,31.674764],[-80.102867,31.674764],[-80.096121,31.674764],[-80.089376,31.674764],[-80.082631,31.674764],[-80.075885,31.674764],[-80.06914,31.674764],[-80.062395,31.674764],[-80.055649,31.674764],[-80.048904,31.674764],[-80.042159,31.674764],[-80.035413,31.674764],[-80.028668,31.674764],[-80.116358,31.681511],[-80.109612,31.681511],[-80.102867,31.681511],[-80.089376,31.681511],[-80.082631,31.681511],[-80.075885,31.681511],[-80.06914,31.681511],[-80.062395,31.681511],[-80.055649,31.681511],[-80.048904,31.681511],[-80.042159,31.681511],[-80.035413,31.681511],[-80.028668,31.681511],[-80.021922,31.681511],[-80.015177,31.681511],[-80.109612,31.688259],[-80.102867,31.688259],[-80.089376,31.688259],[-80.082631,31.688259],[-80.06914,31.688259],[-80.062395,31.688259],[-80.055649,31.688259],[-80.048904,31.688259],[-80.021922,31.688259],[-80.015177,31.688259],[-80.008432,31.688259],[-80.109612,31.695007],[-80.102867,31.695007],[-80.06914,31.695007],[-80.062395,31.695007],[-80.055649,31.695007],[-80.048904,31.695007],[-80.015177,31.695007],[-80.008432,31.695007],[-80.109612,31.701754],[-80.102867,31.701754],[-80.089376,31.701754],[-80.082631,31.701754],[-80.075885,31.701754],[-80.06914,31.701754],[-80.062395,31.701754],[-80.055649,31.701754],[-80.035413,31.701754],[-80.028668,31.701754],[-80.021922,31.701754],[-80.015177,31.701754],[-80.089376,31.708502],[-80.082631,31.708502],[-80.075885,31.708502],[-80.06914,31.708502],[-80.062395,31.708502],[-80.055649,31.708502],[-80.048904,31.708502],[-80.035413,31.708502],[-80.028668,31.708502],[-80.021922,31.708502],[-80.015177,31.708502],[-80.008432,31.708502],[-80.096121,31.71525],[-80.089376,31.71525],[-80.082631,31.71525],[-80.075885,31.71525],[-80.06914,31.71525],[-80.055649,31.71525],[-80.048904,31.71525],[-80.042159,31.71525],[-80.035413,31.71525],[-80.021922,31.71525],[-80.015177,31.71525],[-80.008432,31.71525],[-80.001686,31.71525],[-79.994941,31.71525],[-79.988196,31.71525],[-79.98145,31.71525],[-79.974705,31.71525],[-79.96796,31.71525],[-80.096121,31.721997],[-80.089376,31.721997],[-80.082631,31.721997],[-80.075885,31.721997],[-80.06914,31.721997],[-80.062395,31.721997],[-80.055649,31.721997],[-80.048904,31.721997],[-80.042159,31.721997],[-80.035413,31.721997],[-80.028668,31.721997],[-80.008432,31.721997],[-80.001686,31.721997],[-79.994941,31.721997],[-79.988196,31.721997],[-79.98145,31.721997],[-79.974705,31.721997],[-79.96796,31.721997],[-80.102867,31.728745],[-80.096121,31.728745],[-80.089376,31.728745],[-80.082631,31.728745],[-80.06914,31.728745],[-80.062395,31.728745],[-80.055649,31.728745],[-80.042159,31.728745],[-80.035413,31.728745],[-80.028668,31.728745],[-79.994941,31.728745],[-79.988196,31.728745],[-79.98145,31.728745],[-79.974705,31.728745],[-80.109612,31.735493],[-80.102867,31.735493],[-80.096121,31.735493],[-80.089376,31.735493],[-80.082631,31.735493],[-80.062395,31.735493],[-80.055649,31.735493],[-80.048904,31.735493],[-80.042159,31.735493],[-80.035413,31.735493],[-80.028668,31.735493],[-80.015177,31.735493],[-80.008432,31.735493],[-80.001686,31.735493],[-79.988196,31.735493],[-79.98145,31.735493],[-79.974705,31.735493],[-80.109612,31.74224],[-80.102867,31.74224],[-80.096121,31.74224],[-80.082631,31.74224],[-80.075885,31.74224],[-80.055649,31.74224],[-80.048904,31.74224],[-80.042159,31.74224],[-80.028668,31.74224],[-80.021922,31.74224],[-80.015177,31.74224],[-80.008432,31.74224],[-80.001686,31.74224],[-80.082631,31.748988],[-80.075885,31.748988],[-80.055649,31.748988],[-80.048904,31.748988],[-80.042159,31.748988],[-80.035413,31.748988],[-80.028668,31.748988],[-80.021922,31.748988],[-80.015177,31.748988],[-80.008432,31.748988],[-79.954469,31.748988],[-79.947723,31.748988],[-79.940978,31.748988],[-80.082631,31.755735],[-80.075885,31.755735],[-80.055649,31.755735],[-80.048904,31.755735],[-80.042159,31.755735],[-80.035413,31.755735],[-80.028668,31.755735],[-80.021922,31.755735],[-80.015177,31.755735],[-80.008432,31.755735],[-80.001686,31.755735],[-79.994941,31.755735],[-79.988196,31.755735],[-79.98145,31.755735],[-79.974705,31.755735],[-79.96796,31.755735],[-79.961214,31.755735],[-79.954469,31.755735],[-79.947723,31.755735],[-79.940978,31.755735],[-79.934233,31.755735],[-80.102867,31.762483],[-80.096121,31.762483],[-80.089376,31.762483],[-80.06914,31.762483],[-80.062395,31.762483],[-80.055649,31.762483],[-80.048904,31.762483],[-80.042159,31.762483],[-80.021922,31.762483],[-80.015177,31.762483],[-80.008432,31.762483],[-80.001686,31.762483],[-79.994941,31.762483],[-79.988196,31.762483],[-79.98145,31.762483],[-79.974705,31.762483],[-79.96796,31.762483],[-79.961214,31.762483],[-79.947723,31.762483],[-79.940978,31.762483],[-79.934233,31.762483],[-80.102867,31.769231],[-80.096121,31.769231],[-80.089376,31.769231],[-80.082631,31.769231],[-80.075885,31.769231],[-80.06914,31.769231],[-80.062395,31.769231],[-80.048904,31.769231],[-80.042159,31.769231],[-80.035413,31.769231],[-80.028668,31.769231],[-80.021922,31.769231],[-80.008432,31.769231],[-80.001686,31.769231],[-79.994941,31.769231],[-79.988196,31.769231],[-79.98145,31.769231],[-79.974705,31.769231],[-80.089376,31.775978],[-80.082631,31.775978],[-80.075885,31.775978],[-80.06914,31.775978],[-80.062395,31.775978],[-80.055649,31.775978],[-80.048904,31.775978],[-80.042159,31.775978],[-80.035413,31.775978],[-80.028668,31.775978],[-80.021922,31.775978],[-80.015177,31.775978],[-79.994941,31.775978],[-79.988196,31.775978],[-79.98145,31.775978],[-79.961214,31.775978],[-79.954469,31.775978],[-80.109612,31.782726],[-80.102867,31.782726],[-80.096121,31.782726],[-80.089376,31.782726],[-80.06914,31.782726],[-80.062395,31.782726],[-80.055649,31.782726],[-80.048904,31.782726],[-80.042159,31.782726],[-80.035413,31.782726],[-80.028668,31.782726],[-80.021922,31.782726],[-80.015177,31.782726],[-80.008432,31.782726],[-80.001686,31.782726],[-79.994941,31.782726],[-79.988196,31.782726],[-79.98145,31.782726],[-79.961214,31.782726],[-79.954469,31.782726],[-80.109612,31.789474],[-80.102867,31.789474],[-80.096121,31.789474],[-80.089376,31.789474],[-80.075885,31.789474],[-80.06914,31.789474],[-80.055649,31.789474],[-80.048904,31.789474],[-80.042159,31.789474],[-80.035413,31.789474],[-80.015177,31.789474],[-80.008432,31.789474],[-80.001686,31.789474],[-79.988196,31.789474],[-79.98145,31.789474],[-79.961214,31.789474],[-79.954469,31.789474],[-79.947723,31.789474],[-79.940978,31.789474],[-79.934233,31.789474],[-80.109612,31.796221],[-80.102867,31.796221],[-80.082631,31.796221],[-80.075885,31.796221],[-80.06914,31.796221],[-80.062395,31.796221],[-80.055649,31.796221],[-80.048904,31.796221],[-80.042159,31.796221],[-80.035413,31.796221],[-80.021922,31.796221],[-80.015177,31.796221],[-80.008432,31.796221],[-80.001686,31.796221],[-79.994941,31.796221],[-79.961214,31.796221],[-79.954469,31.796221],[-79.947723,31.796221],[-79.940978,31.796221],[-79.934233,31.796221],[-79.927487,31.796221],[-79.920742,31.796221],[-80.109612,31.802969],[-80.102867,31.802969],[-80.096121,31.802969],[-80.082631,31.802969],[-80.075885,31.802969],[-80.06914,31.802969],[-80.062395,31.802969],[-80.055649,31.802969],[-80.048904,31.802969],[-80.042159,31.802969],[-80.035413,31.802969],[-80.021922,31.802969],[-80.015177,31.802969],[-80.008432,31.802969],[-80.001686,31.802969],[-79.994941,31.802969],[-79.961214,31.802969],[-79.954469,31.802969],[-79.947723,31.802969],[-79.940978,31.802969],[-79.934233,31.802969],[-79.927487,31.802969],[-79.920742,31.802969],[-80.102867,31.809717],[-80.096121,31.809717],[-80.06914,31.809717],[-80.062395,31.809717],[-80.042159,31.809717],[-80.035413,31.809717],[-80.028668,31.809717],[-80.021922,31.809717],[-80.015177,31.809717],[-80.008432,31.809717],[-80.001686,31.809717],[-79.994941,31.809717],[-79.988196,31.809717],[-79.98145,31.809717],[-79.940978,31.809717],[-79.934233,31.809717],[-79.920742,31.809717],[-79.913997,31.809717],[-79.907251,31.809717],[-79.900506,31.809717],[-80.062395,31.816464],[-80.055649,31.816464],[-80.048904,31.816464],[-80.042159,31.816464],[-80.035413,31.816464],[-80.028668,31.816464],[-80.021922,31.816464],[-80.015177,31.816464],[-80.008432,31.816464],[-80.001686,31.816464],[-79.994941,31.816464],[-79.988196,31.816464],[-79.98145,31.816464],[-79.974705,31.816464],[-79.96796,31.816464],[-79.961214,31.816464],[-79.954469,31.816464],[-79.947723,31.816464],[-79.940978,31.816464],[-79.920742,31.816464],[-79.913997,31.816464],[-79.907251,31.816464],[-79.900506,31.816464],[-80.062395,31.823212],[-80.055649,31.823212],[-80.048904,31.823212],[-80.042159,31.823212],[-80.028668,31.823212],[-80.021922,31.823212],[-80.015177,31.823212],[-80.008432,31.823212],[-80.001686,31.823212],[-79.988196,31.823212],[-79.98145,31.823212],[-79.974705,31.823212],[-79.96796,31.823212],[-79.961214,31.823212],[-79.954469,31.823212],[-79.947723,31.823212],[-79.940978,31.823212],[-79.934233,31.823212],[-80.062395,31.82996],[-80.055649,31.82996],[-80.048904,31.82996],[-80.042159,31.82996],[-80.035413,31.82996],[-80.021922,31.82996],[-80.015177,31.82996],[-79.961214,31.82996],[-79.954469,31.82996],[-79.947723,31.82996],[-79.940978,31.82996],[-79.934233,31.82996],[-80.042159,31.836707],[-80.035413,31.836707],[-80.028668,31.836707],[-80.021922,31.836707],[-80.015177,31.836707],[-80.008432,31.836707],[-80.001686,31.836707],[-79.988196,31.836707],[-79.98145,31.836707],[-79.961214,31.836707],[-79.954469,31.836707],[-79.947723,31.836707],[-79.940978,31.836707],[-79.934233,31.836707],[-80.048904,31.843455],[-80.042159,31.843455],[-80.035413,31.843455],[-80.028668,31.843455],[-80.021922,31.843455],[-80.015177,31.843455],[-80.008432,31.843455],[-80.001686,31.843455],[-79.994941,31.843455],[-79.988196,31.843455],[-79.98145,31.843455],[-79.961214,31.843455],[-79.954469,31.843455],[-79.947723,31.843455],[-79.940978,31.843455],[-79.934233,31.843455],[-79.927487,31.843455],[-79.920742,31.843455],[-79.900506,31.843455],[-79.893761,31.843455],[-80.048904,31.850202],[-80.042159,31.850202],[-80.035413,31.850202],[-80.028668,31.850202],[-80.021922,31.850202],[-80.015177,31.850202],[-80.008432,31.850202],[-80.001686,31.850202],[-79.994941,31.850202],[-79.988196,31.850202],[-79.98145,31.850202],[-79.961214,31.850202],[-79.954469,31.850202],[-79.947723,31.850202],[-79.940978,31.850202],[-79.934233,31.850202],[-79.927487,31.850202],[-79.920742,31.850202],[-79.913997,31.850202],[-79.907251,31.850202],[-79.900506,31.850202],[-79.893761,31.850202],[-80.028668,31.85695],[-80.021922,31.85695],[-80.015177,31.85695],[-80.008432,31.85695],[-80.001686,31.85695],[-79.994941,31.85695],[-79.988196,31.85695],[-79.98145,31.85695],[-79.961214,31.85695],[-79.954469,31.85695],[-79.947723,31.85695],[-79.940978,31.85695],[-79.927487,31.85695],[-79.920742,31.85695],[-79.913997,31.85695],[-79.907251,31.85695],[-79.900506,31.85695],[-79.893761,31.85695],[-79.887015,31.85695],[-79.866779,31.85695],[-79.860034,31.85695],[-79.994941,31.863698],[-79.988196,31.863698],[-79.961214,31.863698],[-79.954469,31.863698],[-79.947723,31.863698],[-79.940978,31.863698],[-79.934233,31.863698],[-79.927487,31.863698],[-79.907251,31.863698],[-79.900506,31.863698],[-79.893761,31.863698],[-79.887015,31.863698],[-79.88027,31.863698],[-79.873524,31.863698],[-79.866779,31.863698],[-79.860034,31.863698],[-79.994941,31.870445],[-79.988196,31.870445],[-79.98145,31.870445],[-79.974705,31.870445],[-79.961214,31.870445],[-79.954469,31.870445],[-79.947723,31.870445],[-79.940978,31.870445],[-79.934233,31.870445],[-79.927487,31.870445],[-79.900506,31.870445],[-79.893761,31.870445],[-79.887015,31.870445],[-79.88027,31.870445],[-79.873524,31.870445],[-79.860034,31.870445],[-79.853288,31.870445],[-80.008432,31.877193],[-80.001686,31.877193],[-79.994941,31.877193],[-79.988196,31.877193],[-79.98145,31.877193],[-79.974705,31.877193],[-79.96796,31.877193],[-79.961214,31.877193],[-79.954469,31.877193],[-79.947723,31.877193],[-79.940978,31.877193],[-79.934233,31.877193],[-79.927487,31.877193],[-79.920742,31.877193],[-79.913997,31.877193],[-79.900506,31.877193],[-79.893761,31.877193],[-79.887015,31.877193],[-79.88027,31.877193],[-79.873524,31.877193],[-79.860034,31.877193],[-79.853288,31.877193],[-79.846543,31.877193],[-79.839798,31.877193],[-80.008432,31.883941],[-80.001686,31.883941],[-79.994941,31.883941],[-79.988196,31.883941],[-79.98145,31.883941],[-79.974705,31.883941],[-79.96796,31.883941],[-79.961214,31.883941],[-79.947723,31.883941],[-79.940978,31.883941],[-79.934233,31.883941],[-79.927487,31.883941],[-79.920742,31.883941],[-79.913997,31.883941],[-79.907251,31.883941],[-79.900506,31.883941],[-79.853288,31.883941],[-79.846543,31.883941],[-79.839798,31.883941],[-79.833052,31.883941],[-80.008432,31.890688],[-80.001686,31.890688],[-79.994941,31.890688],[-79.988196,31.890688],[-79.974705,31.890688],[-79.96796,31.890688],[-79.961214,31.890688],[-79.954469,31.890688],[-79.947723,31.890688],[-79.940978,31.890688],[-79.934233,31.890688],[-79.913997,31.890688],[-79.907251,31.890688],[-79.900506,31.890688],[-79.893761,31.890688],[-79.887015,31.890688],[-79.88027,31.890688],[-79.873524,31.890688],[-79.866779,31.890688],[-79.860034,31.890688],[-79.853288,31.890688],[-79.839798,31.890688],[-79.833052,31.890688],[-79.826307,31.890688],[-79.819562,31.890688],[-80.008432,31.897436],[-80.001686,31.897436],[-79.994941,31.897436],[-79.98145,31.897436],[-79.974705,31.897436],[-79.96796,31.897436],[-79.961214,31.897436],[-79.954469,31.897436],[-79.947723,31.897436],[-79.940978,31.897436],[-79.934233,31.897436],[-79.907251,31.897436],[-79.900506,31.897436],[-79.893761,31.897436],[-79.887015,31.897436],[-79.88027,31.897436],[-79.873524,31.897436],[-79.866779,31.897436],[-79.860034,31.897436],[-79.853288,31.897436],[-79.839798,31.897436],[-79.833052,31.897436],[-79.826307,31.897436],[-79.819562,31.897436],[-80.008432,31.904184],[-80.001686,31.904184],[-79.994941,31.904184],[-79.988196,31.904184],[-79.98145,31.904184],[-79.974705,31.904184],[-79.96796,31.904184],[-79.961214,31.904184],[-79.940978,31.904184],[-79.934233,31.904184],[-79.927487,31.904184],[-79.920742,31.904184],[-79.907251,31.904184],[-79.900506,31.904184],[-79.887015,31.904184],[-79.88027,31.904184],[-79.873524,31.904184],[-79.860034,31.904184],[-79.853288,31.904184],[-79.846543,31.904184],[-79.839798,31.904184],[-79.833052,31.904184],[-79.826307,31.904184],[-79.819562,31.904184],[-79.988196,31.910931],[-79.98145,31.910931],[-79.961214,31.910931],[-79.954469,31.910931],[-79.934233,31.910931],[-79.927487,31.910931],[-79.920742,31.910931],[-79.907251,31.910931],[-79.900506,31.910931],[-79.893761,31.910931],[-79.887015,31.910931],[-79.88027,31.910931],[-79.873524,31.910931],[-79.866779,31.910931],[-79.860034,31.910931],[-79.853288,31.910931],[-79.846543,31.910931],[-79.839798,31.910931],[-79.833052,31.910931],[-79.826307,31.910931],[-79.819562,31.910931],[-79.812816,31.910931],[-79.961214,31.917679],[-79.954469,31.917679],[-79.947723,31.917679],[-79.934233,31.917679],[-79.927487,31.917679],[-79.913997,31.917679],[-79.907251,31.917679],[-79.900506,31.917679],[-79.893761,31.917679],[-79.887015,31.917679],[-79.873524,31.917679],[-79.866779,31.917679],[-79.860034,31.917679],[-79.839798,31.917679],[-79.833052,31.917679],[-79.826307,31.917679],[-79.819562,31.917679],[-79.812816,31.917679],[-79.954469,31.924426],[-79.947723,31.924426],[-79.934233,31.924426],[-79.927487,31.924426],[-79.920742,31.924426],[-79.913997,31.924426],[-79.907251,31.924426],[-79.900506,31.924426],[-79.893761,31.924426],[-79.887015,31.924426],[-79.88027,31.924426],[-79.873524,31.924426],[-79.866779,31.924426],[-79.860034,31.924426],[-79.839798,31.924426],[-79.833052,31.924426],[-79.826307,31.924426],[-79.819562,31.924426],[-79.812816,31.924426],[-79.954469,31.931174],[-79.947723,31.931174],[-79.940978,31.931174],[-79.934233,31.931174],[-79.927487,31.931174],[-79.920742,31.931174],[-79.913997,31.931174],[-79.907251,31.931174],[-79.900506,31.931174],[-79.893761,31.931174],[-79.887015,31.931174],[-79.88027,31.931174],[-79.873524,31.931174],[-79.866779,31.931174],[-79.860034,31.931174],[-79.853288,31.931174],[-79.846543,31.931174],[-79.839798,31.931174],[-79.819562,31.931174],[-79.812816,31.931174],[-79.806071,31.931174],[-79.799325,31.931174],[-79.79258,31.931174],[-79.785835,31.931174],[-79.947723,31.937922],[-79.940978,31.937922],[-79.934233,31.937922],[-79.927487,31.937922],[-79.920742,31.937922],[-79.913997,31.937922],[-79.907251,31.937922],[-79.900506,31.937922],[-79.893761,31.937922],[-79.887015,31.937922],[-79.88027,31.937922],[-79.873524,31.937922],[-79.866779,31.937922],[-79.860034,31.937922],[-79.853288,31.937922],[-79.846543,31.937922],[-79.839798,31.937922],[-79.826307,31.937922],[-79.819562,31.937922],[-79.812816,31.937922],[-79.806071,31.937922],[-79.799325,31.937922],[-79.79258,31.937922],[-79.785835,31.937922],[-79.779089,31.937922],[-79.934233,31.944669],[-79.927487,31.944669],[-79.920742,31.944669],[-79.913997,31.944669],[-79.907251,31.944669],[-79.900506,31.944669],[-79.893761,31.944669],[-79.887015,31.944669],[-79.88027,31.944669],[-79.873524,31.944669],[-79.866779,31.944669],[-79.860034,31.944669],[-79.853288,31.944669],[-79.846543,31.944669],[-79.839798,31.944669],[-79.826307,31.944669],[-79.819562,31.944669],[-79.812816,31.944669],[-79.806071,31.944669],[-79.799325,31.944669],[-79.79258,31.944669],[-79.785835,31.944669],[-79.779089,31.944669],[-79.772344,31.944669],[-79.765599,31.944669],[-79.758853,31.944669],[-79.752108,31.944669],[-79.745363,31.944669],[-79.907251,31.951417],[-79.900506,31.951417],[-79.893761,31.951417],[-79.887015,31.951417],[-79.88027,31.951417],[-79.873524,31.951417],[-79.866779,31.951417],[-79.860034,31.951417],[-79.812816,31.951417],[-79.806071,31.951417],[-79.799325,31.951417],[-79.79258,31.951417],[-79.785835,31.951417],[-79.779089,31.951417],[-79.772344,31.951417],[-79.765599,31.951417],[-79.758853,31.951417],[-79.752108,31.951417],[-79.745363,31.951417],[-79.738617,31.951417],[-79.731872,31.951417],[-79.725126,31.951417],[-79.893761,31.958165],[-79.887015,31.958165],[-79.88027,31.958165],[-79.873524,31.958165],[-79.866779,31.958165],[-79.860034,31.958165],[-79.79258,31.958165],[-79.785835,31.958165],[-79.779089,31.958165],[-79.772344,31.958165],[-79.765599,31.958165],[-79.758853,31.958165],[-79.752108,31.958165],[-79.745363,31.958165],[-79.738617,31.958165],[-79.731872,31.958165],[-79.725126,31.958165],[-79.887015,31.964912],[-79.88027,31.964912],[-79.873524,31.964912],[-79.866779,31.964912],[-79.860034,31.964912],[-79.853288,31.964912],[-79.846543,31.964912],[-79.839798,31.964912],[-79.833052,31.964912],[-79.826307,31.964912],[-79.819562,31.964912],[-79.812816,31.964912],[-79.806071,31.964912],[-79.799325,31.964912],[-79.79258,31.964912],[-79.785835,31.964912],[-79.779089,31.964912],[-79.772344,31.964912],[-79.765599,31.964912],[-79.758853,31.964912],[-79.752108,31.964912],[-79.711636,31.964912],[-79.70489,31.964912],[-79.698145,31.964912],[-79.873524,31.97166],[-79.866779,31.97166],[-79.860034,31.97166],[-79.853288,31.97166],[-79.846543,31.97166],[-79.839798,31.97166],[-79.833052,31.97166],[-79.826307,31.97166],[-79.819562,31.97166],[-79.812816,31.97166],[-79.806071,31.97166],[-79.799325,31.97166],[-79.79258,31.97166],[-79.772344,31.97166],[-79.765599,31.97166],[-79.758853,31.97166],[-79.752108,31.97166],[-79.745363,31.97166],[-79.738617,31.97166],[-79.731872,31.97166],[-79.725126,31.97166],[-79.718381,31.97166],[-79.711636,31.97166],[-79.70489,31.97166],[-79.698145,31.97166],[-79.6914,31.97166],[-79.684654,31.97166],[-79.873524,31.978408],[-79.866779,31.978408],[-79.853288,31.978408],[-79.846543,31.978408],[-79.839798,31.978408],[-79.833052,31.978408],[-79.826307,31.978408],[-79.819562,31.978408],[-79.812816,31.978408],[-79.806071,31.978408],[-79.799325,31.978408],[-79.79258,31.978408],[-79.785835,31.978408],[-79.779089,31.978408],[-79.772344,31.978408],[-79.765599,31.978408],[-79.758853,31.978408],[-79.752108,31.978408],[-79.745363,31.978408],[-79.738617,31.978408],[-79.731872,31.978408],[-79.725126,31.978408],[-79.718381,31.978408],[-79.711636,31.978408],[-79.70489,31.978408],[-79.698145,31.978408],[-79.6914,31.978408],[-79.684654,31.978408],[-79.860034,31.985155],[-79.853288,31.985155],[-79.839798,31.985155],[-79.833052,31.985155],[-79.826307,31.985155],[-79.819562,31.985155],[-79.806071,31.985155],[-79.799325,31.985155],[-79.79258,31.985155],[-79.785835,31.985155],[-79.779089,31.985155],[-79.772344,31.985155],[-79.765599,31.985155],[-79.758853,31.985155],[-79.752108,31.985155],[-79.745363,31.985155],[-79.725126,31.985155],[-79.718381,31.985155],[-79.711636,31.985155],[-79.6914,31.985155],[-79.684654,31.985155],[-79.671164,31.985155],[-79.664418,31.985155],[-79.657673,31.985155],[-79.650927,31.985155],[-79.860034,31.991903],[-79.853288,31.991903],[-79.806071,31.991903],[-79.799325,31.991903],[-79.79258,31.991903],[-79.785835,31.991903],[-79.779089,31.991903],[-79.772344,31.991903],[-79.765599,31.991903],[-79.758853,31.991903],[-79.752108,31.991903],[-79.745363,31.991903],[-79.738617,31.991903],[-79.731872,31.991903],[-79.725126,31.991903],[-79.718381,31.991903],[-79.711636,31.991903],[-79.6914,31.991903],[-79.684654,31.991903],[-79.677909,31.991903],[-79.671164,31.991903],[-79.664418,31.991903],[-79.657673,31.991903],[-79.650927,31.991903],[-79.806071,31.99865],[-79.799325,31.99865],[-79.79258,31.99865],[-79.785835,31.99865],[-79.779089,31.99865],[-79.772344,31.99865],[-79.765599,31.99865],[-79.758853,31.99865],[-79.745363,31.99865],[-79.738617,31.99865],[-79.731872,31.99865],[-79.725126,31.99865],[-79.718381,31.99865],[-79.711636,31.99865],[-79.70489,31.99865],[-79.698145,31.99865],[-79.6914,31.99865],[-79.684654,31.99865],[-79.677909,31.99865],[-79.671164,31.99865],[-79.799325,32.005398],[-79.79258,32.005398],[-79.785835,32.005398],[-79.779089,32.005398],[-79.772344,32.005398],[-79.765599,32.005398],[-79.758853,32.005398],[-79.752108,32.005398],[-79.745363,32.005398],[-79.738617,32.005398],[-79.725126,32.005398],[-79.718381,32.005398],[-79.711636,32.005398],[-79.70489,32.005398],[-79.698145,32.005398],[-79.684654,32.005398],[-79.677909,32.005398],[-79.671164,32.005398],[-79.772344,32.012146],[-79.765599,32.012146],[-79.758853,32.012146],[-79.752108,32.012146],[-79.745363,32.012146],[-79.738617,32.012146],[-79.731872,32.012146],[-79.725126,32.012146],[-79.718381,32.012146],[-79.711636,32.012146],[-79.70489,32.012146],[-79.698145,32.012146],[-79.6914,32.012146],[-79.684654,32.012146],[-79.745363,32.018893],[-79.738617,32.018893],[-79.731872,32.018893],[-79.725126,32.018893],[-79.718381,32.018893],[-79.70489,32.018893],[-79.698145,32.018893],[-79.6914,32.018893],[-79.684654,32.018893],[-79.677909,32.018893],[-79.671164,32.018893],[-79.657673,32.018893],[-79.650927,32.018893],[-79.644182,32.018893],[-79.731872,32.025641],[-79.725126,32.025641],[-79.718381,32.025641],[-79.70489,32.025641],[-79.698145,32.025641],[-79.6914,32.025641],[-79.684654,32.025641],[-79.677909,32.025641],[-79.671164,32.025641],[-79.664418,32.025641],[-79.657673,32.025641],[-79.650927,32.025641],[-79.644182,32.025641],[-79.637437,32.025641],[-79.731872,32.032389],[-79.725126,32.032389],[-79.698145,32.032389],[-79.6914,32.032389],[-79.684654,32.032389],[-79.677909,32.032389],[-79.671164,32.032389],[-79.664418,32.032389],[-79.650927,32.032389],[-79.644182,32.032389],[-79.637437,32.032389],[-79.698145,32.039136],[-79.6914,32.039136],[-79.684654,32.039136],[-79.677909,32.039136],[-79.671164,32.039136],[-79.664418,32.039136],[-79.657673,32.039136],[-79.650927,32.039136],[-79.637437,32.039136],[-79.630691,32.039136],[-79.623946,32.039136],[-79.617201,32.039136],[-79.6914,32.045884],[-79.684654,32.045884],[-79.664418,32.045884],[-79.657673,32.045884],[-79.650927,32.045884],[-79.644182,32.045884],[-79.637437,32.045884],[-79.630691,32.045884],[-79.623946,32.045884],[-79.617201,32.045884],[-79.610455,32.045884],[-79.6914,32.052632],[-79.684654,32.052632],[-79.671164,32.052632],[-79.664418,32.052632],[-79.657673,32.052632],[-79.650927,32.052632],[-79.644182,32.052632],[-79.637437,32.052632],[-79.630691,32.052632],[-79.623946,32.052632],[-79.617201,32.052632],[-79.610455,32.052632],[-79.60371,32.052632],[-79.6914,32.059379],[-79.684654,32.059379],[-79.677909,32.059379],[-79.671164,32.059379],[-79.664418,32.059379],[-79.657673,32.059379],[-79.650927,32.059379],[-79.644182,32.059379],[-79.637437,32.059379],[-79.610455,32.059379],[-79.60371,32.059379],[-79.6914,32.066127],[-79.684654,32.066127],[-79.677909,32.066127],[-79.671164,32.066127],[-79.664418,32.066127],[-79.637437,32.066127],[-79.630691,32.066127],[-79.623946,32.066127],[-79.617201,32.066127],[-79.610455,32.066127],[-79.60371,32.066127],[-79.6914,32.072874],[-79.684654,32.072874],[-79.677909,32.072874],[-79.671164,32.072874],[-79.637437,32.072874],[-79.630691,32.072874],[-79.623946,32.072874],[-79.617201,32.072874],[-79.684654,32.079622],[-79.677909,32.079622],[-79.623946,32.079622],[-79.617201,32.079622]]},"properties":{"source_var":"chl","pixel_count":1324,"strength_unit":"fold","strength_median":2.4653,"strength_max":2.5662}},{"type":"Feature","geometry":{"type":"LineString","coordinates":[[-79.441821,31.931174],[-79.435076,31.931174],[-79.522766,31.937922],[-79.51602,31.937922],[-79.509275,31.937922],[-79.50253,31.937922],[-79.495784,31.937922],[-79.489039,31.937922],[-79.482293,31.937922],[-79.455312,31.937922],[-79.448567,31.937922],[-79.441821,31.937922],[-79.435076,31.937922],[-79.522766,31.944669],[-79.51602,31.944669],[-79.509275,31.944669],[-79.50253,31.944669],[-79.495784,31.944669],[-79.489039,31.944669],[-79.482293,31.944669],[-79.475548,31.944669],[-79.468803,31.944669],[-79.462057,31.944669],[-79.455312,31.944669],[-79.448567,31.944669],[-79.441821,31.944669],[-79.435076,31.944669],[-79.522766,31.951417],[-79.51602,31.951417],[-79.509275,31.951417],[-79.50253,31.951417],[-79.495784,31.951417],[-79.475548,31.951417],[-79.468803,31.951417],[-79.462057,31.951417],[-79.455312,31.951417],[-79.448567,31.951417],[-79.441821,31.951417],[-79.435076,31.951417],[-79.468803,31.958165],[-79.462057,31.958165]]},"properties":{"source_var":"chl","pixel_count":41,"strength_unit":"fold","strength_median":2.5032,"strength_max":2.5647}},{"type":"Feature","geometry":{"type":"LineString","coordinates":[[-80.473862,31.101215],[-80.467116,31.101215],[-80.480607,31.107962],[-80.473862,31.107962],[-80.467116,31.107962],[-80.460371,31.107962],[-80.480607,31.11471],[-80.473862,31.11471],[-80.467116,31.11471],[-80.460371,31.11471],[-80.453626,31.11471],[-80.44688,31.11471],[-80.480607,31.121457],[-80.473862,31.121457],[-80.453626,31.121457],[-80.44688,31.121457],[-80.460371,31.128205],[-80.453626,31.128205],[-80.460371,31.134953],[-80.453626,31.134953]]},"properties":{"source_var":"chl","pixel_count":20,"strength_unit":"fold","strength_median":1.9933,"strength_max":1.9933}},{"type":"Feature","geometry":{"type":"LineString","coordinates":[[-79.482293,31.263158],[-79.475548,31.263158],[-79.468803,31.263158],[-79.482293,31.269906],[-79.475548,31.269906],[-79.468803,31.269906],[-79.482293,31.276653],[-79.475548,31.276653],[-79.468803,31.276653],[-79.482293,31.283401],[-79.475548,31.283401],[-79.482293,31.290148],[-79.475548,31.290148],[-79.468803,31.290148],[-79.475548,31.296896],[-79.468803,31.296896],[-79.482293,31.303644],[-79.475548,31.303644],[-79.482293,31.310391],[-79.475548,31.310391]]},"properties":{"source_var":"chl","pixel_count":20,"strength_unit":"fold","strength_median":1.484,"strength_max":1.5361}},{"type":"Feature","geometry":{"type":"LineString","coordinates":[[-80.595278,31.134953],[-80.588533,31.134953],[-80.581788,31.134953],[-80.575042,31.134953],[-80.608769,31.1417],[-80.602024,31.1417],[-80.595278,31.1417],[-80.588533,31.1417],[-80.581788,31.1417],[-80.575042,31.1417],[-80.608769,31.148448],[-80.602024,31.148448],[-80.595278,31.148448],[-80.588533,31.148448],[-80.581788,31.148448],[-80.575042,31.148448],[-80.608769,31.155196],[-80.602024,31.155196]]},"properties":{"source_var":"chl","pixel_count":18,"strength_unit":"fold","strength_median":1.9933,"strength_max":1.9933}}]}