{"type":"FeatureCollection","variable":"chl_front_trial","source_variable":"chl","source_frame":"data/usec_south/chl/usec_south_20260519_2026139.1450_chl_S3A.json","generated_at":"2026-05-19T20:03:34.598444Z","bbox":[-81.0,31.0,-73.0,36.0],"ny":743,"nx":1188,"algorithm":{"name":"boa_local_histogram_log_chl_v0","window_px":41,"stride_px":6,"transform":"log_chl","min_class_delta":0.30010459245033816,"min_cohesion":0.45},"features":[{"type":"Feature","geometry":{"type":"LineString","coordinates":[[-80.602359,31.882749],[-80.602359,31.889488],[-80.602359,31.896226],[-80.622578,31.902965],[-80.615838,31.902965],[-80.609099,31.902965],[-80.602359,31.902965],[-80.595619,31.902965],[-80.58888,31.902965],[-80.5754,31.902965],[-80.622578,31.909704],[-80.58888,31.909704],[-80.58214,31.909704],[-80.5754,31.909704],[-80.622578,31.916442],[-80.58888,31.916442],[-80.56866,31.916442],[-80.561921,31.916442],[-80.555181,31.916442],[-80.622578,31.923181],[-80.602359,31.923181],[-80.595619,31.923181],[-80.555181,31.923181],[-80.622578,31.929919],[-80.609099,31.929919],[-80.602359,31.929919],[-80.555181,31.929919],[-80.548441,31.929919],[-80.629318,31.936658],[-80.622578,31.936658],[-80.615838,31.936658],[-80.609099,31.936658],[-80.561921,31.936658],[-80.548441,31.936658],[-80.622578,31.943396],[-80.615838,31.943396],[-80.609099,31.943396],[-80.602359,31.943396],[-80.5754,31.943396],[-80.56866,31.943396],[-80.561921,31.943396],[-80.555181,31.943396],[-80.548441,31.943396],[-80.541702,31.943396],[-80.454086,31.943396],[-80.447346,31.943396],[-80.440607,31.943396],[-80.629318,31.950135],[-80.622578,31.950135],[-80.615838,31.950135],[-80.602359,31.950135],[-80.58214,31.950135],[-80.56866,31.950135],[-80.481045,31.950135],[-80.474305,31.950135],[-80.467565,31.950135],[-80.460826,31.950135],[-80.454086,31.950135],[-80.440607,31.950135],[-80.433867,31.950135],[-80.642797,31.956873],[-80.636057,31.956873],[-80.629318,31.956873],[-80.615838,31.956873],[-80.609099,31.956873],[-80.602359,31.956873],[-80.595619,31.956873],[-80.58888,31.956873],[-80.58214,31.956873],[-80.5754,31.956873],[-80.56866,31.956873],[-80.528222,31.956873],[-80.521483,31.956873],[-80.514743,31.956873],[-80.508003,31.956873],[-80.494524,31.956873],[-80.487784,31.956873],[-80.481045,31.956873],[-80.454086,31.956873],[-80.447346,31.956873],[-80.433867,31.956873],[-80.656276,31.963612],[-80.649537,31.963612],[-80.642797,31.963612],[-80.629318,31.963612],[-80.602359,31.963612],[-80.58888,31.963612],[-80.56866,31.963612],[-80.548441,31.963612],[-80.541702,31.963612],[-80.534962,31.963612],[-80.528222,31.963612],[-80.521483,31.963612],[-80.508003,31.963612],[-80.501264,31.963612],[-80.494524,31.963612],[-80.481045,31.963612],[-80.447346,31.963612],[-80.440607,31.963612],[-80.433867,31.963612],[-80.427127,31.963612],[-80.420388,31.963612],[-80.413648,31.963612],[-80.406908,31.963612],[-80.636057,31.97035],[-80.629318,31.97035],[-80.602359,31.97035],[-80.595619,31.97035],[-80.56866,31.97035],[-80.561921,31.97035],[-80.555181,31.97035],[-80.541702,31.97035],[-80.521483,31.97035],[-80.514743,31.97035],[-80.508003,31.97035],[-80.494524,31.97035],[-80.487784,31.97035],[-80.622578,31.977089],[-80.602359,31.977089],[-80.555181,31.977089],[-80.548441,31.977089],[-80.541702,31.977089],[-80.521483,31.977089],[-80.487784,31.977089],[-80.481045,31.977089],[-80.474305,31.977089],[-80.467565,31.977089],[-80.622578,31.983827],[-80.602359,31.983827],[-80.521483,31.983827],[-80.622578,31.990566],[-80.615838,31.990566],[-80.609099,31.990566],[-80.602359,31.990566],[-80.521483,31.990566],[-80.609099,31.997305],[-80.534962,31.997305],[-80.528222,31.997305],[-80.521483,31.997305],[-80.514743,31.997305],[-80.609099,32.004043],[-80.541702,32.004043],[-80.528222,32.004043],[-80.514743,32.004043],[-80.609099,32.010782],[-80.602359,32.010782],[-80.595619,32.010782],[-80.58888,32.010782],[-80.58214,32.010782],[-80.5754,32.010782],[-80.56866,32.010782],[-80.541702,32.010782],[-80.534962,32.010782],[-80.514743,32.010782],[-80.615838,32.01752],[-80.609099,32.01752],[-80.602359,32.01752],[-80.58888,32.01752],[-80.58214,32.01752],[-80.56866,32.01752],[-80.561921,32.01752],[-80.555181,32.01752],[-80.548441,32.01752],[-80.541702,32.01752],[-80.514743,32.01752],[-80.642797,32.024259],[-80.636057,32.024259],[-80.629318,32.024259],[-80.622578,32.024259],[-80.609099,32.024259],[-80.595619,32.024259],[-80.58888,32.024259],[-80.58214,32.024259],[-80.5754,32.024259],[-80.56866,32.024259],[-80.541702,32.024259],[-80.514743,32.024259],[-80.642797,32.030997],[-80.609099,32.030997],[-80.602359,32.030997],[-80.595619,32.030997],[-80.58888,32.030997],[-80.58214,32.030997],[-80.5754,32.030997],[-80.534962,32.030997],[-80.528222,32.030997],[-80.521483,32.030997],[-80.514743,32.030997],[-80.642797,32.037736],[-80.609099,32.037736],[-80.58888,32.037736],[-80.5754,32.037736],[-80.521483,32.037736],[-80.642797,32.044474],[-80.622578,32.044474],[-80.615838,32.044474],[-80.609099,32.044474],[-80.58888,32.044474],[-80.58214,32.044474],[-80.5754,32.044474],[-80.521483,32.044474],[-80.642797,32.051213],[-80.636057,32.051213],[-80.629318,32.051213],[-80.622578,32.051213],[-80.58888,32.051213],[-80.521483,32.051213],[-80.676495,32.057951],[-80.669756,32.057951],[-80.663016,32.057951],[-80.656276,32.057951],[-80.649537,32.057951],[-80.642797,32.057951],[-80.636057,32.057951],[-80.622578,32.057951],[-80.58888,32.057951],[-80.534962,32.057951],[-80.528222,32.057951],[-80.521483,32.057951],[-80.514743,32.057951],[-80.508003,32.057951],[-80.501264,32.057951],[-80.494524,32.057951],[-80.487784,32.057951],[-80.481045,32.057951],[-80.716933,32.06469],[-80.710194,32.06469],[-80.703454,32.06469],[-80.696714,32.06469],[-80.676495,32.06469],[-80.663016,32.06469],[-80.636057,32.06469],[-80.629318,32.06469],[-80.514743,32.06469],[-80.723673,32.071429],[-80.716933,32.071429],[-80.710194,32.071429],[-80.696714,32.071429],[-80.689975,32.071429],[-80.683235,32.071429],[-80.676495,32.071429],[-80.669756,32.071429],[-80.663016,32.071429],[-80.629318,32.071429],[-80.514743,32.071429],[-80.723673,32.078167],[-80.710194,32.078167],[-80.703454,32.078167],[-80.696714,32.078167],[-80.669756,32.078167],[-80.514743,32.078167],[-80.669756,32.084906],[-80.521483,32.084906],[-80.514743,32.084906],[-80.508003,32.084906],[-80.501264,32.084906],[-80.494524,32.084906],[-80.487784,32.084906],[-80.528222,32.091644],[-80.521483,32.091644],[-80.487784,32.091644],[-80.487784,32.098383],[-80.487784,32.105121],[-80.487784,32.11186],[-80.487784,32.118598],[-80.487784,32.125337],[-80.487784,32.132075],[-80.487784,32.138814],[-80.487784,32.145553],[-80.487784,32.152291],[-80.487784,32.15903],[-80.541702,32.165768],[-80.534962,32.165768],[-80.528222,32.165768],[-80.521483,32.165768],[-80.514743,32.165768],[-80.508003,32.165768],[-80.487784,32.165768],[-80.528222,32.172507],[-80.501264,32.172507],[-80.494524,32.172507],[-80.487784,32.172507],[-80.528222,32.179245],[-80.487784,32.179245],[-80.534962,32.185984],[-80.528222,32.185984],[-80.494524,32.185984],[-80.487784,32.185984],[-80.481045,32.185984],[-80.541702,32.192722],[-80.534962,32.192722],[-80.494524,32.192722],[-80.481045,32.192722],[-80.548441,32.199461],[-80.541702,32.199461],[-80.501264,32.199461],[-80.494524,32.199461],[-80.487784,32.199461],[-80.481045,32.199461],[-80.474305,32.199461],[-80.548441,32.206199],[-80.508003,32.206199],[-80.494524,32.206199],[-80.487784,32.206199],[-80.474305,32.206199],[-80.548441,32.212938],[-80.514743,32.212938],[-80.508003,32.212938],[-80.501264,32.212938],[-80.494524,32.212938],[-80.487784,32.212938],[-80.481045,32.212938],[-80.474305,32.212938],[-80.5754,32.219677],[-80.56866,32.219677],[-80.561921,32.219677],[-80.555181,32.219677],[-80.548441,32.219677],[-80.541702,32.219677],[-80.534962,32.219677],[-80.528222,32.219677],[-80.521483,32.219677],[-80.514743,32.219677],[-80.481045,32.219677],[-80.481045,32.226415]]},"properties":{"source_var":"chl","pixel_count":325,"strength_unit":"fold","strength_median":4.1272,"strength_max":6.2913}},{"type":"Feature","geometry":{"type":"LineString","coordinates":[[-78.796125,33.601078],[-78.789385,33.601078],[-78.715249,33.601078],[-78.809604,33.607817],[-78.802864,33.607817],[-78.796125,33.607817],[-78.715249,33.607817],[-78.850042,33.614555],[-78.843302,33.614555],[-78.836563,33.614555],[-78.816344,33.614555],[-78.809604,33.614555],[-78.715249,33.614555],[-78.863521,33.621294],[-78.850042,33.621294],[-78.836563,33.621294],[-78.829823,33.621294],[-78.823083,33.621294],[-78.816344,33.621294],[-78.769166,33.621294],[-78.715249,33.621294],[-78.863521,33.628032],[-78.856782,33.628032],[-78.850042,33.628032],[-78.843302,33.628032],[-78.836563,33.628032],[-78.829823,33.628032],[-78.816344,33.628032],[-78.775906,33.628032],[-78.769166,33.628032],[-78.762426,33.628032],[-78.755687,33.628032],[-78.748947,33.628032],[-78.742207,33.628032],[-78.735468,33.628032],[-78.728728,33.628032],[-78.721988,33.628032],[-78.715249,33.628032],[-78.89048,33.634771],[-78.883741,33.634771],[-78.877001,33.634771],[-78.863521,33.634771],[-78.850042,33.634771],[-78.829823,33.634771],[-78.823083,33.634771],[-78.816344,33.634771],[-78.775906,33.634771],[-78.748947,33.634771],[-78.708509,33.634771],[-78.89048,33.641509],[-78.877001,33.641509],[-78.870261,33.641509],[-78.863521,33.641509],[-78.856782,33.641509],[-78.850042,33.641509],[-78.816344,33.641509],[-78.809604,33.641509],[-78.802864,33.641509],[-78.796125,33.641509],[-78.789385,33.641509],[-78.782645,33.641509],[-78.775906,33.641509],[-78.769166,33.641509],[-78.748947,33.641509],[-78.708509,33.641509],[-78.89048,33.648248],[-78.883741,33.648248],[-78.877001,33.648248],[-78.870261,33.648248],[-78.863521,33.648248],[-78.856782,33.648248],[-78.809604,33.648248],[-78.796125,33.648248],[-78.789385,33.648248],[-78.769166,33.648248],[-78.762426,33.648248],[-78.755687,33.648248],[-78.748947,33.648248],[-78.708509,33.648248],[-78.870261,33.654987],[-78.856782,33.654987],[-78.816344,33.654987],[-78.809604,33.654987],[-78.802864,33.654987],[-78.796125,33.654987],[-78.748947,33.654987],[-78.708509,33.654987],[-78.870261,33.661725],[-78.863521,33.661725],[-78.856782,33.661725],[-78.829823,33.661725],[-78.823083,33.661725],[-78.816344,33.661725],[-78.748947,33.661725],[-78.742207,33.661725],[-78.735468,33.661725],[-78.728728,33.661725],[-78.721988,33.661725],[-78.715249,33.661725],[-78.708509,33.661725],[-78.701769,33.661725],[-78.829823,33.668464],[-78.816344,33.668464],[-78.762426,33.668464],[-78.755687,33.668464],[-78.748947,33.668464],[-78.695029,33.668464],[-78.68829,33.668464],[-78.68155,33.668464],[-78.67481,33.668464],[-78.668071,33.668464],[-78.661331,33.668464],[-78.654591,33.668464],[-78.647852,33.668464],[-78.641112,33.668464],[-78.634372,33.668464],[-78.627633,33.668464],[-78.620893,33.668464],[-78.829823,33.675202],[-78.823083,33.675202],[-78.816344,33.675202],[-78.775906,33.675202],[-78.762426,33.675202],[-78.748947,33.675202],[-78.742207,33.675202],[-78.695029,33.675202],[-78.654591,33.675202],[-78.620893,33.675202],[-78.823083,33.681941],[-78.789385,33.681941],[-78.782645,33.681941],[-78.775906,33.681941],[-78.769166,33.681941],[-78.762426,33.681941],[-78.755687,33.681941],[-78.742207,33.681941],[-78.695029,33.681941],[-78.661331,33.681941],[-78.654591,33.681941],[-78.829823,33.688679],[-78.823083,33.688679],[-78.816344,33.688679],[-78.789385,33.688679],[-78.775906,33.688679],[-78.755687,33.688679],[-78.748947,33.688679],[-78.742207,33.688679],[-78.695029,33.688679],[-78.668071,33.688679],[-78.661331,33.688679],[-78.647852,33.688679],[-78.829823,33.695418],[-78.816344,33.695418],[-78.809604,33.695418],[-78.802864,33.695418],[-78.796125,33.695418],[-78.789385,33.695418],[-78.782645,33.695418],[-78.775906,33.695418],[-78.742207,33.695418],[-78.735468,33.695418],[-78.695029,33.695418],[-78.68829,33.695418],[-78.67481,33.695418],[-78.668071,33.695418],[-78.647852,33.695418],[-78.829823,33.702156],[-78.823083,33.702156],[-78.816344,33.702156],[-78.802864,33.702156],[-78.748947,33.702156],[-78.742207,33.702156],[-78.68829,33.702156],[-78.68155,33.702156],[-78.67481,33.702156],[-78.647852,33.702156],[-78.641112,33.702156],[-78.816344,33.708895],[-78.809604,33.708895],[-78.802864,33.708895],[-78.748947,33.708895],[-78.695029,33.708895],[-78.68829,33.708895],[-78.67481,33.708895],[-78.647852,33.708895],[-78.614153,33.708895],[-78.802864,33.715633],[-78.748947,33.715633],[-78.721988,33.715633],[-78.695029,33.715633],[-78.67481,33.715633],[-78.668071,33.715633],[-78.661331,33.715633],[-78.654591,33.715633],[-78.647852,33.715633],[-78.641112,33.715633],[-78.614153,33.715633],[-78.748947,33.722372],[-78.721988,33.722372],[-78.695029,33.722372],[-78.641112,33.722372],[-78.614153,33.722372],[-78.748947,33.729111],[-78.742207,33.729111],[-78.735468,33.729111],[-78.728728,33.729111],[-78.721988,33.729111],[-78.715249,33.729111],[-78.708509,33.729111],[-78.701769,33.729111],[-78.695029,33.729111],[-78.641112,33.729111],[-78.634372,33.729111],[-78.627633,33.729111],[-78.620893,33.729111],[-78.614153,33.729111],[-78.607414,33.729111],[-78.600674,33.729111],[-78.593934,33.729111],[-78.587195,33.729111],[-78.755687,33.735849],[-78.748947,33.735849],[-78.708509,33.735849],[-78.701769,33.735849],[-78.634372,33.735849],[-78.593934,33.735849],[-78.769166,33.742588],[-78.762426,33.742588],[-78.755687,33.742588],[-78.715249,33.742588],[-78.708509,33.742588],[-78.695029,33.742588],[-78.634372,33.742588],[-78.593934,33.742588],[-78.762426,33.749326],[-78.721988,33.749326],[-78.715249,33.749326],[-78.695029,33.749326],[-78.634372,33.749326],[-78.593934,33.749326],[-78.762426,33.756065],[-78.721988,33.756065],[-78.701769,33.756065],[-78.695029,33.756065],[-78.634372,33.756065],[-78.627633,33.756065],[-78.593934,33.756065],[-78.755687,33.762803],[-78.748947,33.762803],[-78.742207,33.762803],[-78.735468,33.762803],[-78.728728,33.762803],[-78.721988,33.762803],[-78.708509,33.762803],[-78.695029,33.762803],[-78.627633,33.762803],[-78.600674,33.762803],[-78.593934,33.762803],[-78.587195,33.762803],[-78.721988,33.769542],[-78.715249,33.769542],[-78.708509,33.769542],[-78.701769,33.769542],[-78.695029,33.769542],[-78.68829,33.769542],[-78.68155,33.769542],[-78.627633,33.769542],[-78.620893,33.769542],[-78.614153,33.769542],[-78.607414,33.769542],[-78.68155,33.77628],[-78.67481,33.77628],[-78.668071,33.77628],[-78.661331,33.77628],[-78.627633,33.77628],[-78.654591,33.783019],[-78.647852,33.783019],[-78.641112,33.783019],[-78.634372,33.783019],[-78.627633,33.783019],[-78.627633,33.789757],[-78.627633,33.796496]]},"properties":{"source_var":"chl","pixel_count":282,"strength_unit":"fold","strength_median":4.3849,"strength_max":9.0251}},{"type":"Feature","geometry":{"type":"LineString","coordinates":[[-77.825611,33.708895],[-77.825611,33.715633],[-77.83909,33.722372],[-77.83235,33.722372],[-77.825611,33.722372],[-77.83235,33.729111],[-77.83235,33.735849],[-77.83235,33.742588],[-77.83235,33.749326],[-77.83235,33.756065],[-77.825611,33.756065],[-77.818871,33.756065],[-77.859309,33.762803],[-77.85257,33.762803],[-77.84583,33.762803],[-77.83909,33.762803],[-77.83235,33.762803],[-77.825611,33.762803],[-77.812131,33.762803],[-77.764954,33.762803],[-77.866049,33.769542],[-77.859309,33.769542],[-77.84583,33.769542],[-77.825611,33.769542],[-77.818871,33.769542],[-77.812131,33.769542],[-77.805392,33.769542],[-77.764954,33.769542],[-77.758214,33.769542],[-77.751474,33.769542],[-77.872789,33.77628],[-77.866049,33.77628],[-77.85257,33.77628],[-77.84583,33.77628],[-77.758214,33.77628],[-77.744735,33.77628],[-77.737995,33.77628],[-77.731255,33.77628],[-77.872789,33.783019],[-77.859309,33.783019],[-77.85257,33.783019],[-77.791912,33.783019],[-77.771693,33.783019],[-77.764954,33.783019],[-77.758214,33.783019],[-77.751474,33.783019],[-77.744735,33.783019],[-77.886268,33.789757],[-77.879528,33.789757],[-77.872789,33.789757],[-77.866049,33.789757],[-77.859309,33.789757],[-77.85257,33.789757],[-77.84583,33.789757],[-77.83909,33.789757],[-77.812131,33.789757],[-77.805392,33.789757],[-77.798652,33.789757],[-77.791912,33.789757],[-77.771693,33.789757],[-77.899747,33.796496],[-77.893008,33.796496],[-77.886268,33.796496],[-77.879528,33.796496],[-77.859309,33.796496],[-77.85257,33.796496],[-77.83909,33.796496],[-77.812131,33.796496],[-77.798652,33.796496],[-77.791912,33.796496],[-77.785173,33.796496],[-77.778433,33.796496],[-77.771693,33.796496],[-77.879528,33.803235],[-77.859309,33.803235],[-77.84583,33.803235],[-77.83909,33.803235],[-77.83235,33.803235],[-77.825611,33.803235],[-77.818871,33.803235],[-77.812131,33.803235],[-77.805392,33.803235],[-77.798652,33.803235],[-77.771693,33.803235],[-77.879528,33.809973],[-77.859309,33.809973],[-77.85257,33.809973],[-77.84583,33.809973],[-77.778433,33.809973],[-77.771693,33.809973],[-77.764954,33.809973],[-77.879528,33.816712],[-77.84583,33.816712],[-77.778433,33.816712],[-77.764954,33.816712],[-77.758214,33.816712],[-77.751474,33.816712],[-77.744735,33.816712],[-77.737995,33.816712],[-77.879528,33.82345],[-77.778433,33.82345],[-77.771693,33.82345],[-77.758214,33.82345],[-77.879528,33.830189],[-77.771693,33.830189],[-77.764954,33.830189],[-77.758214,33.830189],[-77.879528,33.836927],[-77.879528,33.843666],[-77.893008,33.850404],[-77.886268,33.850404],[-77.879528,33.850404],[-77.872789,33.850404],[-77.866049,33.850404],[-77.899747,33.857143],[-77.886268,33.857143],[-77.913227,33.863881],[-77.906487,33.863881],[-77.899747,33.863881],[-77.893008,33.863881],[-77.886268,33.863881],[-77.926706,33.87062],[-77.919966,33.87062],[-77.913227,33.87062],[-77.899747,33.87062],[-77.913227,33.877358],[-77.906487,33.877358],[-77.899747,33.877358],[-77.85257,33.877358],[-77.899747,33.884097],[-77.893008,33.884097],[-77.886268,33.884097],[-77.85257,33.884097],[-77.899747,33.890836],[-77.886268,33.890836],[-77.879528,33.890836],[-77.85257,33.890836],[-77.899747,33.897574],[-77.893008,33.897574],[-77.886268,33.897574],[-77.872789,33.897574],[-77.866049,33.897574],[-77.85257,33.897574],[-77.919966,33.904313],[-77.913227,33.904313],[-77.906487,33.904313],[-77.899747,33.904313],[-77.886268,33.904313],[-77.866049,33.904313],[-77.859309,33.904313],[-77.85257,33.904313],[-77.926706,33.911051],[-77.919966,33.911051],[-77.899747,33.911051],[-77.879528,33.911051],[-77.866049,33.911051],[-77.926706,33.91779],[-77.893008,33.91779],[-77.879528,33.91779],[-77.872789,33.91779],[-77.866049,33.91779],[-77.940185,33.924528],[-77.933446,33.924528],[-77.926706,33.924528],[-77.893008,33.924528],[-77.886268,33.924528],[-77.879528,33.924528],[-77.940185,33.931267],[-77.926706,33.931267],[-77.899747,33.931267],[-77.879528,33.931267],[-77.940185,33.938005],[-77.933446,33.938005],[-77.926706,33.938005],[-77.919966,33.938005],[-77.913227,33.938005],[-77.906487,33.938005],[-77.899747,33.938005],[-77.879528,33.938005],[-77.919966,33.944744],[-77.899747,33.944744],[-77.879528,33.944744],[-77.919966,33.951482],[-77.893008,33.951482],[-77.886268,33.951482],[-77.879528,33.951482],[-77.919966,33.958221],[-77.899747,33.958221],[-77.893008,33.958221],[-77.879528,33.958221],[-77.919966,33.96496],[-77.913227,33.96496],[-77.906487,33.96496],[-77.899747,33.96496],[-77.906487,33.971698],[-77.906487,33.978437]]},"properties":{"source_var":"chl","pixel_count":196,"strength_unit":"fold","strength_median":10.3566,"strength_max":10.3566}},{"type":"Feature","geometry":{"type":"LineString","coordinates":[[-77.326874,34.376011],[-77.333614,34.382749],[-77.326874,34.382749],[-77.333614,34.389488],[-77.340354,34.396226],[-77.333614,34.396226],[-77.326874,34.396226],[-77.320135,34.396226],[-77.313395,34.396226],[-77.306655,34.396226],[-77.360573,34.402965],[-77.353833,34.402965],[-77.347094,34.402965],[-77.340354,34.402965],[-77.326874,34.402965],[-77.306655,34.402965],[-77.360573,34.409704],[-77.340354,34.409704],[-77.333614,34.409704],[-77.326874,34.409704],[-77.225779,34.409704],[-77.360573,34.416442],[-77.333614,34.416442],[-77.225779,34.416442],[-77.367313,34.423181],[-77.333614,34.423181],[-77.225779,34.423181],[-77.367313,34.429919],[-77.333614,34.429919],[-77.320135,34.429919],[-77.313395,34.429919],[-77.306655,34.429919],[-77.299916,34.429919],[-77.225779,34.429919],[-77.367313,34.436658],[-77.333614,34.436658],[-77.326874,34.436658],[-77.320135,34.436658],[-77.225779,34.436658],[-77.374052,34.443396],[-77.367313,34.443396],[-77.333614,34.443396],[-77.239259,34.443396],[-77.232519,34.443396],[-77.225779,34.443396],[-77.374052,34.450135],[-77.367313,34.450135],[-77.360573,34.450135],[-77.353833,34.450135],[-77.347094,34.450135],[-77.340354,34.450135],[-77.333614,34.450135],[-77.239259,34.450135],[-77.225779,34.450135],[-77.380792,34.456873],[-77.374052,34.456873],[-77.333614,34.456873],[-77.259478,34.456873],[-77.252738,34.456873],[-77.245998,34.456873],[-77.239259,34.456873],[-77.232519,34.456873],[-77.225779,34.456873],[-77.401011,34.463612],[-77.394271,34.463612],[-77.387532,34.463612],[-77.380792,34.463612],[-77.333614,34.463612],[-77.326874,34.463612],[-77.320135,34.463612],[-77.313395,34.463612],[-77.306655,34.463612],[-77.299916,34.463612],[-77.293176,34.463612],[-77.286436,34.463612],[-77.279697,34.463612],[-77.272957,34.463612],[-77.266217,34.463612],[-77.259478,34.463612],[-77.225779,34.463612],[-77.21904,34.463612],[-77.2123,34.463612],[-77.20556,34.463612],[-77.401011,34.47035],[-77.387532,34.47035],[-77.333614,34.47035],[-77.313395,34.47035],[-77.299916,34.47035],[-77.266217,34.47035],[-77.259478,34.47035],[-77.252738,34.47035],[-77.21904,34.47035],[-77.407751,34.477089],[-77.401011,34.477089],[-77.394271,34.477089],[-77.387532,34.477089],[-77.380792,34.477089],[-77.333614,34.477089],[-77.313395,34.477089],[-77.306655,34.477089],[-77.299916,34.477089],[-77.266217,34.477089],[-77.252738,34.477089],[-77.21904,34.477089],[-77.380792,34.483827],[-77.306655,34.483827],[-77.266217,34.483827],[-77.259478,34.483827],[-77.252738,34.483827],[-77.225779,34.483827],[-77.21904,34.483827],[-77.2123,34.483827],[-77.20556,34.483827],[-77.198821,34.483827],[-77.192081,34.483827],[-77.185341,34.483827],[-77.306655,34.490566],[-77.266217,34.490566],[-77.232519,34.490566],[-77.225779,34.490566],[-77.198821,34.490566],[-77.313395,34.497305],[-77.306655,34.497305],[-77.266217,34.497305],[-77.239259,34.497305],[-77.232519,34.497305],[-77.306655,34.504043],[-77.266217,34.504043],[-77.239259,34.504043],[-77.272957,34.510782],[-77.266217,34.510782],[-77.259478,34.510782],[-77.252738,34.510782],[-77.245998,34.510782],[-77.239259,34.510782],[-77.259478,34.51752],[-77.245998,34.51752],[-77.259478,34.524259],[-77.252738,34.524259],[-77.245998,34.524259],[-77.245998,34.530997]]},"properties":{"source_var":"chl","pixel_count":141,"strength_unit":"fold","strength_median":3.3687,"strength_max":8.79}},{"type":"Feature","geometry":{"type":"LineString","coordinates":[[-77.603201,34.274933],[-77.542544,34.274933],[-77.529065,34.274933],[-77.522325,34.274933],[-77.515586,34.274933],[-77.603201,34.281671],[-77.542544,34.281671],[-77.535805,34.281671],[-77.529065,34.281671],[-77.515586,34.281671],[-77.508846,34.281671],[-77.502106,34.281671],[-77.495366,34.281671],[-77.488627,34.281671],[-77.603201,34.28841],[-77.569503,34.28841],[-77.562763,34.28841],[-77.556024,34.28841],[-77.549284,34.28841],[-77.542544,34.28841],[-77.529065,34.28841],[-77.522325,34.28841],[-77.515586,34.28841],[-77.502106,34.28841],[-77.488627,34.28841],[-77.643639,34.295148],[-77.6369,34.295148],[-77.63016,34.295148],[-77.62342,34.295148],[-77.616681,34.295148],[-77.609941,34.295148],[-77.603201,34.295148],[-77.576243,34.295148],[-77.569503,34.295148],[-77.556024,34.295148],[-77.522325,34.295148],[-77.502106,34.295148],[-77.495366,34.295148],[-77.488627,34.295148],[-77.663858,34.301887],[-77.650379,34.301887],[-77.643639,34.301887],[-77.603201,34.301887],[-77.596462,34.301887],[-77.589722,34.301887],[-77.582982,34.301887],[-77.576243,34.301887],[-77.556024,34.301887],[-77.522325,34.301887],[-77.488627,34.301887],[-77.663858,34.308625],[-77.657119,34.308625],[-77.650379,34.308625],[-77.609941,34.308625],[-77.603201,34.308625],[-77.596462,34.308625],[-77.576243,34.308625],[-77.556024,34.308625],[-77.522325,34.308625],[-77.495366,34.308625],[-77.488627,34.308625],[-77.657119,34.315364],[-77.609941,34.315364],[-77.596462,34.315364],[-77.576243,34.315364],[-77.562763,34.315364],[-77.522325,34.315364],[-77.502106,34.315364],[-77.488627,34.315364],[-77.657119,34.322102],[-77.609941,34.322102],[-77.603201,34.322102],[-77.576243,34.322102],[-77.569503,34.322102],[-77.562763,34.322102],[-77.522325,34.322102],[-77.502106,34.322102],[-77.495366,34.322102],[-77.488627,34.322102],[-77.468408,34.322102],[-77.461668,34.322102],[-77.454928,34.322102],[-77.650379,34.328841],[-77.643639,34.328841],[-77.6369,34.328841],[-77.63016,34.328841],[-77.62342,34.328841],[-77.616681,34.328841],[-77.609941,34.328841],[-77.603201,34.328841],[-77.562763,34.328841],[-77.522325,34.328841],[-77.495366,34.328841],[-77.475147,34.328841],[-77.468408,34.328841],[-77.616681,34.33558],[-77.603201,34.33558],[-77.515586,34.33558],[-77.495366,34.33558],[-77.481887,34.33558],[-77.475147,34.33558],[-77.441449,34.33558],[-77.616681,34.342318],[-77.609941,34.342318],[-77.603201,34.342318],[-77.515586,34.342318],[-77.508846,34.342318],[-77.502106,34.342318],[-77.495366,34.342318],[-77.488627,34.342318],[-77.481887,34.342318],[-77.441449,34.342318],[-77.609941,34.349057],[-77.495366,34.349057],[-77.481887,34.349057],[-77.448189,34.349057],[-77.441449,34.349057],[-77.609941,34.355795],[-77.495366,34.355795],[-77.488627,34.355795],[-77.481887,34.355795],[-77.454928,34.355795],[-77.448189,34.355795],[-77.609941,34.362534],[-77.495366,34.362534],[-77.488627,34.362534],[-77.481887,34.362534],[-77.475147,34.362534],[-77.468408,34.362534],[-77.461668,34.362534],[-77.454928,34.362534],[-77.495366,34.369272],[-77.481887,34.369272],[-77.461668,34.369272],[-77.495366,34.376011],[-77.488627,34.376011],[-77.481887,34.376011]]},"properties":{"source_var":"chl","pixel_count":137,"strength_unit":"fold","strength_median":3.9094,"strength_max":7.4121}},{"type":"Feature","geometry":{"type":"LineString","coordinates":[[-80.117102,31.572776],[-80.110362,31.572776],[-80.103623,31.572776],[-80.123842,31.579515],[-80.117102,31.579515],[-80.123842,31.586253],[-80.123842,31.592992],[-80.117102,31.592992],[-80.110362,31.592992],[-80.103623,31.592992],[-80.1508,31.59973],[-80.144061,31.59973],[-80.137321,31.59973],[-80.130581,31.59973],[-80.123842,31.59973],[-80.117102,31.59973],[-80.103623,31.59973],[-80.096883,31.59973],[-80.090143,31.59973],[-80.144061,31.606469],[-80.117102,31.606469],[-80.110362,31.606469],[-80.103623,31.606469],[-80.144061,31.613208],[-80.177759,31.619946],[-80.171019,31.619946],[-80.16428,31.619946],[-80.15754,31.619946],[-80.144061,31.619946],[-80.191238,31.626685],[-80.184499,31.626685],[-80.177759,31.626685],[-80.171019,31.626685],[-80.15754,31.626685],[-80.1508,31.626685],[-80.144061,31.626685],[-80.123842,31.626685],[-80.117102,31.626685],[-80.110362,31.626685],[-80.103623,31.626685],[-80.096883,31.626685],[-80.090143,31.626685],[-80.191238,31.633423],[-80.177759,31.633423],[-80.171019,31.633423],[-80.16428,31.633423],[-80.1508,31.633423],[-80.137321,31.633423],[-80.130581,31.633423],[-80.123842,31.633423],[-80.090143,31.633423],[-80.191238,31.640162],[-80.184499,31.640162],[-80.177759,31.640162],[-80.16428,31.640162],[-80.15754,31.640162],[-80.1508,31.640162],[-80.130581,31.640162],[-80.123842,31.640162],[-80.117102,31.640162],[-80.090143,31.640162],[-80.1508,31.6469],[-80.130581,31.6469],[-80.117102,31.6469],[-80.090143,31.6469],[-80.1508,31.653639],[-80.130581,31.653639],[-80.123842,31.653639],[-80.117102,31.653639],[-80.090143,31.653639],[-80.1508,31.660377],[-80.117102,31.660377],[-80.090143,31.660377],[-80.1508,31.667116],[-80.117102,31.667116],[-80.090143,31.667116],[-80.1508,31.673854],[-80.130581,31.673854],[-80.123842,31.673854],[-80.117102,31.673854],[-80.090143,31.673854],[-80.063184,31.673854],[-80.056445,31.673854],[-80.049705,31.673854],[-80.1508,31.680593],[-80.144061,31.680593],[-80.137321,31.680593],[-80.123842,31.680593],[-80.117102,31.680593],[-80.110362,31.680593],[-80.103623,31.680593],[-80.090143,31.680593],[-80.063184,31.680593],[-80.049705,31.680593],[-80.042965,31.680593],[-80.036226,31.680593],[-80.029486,31.680593],[-80.137321,31.687332],[-80.130581,31.687332],[-80.123842,31.687332],[-80.117102,31.687332],[-80.103623,31.687332],[-80.096883,31.687332],[-80.090143,31.687332],[-80.076664,31.687332],[-80.069924,31.687332],[-80.063184,31.687332],[-80.056445,31.687332],[-80.049705,31.687332],[-80.117102,31.69407],[-80.110362,31.69407],[-80.103623,31.69407],[-80.096883,31.69407],[-80.090143,31.69407],[-80.083404,31.69407],[-80.076664,31.69407],[-80.110362,31.700809],[-80.096883,31.700809],[-80.090143,31.700809],[-80.083404,31.700809],[-80.110362,31.707547],[-80.103623,31.707547],[-80.096883,31.707547],[-80.090143,31.707547],[-80.083404,31.707547],[-80.076664,31.707547],[-80.069924,31.707547],[-80.090143,31.714286],[-80.076664,31.714286],[-80.090143,31.721024],[-80.083404,31.721024],[-80.076664,31.721024]]},"properties":{"source_var":"chl","pixel_count":132,"strength_unit":"fold","strength_median":2.9301,"strength_max":2.9472}},{"type":"Feature","geometry":{"type":"LineString","coordinates":[[-79.058972,32.246631],[-79.038753,32.246631],[-79.032013,32.246631],[-79.025274,32.246631],[-79.018534,32.246631],[-79.011794,32.246631],[-79.005055,32.246631],[-78.998315,32.246631],[-79.058972,32.253369],[-79.052233,32.253369],[-79.045493,32.253369],[-79.038753,32.253369],[-79.065712,32.260108],[-79.058972,32.260108],[-79.072452,32.266846],[-79.065712,32.266846],[-79.072452,32.273585],[-79.079191,32.280323],[-79.072452,32.280323],[-79.11289,32.287062],[-79.10615,32.287062],[-79.09941,32.287062],[-79.092671,32.287062],[-79.085931,32.287062],[-79.079191,32.287062],[-79.079191,32.293801],[-79.085931,32.300539],[-79.079191,32.300539],[-79.072452,32.300539],[-79.085931,32.307278],[-79.072452,32.307278],[-79.065712,32.307278],[-79.058972,32.307278],[-79.052233,32.307278],[-79.045493,32.307278],[-79.038753,32.307278],[-79.10615,32.314016],[-79.09941,32.314016],[-79.092671,32.314016],[-79.085931,32.314016],[-79.079191,32.314016],[-79.072452,32.314016],[-79.11289,32.320755],[-79.085931,32.320755],[-79.065712,32.320755],[-79.11289,32.327493],[-79.092671,32.327493],[-79.085931,32.327493],[-79.065712,32.327493],[-79.11289,32.334232],[-79.10615,32.334232],[-79.09941,32.334232],[-79.092671,32.334232],[-79.072452,32.334232],[-79.065712,32.334232],[-79.10615,32.34097],[-79.072452,32.34097],[-79.10615,32.347709],[-79.09941,32.347709],[-79.072452,32.347709],[-79.10615,32.354447],[-79.092671,32.354447],[-79.072452,32.354447],[-79.10615,32.361186],[-79.09941,32.361186],[-79.092671,32.361186],[-79.085931,32.361186],[-79.079191,32.361186],[-79.072452,32.361186],[-79.10615,32.367925],[-79.072452,32.367925],[-79.10615,32.374663],[-79.072452,32.374663],[-79.10615,32.381402],[-79.072452,32.381402],[-79.065712,32.381402],[-79.10615,32.38814],[-79.065712,32.38814],[-79.058972,32.38814],[-79.058972,32.394879],[-79.058972,32.401617],[-79.065712,32.408356],[-79.058972,32.408356],[-79.072452,32.415094],[-79.058972,32.415094],[-79.11289,32.421833],[-79.079191,32.421833],[-79.072452,32.421833],[-79.065712,32.421833],[-79.058972,32.421833],[-79.052233,32.421833],[-79.045493,32.421833],[-79.038753,32.421833],[-79.11289,32.428571],[-79.085931,32.428571],[-79.079191,32.428571],[-79.065712,32.428571],[-79.038753,32.428571],[-79.032013,32.428571],[-79.11289,32.43531],[-79.085931,32.43531],[-79.072452,32.43531],[-79.065712,32.43531],[-79.032013,32.43531],[-79.11289,32.442049],[-79.10615,32.442049],[-79.09941,32.442049],[-79.085931,32.442049],[-79.079191,32.442049],[-79.072452,32.442049],[-79.065712,32.442049],[-79.146588,32.448787],[-79.139848,32.448787],[-79.133109,32.448787],[-79.126369,32.448787],[-79.119629,32.448787],[-79.11289,32.448787],[-79.09941,32.448787],[-79.092671,32.448787],[-79.085931,32.448787],[-79.11289,32.455526],[-79.10615,32.455526],[-79.09941,32.455526],[-79.085931,32.455526],[-79.11289,32.462264],[-79.085931,32.462264],[-79.11289,32.469003],[-79.085931,32.469003],[-79.079191,32.469003]]},"properties":{"source_var":"chl","pixel_count":129,"strength_unit":"fold","strength_median":2.4469,"strength_max":2.6333}},{"type":"Feature","geometry":{"type":"LineString","coordinates":[[-78.0615,33.473046],[-78.05476,33.473046],[-78.04802,33.473046],[-78.041281,33.473046],[-78.0615,33.479784],[-78.034541,33.479784],[-78.027801,33.479784],[-78.021061,33.479784],[-78.014322,33.479784],[-78.007582,33.479784],[-78.000842,33.479784],[-77.994103,33.479784],[-77.987363,33.479784],[-78.081719,33.486523],[-78.074979,33.486523],[-78.068239,33.486523],[-78.0615,33.486523],[-78.027801,33.486523],[-78.014322,33.486523],[-78.0615,33.493261],[-78.05476,33.493261],[-78.04802,33.493261],[-78.041281,33.493261],[-78.034541,33.493261],[-78.027801,33.493261],[-78.021061,33.493261],[-78.014322,33.493261],[-78.021061,33.5],[-78.014322,33.5],[-78.007582,33.5],[-78.021061,33.506739],[-78.007582,33.506739],[-78.000842,33.506739],[-78.021061,33.513477],[-78.000842,33.513477],[-77.994103,33.513477],[-78.021061,33.520216],[-78.007582,33.520216],[-77.994103,33.520216],[-78.074979,33.526954],[-78.068239,33.526954],[-78.0615,33.526954],[-78.05476,33.526954],[-78.04802,33.526954],[-78.041281,33.526954],[-78.034541,33.526954],[-78.027801,33.526954],[-78.021061,33.526954],[-78.014322,33.526954],[-78.007582,33.526954],[-78.000842,33.526954],[-77.994103,33.526954],[-77.940185,33.526954],[-77.926706,33.526954],[-77.919966,33.526954],[-77.913227,33.526954],[-78.081719,33.533693],[-78.074979,33.533693],[-78.007582,33.533693],[-78.000842,33.533693],[-77.994103,33.533693],[-77.987363,33.533693],[-77.980623,33.533693],[-77.960404,33.533693],[-77.953665,33.533693],[-77.946925,33.533693],[-77.940185,33.533693],[-77.933446,33.533693],[-77.926706,33.533693],[-77.913227,33.533693],[-77.906487,33.533693],[-77.899747,33.533693],[-77.893008,33.533693],[-77.886268,33.533693],[-77.872789,33.533693],[-77.866049,33.533693],[-77.859309,33.533693],[-77.85257,33.533693],[-77.84583,33.533693],[-78.014322,33.540431],[-78.007582,33.540431],[-78.000842,33.540431],[-77.994103,33.540431],[-77.980623,33.540431],[-77.973884,33.540431],[-77.967144,33.540431],[-77.960404,33.540431],[-77.946925,33.540431],[-77.926706,33.540431],[-77.919966,33.540431],[-77.913227,33.540431],[-77.879528,33.540431],[-77.872789,33.540431],[-78.014322,33.54717],[-78.000842,33.54717],[-77.994103,33.54717],[-77.987363,33.54717],[-77.980623,33.54717],[-77.960404,33.54717],[-77.953665,33.54717],[-77.946925,33.54717],[-77.919966,33.54717],[-77.879528,33.54717],[-78.014322,33.553908],[-78.007582,33.553908],[-78.000842,33.553908],[-77.926706,33.553908],[-77.919966,33.553908],[-77.913227,33.553908],[-77.906487,33.553908],[-77.899747,33.553908],[-77.893008,33.553908],[-77.886268,33.553908],[-77.879528,33.553908],[-77.872789,33.553908],[-77.926706,33.560647],[-77.872789,33.560647],[-77.940185,33.567385],[-77.933446,33.567385],[-77.926706,33.567385],[-77.872789,33.567385],[-77.940185,33.574124],[-77.926706,33.574124],[-77.940185,33.580863],[-77.933446,33.580863],[-77.926706,33.580863],[-77.933446,33.587601],[-77.933446,33.59434]]},"properties":{"source_var":"chl","pixel_count":128,"strength_unit":"fold","strength_median":2.1485,"strength_max":3.4561}},{"type":"Feature","geometry":{"type":"LineString","coordinates":[[-78.533277,33.708895],[-78.526537,33.708895],[-78.540017,33.715633],[-78.533277,33.715633],[-78.580455,33.722372],[-78.573715,33.722372],[-78.566976,33.722372],[-78.560236,33.722372],[-78.553496,33.722372],[-78.546757,33.722372],[-78.540017,33.722372],[-78.540017,33.729111],[-78.492839,33.729111],[-78.540017,33.735849],[-78.492839,33.735849],[-78.459141,33.735849],[-78.452401,33.735849],[-78.540017,33.742588],[-78.533277,33.742588],[-78.526537,33.742588],[-78.519798,33.742588],[-78.492839,33.742588],[-78.459141,33.742588],[-78.425442,33.742588],[-78.533277,33.749326],[-78.519798,33.749326],[-78.492839,33.749326],[-78.47936,33.749326],[-78.47262,33.749326],[-78.46588,33.749326],[-78.459141,33.749326],[-78.452401,33.749326],[-78.445661,33.749326],[-78.438922,33.749326],[-78.432182,33.749326],[-78.425442,33.749326],[-78.418703,33.749326],[-78.533277,33.756065],[-78.526537,33.756065],[-78.519798,33.756065],[-78.513058,33.756065],[-78.506318,33.756065],[-78.499579,33.756065],[-78.492839,33.756065],[-78.486099,33.756065],[-78.47936,33.756065],[-78.418703,33.756065],[-78.533277,33.762803],[-78.486099,33.762803],[-78.418703,33.762803],[-78.486099,33.769542],[-78.47936,33.769542],[-78.418703,33.769542],[-78.486099,33.77628],[-78.438922,33.77628],[-78.432182,33.77628],[-78.425442,33.77628],[-78.418703,33.77628],[-78.486099,33.783019],[-78.438922,33.783019],[-78.425442,33.783019],[-78.486099,33.789757],[-78.438922,33.789757],[-78.432182,33.789757],[-78.425442,33.789757],[-78.418703,33.789757],[-78.411963,33.789757],[-78.405223,33.789757],[-78.398484,33.789757],[-78.499579,33.796496],[-78.492839,33.796496],[-78.452401,33.796496],[-78.445661,33.796496],[-78.438922,33.796496],[-78.519798,33.803235],[-78.513058,33.803235],[-78.506318,33.803235],[-78.499579,33.803235],[-78.452401,33.803235],[-78.499579,33.809973],[-78.492839,33.809973],[-78.486099,33.809973],[-78.47936,33.809973],[-78.47262,33.809973],[-78.46588,33.809973],[-78.459141,33.809973],[-78.452401,33.809973],[-78.486099,33.816712],[-78.47262,33.816712],[-78.452401,33.816712],[-78.486099,33.82345],[-78.47936,33.82345],[-78.459141,33.82345],[-78.452401,33.82345],[-78.445661,33.82345],[-78.486099,33.830189],[-78.46588,33.830189],[-78.459141,33.830189],[-78.492839,33.836927],[-78.486099,33.836927],[-78.47936,33.836927],[-78.47262,33.836927],[-78.46588,33.836927],[-78.519798,33.843666],[-78.513058,33.843666],[-78.499579,33.843666],[-78.492839,33.843666],[-78.513058,33.850404],[-78.506318,33.850404],[-78.499579,33.850404],[-78.513058,33.857143],[-78.499579,33.857143],[-78.513058,33.863881],[-78.506318,33.863881],[-78.499579,33.863881],[-78.492839,33.863881],[-78.486099,33.863881],[-78.47936,33.863881],[-78.47262,33.863881],[-78.46588,33.863881],[-78.459141,33.863881],[-78.452401,33.863881],[-78.452401,33.87062],[-78.445661,33.87062]]},"properties":{"source_var":"chl","pixel_count":124,"strength_unit":"fold","strength_median":5.4125,"strength_max":9.0251}},{"type":"Feature","geometry":{"type":"LineString","coordinates":[[-79.604886,32.623989],[-79.631845,32.630728],[-79.604886,32.630728],[-79.638585,32.637466],[-79.631845,32.637466],[-79.625105,32.637466],[-79.618366,32.637466],[-79.611626,32.637466],[-79.604886,32.637466],[-79.598147,32.637466],[-79.679023,32.644205],[-79.672283,32.644205],[-79.665543,32.644205],[-79.658804,32.644205],[-79.638585,32.644205],[-79.598147,32.644205],[-79.685762,32.650943],[-79.679023,32.650943],[-79.652064,32.650943],[-79.645324,32.650943],[-79.638585,32.650943],[-79.591407,32.650943],[-79.719461,32.657682],[-79.712721,32.657682],[-79.705981,32.657682],[-79.699242,32.657682],[-79.692502,32.657682],[-79.685762,32.657682],[-79.645324,32.657682],[-79.638585,32.657682],[-79.591407,32.657682],[-79.705981,32.66442],[-79.692502,32.66442],[-79.685762,32.66442],[-79.679023,32.66442],[-79.672283,32.66442],[-79.665543,32.66442],[-79.658804,32.66442],[-79.652064,32.66442],[-79.645324,32.66442],[-79.631845,32.66442],[-79.625105,32.66442],[-79.591407,32.66442],[-79.705981,32.671159],[-79.699242,32.671159],[-79.685762,32.671159],[-79.645324,32.671159],[-79.625105,32.671159],[-79.591407,32.671159],[-79.699242,32.677898],[-79.692502,32.677898],[-79.685762,32.677898],[-79.645324,32.677898],[-79.625105,32.677898],[-79.591407,32.677898],[-79.692502,32.684636],[-79.645324,32.684636],[-79.625105,32.684636],[-79.591407,32.684636],[-79.692502,32.691375],[-79.685762,32.691375],[-79.679023,32.691375],[-79.672283,32.691375],[-79.665543,32.691375],[-79.658804,32.691375],[-79.652064,32.691375],[-79.645324,32.691375],[-79.638585,32.691375],[-79.631845,32.691375],[-79.625105,32.691375],[-79.618366,32.691375],[-79.611626,32.691375],[-79.604886,32.691375],[-79.598147,32.691375],[-79.591407,32.691375],[-79.699242,32.698113],[-79.692502,32.698113],[-79.685762,32.698113],[-79.611626,32.698113],[-79.598147,32.698113],[-79.577928,32.698113],[-79.571188,32.698113],[-79.699242,32.704852],[-79.685762,32.704852],[-79.611626,32.704852],[-79.604886,32.704852],[-79.598147,32.704852],[-79.591407,32.704852],[-79.584667,32.704852],[-79.577928,32.704852],[-79.699242,32.71159],[-79.692502,32.71159],[-79.591407,32.71159],[-79.577928,32.71159],[-79.598147,32.718329],[-79.591407,32.718329],[-79.584667,32.718329],[-79.577928,32.718329],[-79.598147,32.725067],[-79.604886,32.731806],[-79.598147,32.731806],[-79.604886,32.738544],[-79.604886,32.745283],[-79.618366,32.752022],[-79.611626,32.752022],[-79.604886,32.752022],[-79.604886,32.75876],[-79.604886,32.765499],[-79.604886,32.772237],[-79.604886,32.778976],[-79.604886,32.785714],[-79.611626,32.792453],[-79.604886,32.792453],[-79.598147,32.792453],[-79.618366,32.799191],[-79.611626,32.799191],[-79.618366,32.80593]]},"properties":{"source_var":"chl","pixel_count":117,"strength_unit":"fold","strength_median":5.6559,"strength_max":8.6658}},{"type":"Feature","geometry":{"type":"LineString","coordinates":[[-77.084246,34.443396],[-77.165122,34.450135],[-77.158382,34.450135],[-77.151643,34.450135],[-77.084246,34.450135],[-77.050548,34.450135],[-77.198821,34.456873],[-77.192081,34.456873],[-77.185341,34.456873],[-77.178602,34.456873],[-77.165122,34.456873],[-77.151643,34.456873],[-77.097725,34.456873],[-77.090986,34.456873],[-77.084246,34.456873],[-77.077506,34.456873],[-77.070767,34.456873],[-77.064027,34.456873],[-77.057287,34.456873],[-77.050548,34.456873],[-77.043808,34.456873],[-77.037068,34.456873],[-77.030329,34.456873],[-77.023589,34.456873],[-77.016849,34.456873],[-77.178602,34.463612],[-77.171862,34.463612],[-77.165122,34.463612],[-77.158382,34.463612],[-77.151643,34.463612],[-77.097725,34.463612],[-77.016849,34.463612],[-77.178602,34.47035],[-77.151643,34.47035],[-77.144903,34.47035],[-77.138163,34.47035],[-77.131424,34.47035],[-77.124684,34.47035],[-77.097725,34.47035],[-77.178602,34.477089],[-77.124684,34.477089],[-77.097725,34.477089],[-77.124684,34.483827],[-77.117944,34.483827],[-77.111205,34.483827],[-77.104465,34.483827],[-77.097725,34.483827],[-77.131424,34.490566],[-77.124684,34.490566],[-77.111205,34.490566],[-77.097725,34.490566],[-77.131424,34.497305],[-77.111205,34.497305],[-77.104465,34.497305],[-77.097725,34.497305],[-77.151643,34.504043],[-77.144903,34.504043],[-77.138163,34.504043],[-77.104465,34.504043],[-77.144903,34.510782],[-77.111205,34.510782],[-77.104465,34.510782],[-77.097725,34.510782],[-77.144903,34.51752],[-77.111205,34.51752],[-77.097725,34.51752],[-77.090986,34.51752],[-77.084246,34.51752],[-77.077506,34.51752],[-77.070767,34.51752],[-77.064027,34.51752],[-77.057287,34.51752],[-77.050548,34.51752],[-77.043808,34.51752],[-77.037068,34.51752],[-77.030329,34.51752],[-77.023589,34.51752],[-77.016849,34.51752],[-77.165122,34.524259],[-77.158382,34.524259],[-77.151643,34.524259],[-77.144903,34.524259],[-77.138163,34.524259],[-77.131424,34.524259],[-77.124684,34.524259],[-77.117944,34.524259],[-77.111205,34.524259],[-77.104465,34.524259],[-77.097725,34.524259],[-77.050548,34.524259],[-77.037068,34.524259],[-77.124684,34.530997],[-77.111205,34.530997],[-77.050548,34.530997],[-77.043808,34.530997],[-77.037068,34.530997],[-77.030329,34.530997],[-77.124684,34.537736],[-77.117944,34.537736],[-77.111205,34.537736],[-77.050548,34.537736],[-77.030329,34.537736],[-77.023589,34.537736],[-77.117944,34.544474],[-77.023589,34.544474],[-77.016849,34.544474],[-77.01011,34.544474],[-77.00337,34.544474],[-77.124684,34.551213],[-77.117944,34.551213],[-77.023589,34.551213],[-77.124684,34.557951]]},"properties":{"source_var":"chl","pixel_count":112,"strength_unit":"fold","strength_median":3.4487,"strength_max":15.3734}},{"type":"Feature","geometry":{"type":"LineString","coordinates":[[-79.94861,32.549865],[-79.94187,32.549865],[-79.935131,32.549865],[-79.921651,32.549865],[-79.914912,32.549865],[-79.908172,32.549865],[-79.935131,32.556604],[-79.928391,32.556604],[-79.921651,32.556604],[-79.901432,32.556604],[-79.935131,32.563342],[-79.921651,32.563342],[-79.901432,32.563342],[-79.894693,32.563342],[-79.887953,32.563342],[-79.935131,32.570081],[-79.928391,32.570081],[-79.901432,32.570081],[-79.887953,32.570081],[-79.881213,32.570081],[-79.874473,32.570081],[-79.935131,32.576819],[-79.901432,32.576819],[-79.894693,32.576819],[-79.887953,32.576819],[-79.874473,32.576819],[-79.935131,32.583558],[-79.928391,32.583558],[-79.921651,32.583558],[-79.914912,32.583558],[-79.908172,32.583558],[-79.901432,32.583558],[-79.887953,32.583558],[-79.881213,32.583558],[-79.874473,32.583558],[-79.968829,32.590296],[-79.962089,32.590296],[-79.95535,32.590296],[-79.94861,32.590296],[-79.94187,32.590296],[-79.935131,32.590296],[-79.874473,32.590296],[-79.867734,32.590296],[-79.860994,32.590296],[-79.854254,32.590296],[-79.847515,32.590296],[-79.840775,32.590296],[-79.834035,32.590296],[-79.827296,32.590296],[-79.820556,32.590296],[-79.813816,32.590296],[-79.807077,32.590296],[-79.968829,32.597035],[-79.95535,32.597035],[-79.867734,32.597035],[-79.807077,32.597035],[-79.800337,32.597035],[-79.968829,32.603774],[-79.962089,32.603774],[-79.95535,32.603774],[-79.887953,32.603774],[-79.881213,32.603774],[-79.874473,32.603774],[-79.867734,32.603774],[-79.800337,32.603774],[-79.793597,32.603774],[-79.962089,32.610512],[-79.887953,32.610512],[-79.874473,32.610512],[-79.793597,32.610512],[-79.786858,32.610512],[-79.780118,32.610512],[-79.962089,32.617251],[-79.887953,32.617251],[-79.881213,32.617251],[-79.874473,32.617251],[-79.867734,32.617251],[-79.962089,32.623989],[-79.908172,32.623989],[-79.901432,32.623989],[-79.894693,32.623989],[-79.887953,32.623989],[-79.867734,32.623989],[-79.962089,32.630728],[-79.874473,32.630728],[-79.867734,32.630728],[-79.95535,32.637466],[-79.921651,32.637466],[-79.881213,32.637466],[-79.874473,32.637466],[-79.95535,32.644205],[-79.94861,32.644205],[-79.94187,32.644205],[-79.935131,32.644205],[-79.928391,32.644205],[-79.921651,32.644205],[-79.914912,32.644205],[-79.908172,32.644205],[-79.901432,32.644205],[-79.894693,32.644205],[-79.887953,32.644205],[-79.881213,32.644205]]},"properties":{"source_var":"chl","pixel_count":102,"strength_unit":"fold","strength_median":5.6559,"strength_max":6.3901}},{"type":"Feature","geometry":{"type":"LineString","coordinates":[[-79.557709,32.057951],[-79.557709,32.06469],[-79.557709,32.071429],[-79.577928,32.078167],[-79.571188,32.078167],[-79.564448,32.078167],[-79.557709,32.078167],[-79.550969,32.078167],[-79.544229,32.078167],[-79.537489,32.078167],[-79.571188,32.084906],[-79.537489,32.084906],[-79.577928,32.091644],[-79.571188,32.091644],[-79.564448,32.091644],[-79.53075,32.091644],[-79.52401,32.091644],[-79.51727,32.091644],[-79.510531,32.091644],[-79.503791,32.091644],[-79.564448,32.098383],[-79.557709,32.098383],[-79.550969,32.098383],[-79.544229,32.098383],[-79.537489,32.098383],[-79.53075,32.098383],[-79.503791,32.098383],[-79.564448,32.105121],[-79.537489,32.105121],[-79.503791,32.105121],[-79.497051,32.105121],[-79.490312,32.105121],[-79.577928,32.11186],[-79.564448,32.11186],[-79.537489,32.11186],[-79.503791,32.11186],[-79.490312,32.11186],[-79.483572,32.11186],[-79.476832,32.11186],[-79.470093,32.11186],[-79.463353,32.11186],[-79.577928,32.118598],[-79.571188,32.118598],[-79.564448,32.118598],[-79.537489,32.118598],[-79.503791,32.118598],[-79.497051,32.118598],[-79.490312,32.118598],[-79.456613,32.118598],[-79.618366,32.125337],[-79.611626,32.125337],[-79.604886,32.125337],[-79.598147,32.125337],[-79.591407,32.125337],[-79.584667,32.125337],[-79.577928,32.125337],[-79.571188,32.125337],[-79.537489,32.125337],[-79.497051,32.125337],[-79.456613,32.125337],[-79.564448,32.132075],[-79.557709,32.132075],[-79.550969,32.132075],[-79.544229,32.132075],[-79.537489,32.132075],[-79.53075,32.132075],[-79.52401,32.132075],[-79.51727,32.132075],[-79.510531,32.132075],[-79.503791,32.132075],[-79.497051,32.132075],[-79.490312,32.132075],[-79.483572,32.132075],[-79.476832,32.132075],[-79.470093,32.132075],[-79.463353,32.132075],[-79.456613,32.132075],[-79.503791,32.138814],[-79.456613,32.138814],[-79.449874,32.138814],[-79.443134,32.138814],[-79.436394,32.138814],[-79.510531,32.145553],[-79.503791,32.145553],[-79.497051,32.145553],[-79.456613,32.145553],[-79.51727,32.152291],[-79.510531,32.152291],[-79.490312,32.152291],[-79.483572,32.152291],[-79.476832,32.152291],[-79.470093,32.152291],[-79.463353,32.152291],[-79.456613,32.152291],[-79.51727,32.15903],[-79.456613,32.15903],[-79.51727,32.165768],[-79.51727,32.172507]]},"properties":{"source_var":"chl","pixel_count":98,"strength_unit":"fold","strength_median":2.5314,"strength_max":2.6177}},{"type":"Feature","geometry":{"type":"LineString","coordinates":[[-77.104465,31.83558],[-77.111205,31.842318],[-77.104465,31.842318],[-77.097725,31.842318],[-77.090986,31.842318],[-77.084246,31.842318],[-77.111205,31.849057],[-77.097725,31.849057],[-77.084246,31.849057],[-77.117944,31.855795],[-77.111205,31.855795],[-77.104465,31.855795],[-77.084246,31.855795],[-77.151643,31.862534],[-77.144903,31.862534],[-77.138163,31.862534],[-77.131424,31.862534],[-77.124684,31.862534],[-77.117944,31.862534],[-77.084246,31.862534],[-77.158382,31.869272],[-77.151643,31.869272],[-77.117944,31.869272],[-77.084246,31.869272],[-77.171862,31.876011],[-77.165122,31.876011],[-77.158382,31.876011],[-77.124684,31.876011],[-77.117944,31.876011],[-77.111205,31.876011],[-77.178602,31.882749],[-77.171862,31.882749],[-77.151643,31.882749],[-77.124684,31.882749],[-77.111205,31.882749],[-77.104465,31.882749],[-77.178602,31.889488],[-77.151643,31.889488],[-77.124684,31.889488],[-77.117944,31.889488],[-77.111205,31.889488],[-77.185341,31.896226],[-77.178602,31.896226],[-77.151643,31.896226],[-77.144903,31.896226],[-77.138163,31.896226],[-77.131424,31.896226],[-77.124684,31.896226],[-77.117944,31.896226],[-77.185341,31.902965],[-77.171862,31.902965],[-77.165122,31.902965],[-77.158382,31.902965],[-77.151643,31.902965],[-77.117944,31.902965],[-77.185341,31.909704],[-77.178602,31.909704],[-77.171862,31.909704],[-77.151643,31.909704],[-77.192081,31.916442],[-77.185341,31.916442],[-77.151643,31.916442],[-77.192081,31.923181],[-77.151643,31.923181],[-77.192081,31.929919],[-77.151643,31.929919],[-77.192081,31.936658],[-77.151643,31.936658],[-77.192081,31.943396],[-77.158382,31.943396],[-77.151643,31.943396],[-77.20556,31.950135],[-77.198821,31.950135],[-77.192081,31.950135],[-77.185341,31.950135],[-77.178602,31.950135],[-77.171862,31.950135],[-77.165122,31.950135],[-77.158382,31.950135],[-77.2123,31.956873],[-77.20556,31.956873],[-77.192081,31.956873],[-77.178602,31.956873],[-77.192081,31.963612],[-77.185341,31.963612],[-77.178602,31.963612],[-77.185341,31.97035],[-77.185341,31.977089],[-77.178602,31.977089],[-77.178602,31.983827],[-77.178602,31.990566],[-77.185341,31.997305],[-77.178602,31.997305],[-77.185341,32.004043],[-77.185341,32.010782]]},"properties":{"source_var":"chl","pixel_count":95,"strength_unit":"fold","strength_median":1.7618,"strength_max":1.7618}},{"type":"Feature","geometry":{"type":"LineString","coordinates":[[-77.84583,34.066038],[-77.764954,34.066038],[-77.84583,34.072776],[-77.764954,34.072776],[-77.84583,34.079515],[-77.771693,34.079515],[-77.764954,34.079515],[-77.758214,34.079515],[-77.751474,34.079515],[-77.744735,34.079515],[-77.737995,34.079515],[-77.84583,34.086253],[-77.778433,34.086253],[-77.771693,34.086253],[-77.737995,34.086253],[-77.84583,34.092992],[-77.785173,34.092992],[-77.778433,34.092992],[-77.737995,34.092992],[-77.731255,34.092992],[-77.84583,34.09973],[-77.83235,34.09973],[-77.825611,34.09973],[-77.818871,34.09973],[-77.812131,34.09973],[-77.805392,34.09973],[-77.798652,34.09973],[-77.791912,34.09973],[-77.785173,34.09973],[-77.731255,34.09973],[-77.711036,34.09973],[-77.704297,34.09973],[-77.697557,34.09973],[-77.84583,34.106469],[-77.83909,34.106469],[-77.83235,34.106469],[-77.731255,34.106469],[-77.724516,34.106469],[-77.717776,34.106469],[-77.711036,34.106469],[-77.697557,34.106469],[-77.690817,34.106469],[-77.684078,34.106469],[-77.677338,34.106469],[-77.670598,34.106469],[-77.663858,34.106469],[-77.83909,34.113208],[-77.731255,34.113208],[-77.717776,34.113208],[-77.711036,34.113208],[-77.704297,34.113208],[-77.697557,34.113208],[-77.690817,34.113208],[-77.83909,34.119946],[-77.737995,34.119946],[-77.731255,34.119946],[-77.724516,34.119946],[-77.690817,34.119946],[-77.84583,34.126685],[-77.83909,34.126685],[-77.83235,34.126685],[-77.737995,34.126685],[-77.690817,34.126685],[-77.84583,34.133423],[-77.83235,34.133423],[-77.737995,34.133423],[-77.690817,34.133423],[-77.83909,34.140162],[-77.83235,34.140162],[-77.825611,34.140162],[-77.744735,34.140162],[-77.737995,34.140162],[-77.731255,34.140162],[-77.724516,34.140162],[-77.690817,34.140162],[-77.825611,34.1469],[-77.744735,34.1469],[-77.690817,34.1469],[-77.825611,34.153639],[-77.697557,34.153639],[-77.690817,34.153639],[-77.697557,34.160377],[-77.697557,34.167116],[-77.690817,34.167116],[-77.684078,34.167116],[-77.677338,34.167116],[-77.670598,34.167116],[-77.663858,34.167116],[-77.657119,34.167116],[-77.697557,34.173854],[-77.657119,34.173854],[-77.650379,34.173854],[-77.697557,34.180593],[-77.697557,34.187332]]},"properties":{"source_var":"chl","pixel_count":94,"strength_unit":"fold","strength_median":7.4121,"strength_max":10.086}},{"type":"Feature","geometry":{"type":"LineString","coordinates":[[-78.108677,33.796496],[-78.108677,33.803235],[-78.074979,33.803235],[-78.216512,33.809973],[-78.108677,33.809973],[-78.074979,33.809973],[-78.068239,33.809973],[-78.0615,33.809973],[-78.216512,33.816712],[-78.108677,33.816712],[-78.081719,33.816712],[-78.074979,33.816712],[-78.216512,33.82345],[-78.115417,33.82345],[-78.108677,33.82345],[-78.101938,33.82345],[-78.095198,33.82345],[-78.088458,33.82345],[-78.081719,33.82345],[-78.216512,33.830189],[-78.115417,33.830189],[-78.101938,33.830189],[-78.223252,33.836927],[-78.216512,33.836927],[-78.209773,33.836927],[-78.203033,33.836927],[-78.196293,33.836927],[-78.189553,33.836927],[-78.142376,33.836927],[-78.135636,33.836927],[-78.128896,33.836927],[-78.122157,33.836927],[-78.115417,33.836927],[-78.108677,33.836927],[-78.101938,33.836927],[-78.223252,33.843666],[-78.209773,33.843666],[-78.203033,33.843666],[-78.189553,33.843666],[-78.182814,33.843666],[-78.176074,33.843666],[-78.169334,33.843666],[-78.162595,33.843666],[-78.155855,33.843666],[-78.149115,33.843666],[-78.142376,33.843666],[-78.122157,33.843666],[-78.223252,33.850404],[-78.216512,33.850404],[-78.209773,33.850404],[-78.203033,33.850404],[-78.196293,33.850404],[-78.189553,33.850404],[-78.122157,33.850404],[-78.122157,33.857143],[-78.122157,33.863881],[-78.122157,33.87062],[-78.122157,33.877358],[-78.223252,33.884097],[-78.122157,33.884097],[-78.223252,33.890836],[-78.216512,33.890836],[-78.209773,33.890836],[-78.203033,33.890836],[-78.196293,33.890836],[-78.189553,33.890836],[-78.182814,33.890836],[-78.176074,33.890836],[-78.169334,33.890836],[-78.162595,33.890836],[-78.155855,33.890836],[-78.149115,33.890836],[-78.142376,33.890836],[-78.135636,33.890836],[-78.128896,33.890836],[-78.122157,33.890836],[-78.115417,33.890836],[-78.108677,33.890836],[-78.101938,33.890836],[-78.223252,33.897574],[-78.209773,33.897574],[-78.128896,33.897574],[-78.101938,33.897574],[-78.223252,33.904313],[-78.216512,33.904313],[-78.209773,33.904313],[-78.128896,33.904313],[-78.108677,33.904313],[-78.128896,33.911051],[-78.122157,33.911051],[-78.115417,33.911051],[-78.108677,33.911051]]},"properties":{"source_var":"chl","pixel_count":92,"strength_unit":"fold","strength_median":5.8314,"strength_max":6.7536}},{"type":"Feature","geometry":{"type":"LineString","coordinates":[[-78.027801,33.560647],[-78.021061,33.560647],[-78.034541,33.567385],[-78.027801,33.567385],[-78.034541,33.574124],[-78.034541,33.580863],[-78.0615,33.587601],[-78.05476,33.587601],[-78.04802,33.587601],[-78.041281,33.587601],[-78.034541,33.587601],[-78.027801,33.587601],[-78.021061,33.587601],[-78.014322,33.587601],[-78.007582,33.587601],[-78.000842,33.587601],[-77.994103,33.587601],[-77.987363,33.587601],[-77.980623,33.587601],[-78.068239,33.59434],[-78.0615,33.59434],[-78.041281,33.59434],[-78.034541,33.59434],[-78.027801,33.59434],[-77.994103,33.59434],[-77.980623,33.59434],[-78.041281,33.601078],[-78.027801,33.601078],[-77.994103,33.601078],[-77.987363,33.601078],[-77.980623,33.601078],[-77.973884,33.601078],[-77.967144,33.601078],[-77.960404,33.601078],[-77.953665,33.601078],[-77.946925,33.601078],[-77.940185,33.601078],[-78.034541,33.607817],[-78.027801,33.607817],[-78.021061,33.607817],[-77.987363,33.607817],[-77.980623,33.607817],[-77.973884,33.607817],[-77.946925,33.607817],[-78.021061,33.614555],[-78.014322,33.614555],[-78.007582,33.614555],[-78.000842,33.614555],[-77.994103,33.614555],[-77.987363,33.614555],[-77.973884,33.614555],[-77.946925,33.614555],[-78.021061,33.621294],[-77.973884,33.621294],[-77.946925,33.621294],[-78.034541,33.628032],[-78.027801,33.628032],[-78.021061,33.628032],[-77.973884,33.628032],[-77.946925,33.628032],[-78.04802,33.634771],[-78.041281,33.634771],[-78.034541,33.634771],[-77.973884,33.634771],[-77.946925,33.634771],[-78.034541,33.641509],[-78.034541,33.648248],[-78.034541,33.654987],[-78.0615,33.661725],[-78.05476,33.661725],[-78.04802,33.661725],[-78.041281,33.661725],[-78.034541,33.661725],[-78.034541,33.668464],[-78.014322,33.668464],[-78.007582,33.668464],[-78.034541,33.675202],[-78.021061,33.675202],[-78.014322,33.675202],[-78.034541,33.681941],[-78.027801,33.681941],[-78.021061,33.681941],[-78.027801,33.688679],[-78.041281,33.695418],[-78.034541,33.695418],[-78.027801,33.695418],[-78.041281,33.702156],[-78.041281,33.708895],[-78.041281,33.715633],[-78.041281,33.722372],[-78.041281,33.729111]]},"properties":{"source_var":"chl","pixel_count":91,"strength_unit":"fold","strength_median":3.2924,"strength_max":5.8314}},{"type":"Feature","geometry":{"type":"LineString","coordinates":[[-78.641112,32.442049],[-78.641112,32.448787],[-78.668071,32.455526],[-78.661331,32.455526],[-78.654591,32.455526],[-78.647852,32.455526],[-78.641112,32.455526],[-78.641112,32.462264],[-78.641112,32.469003],[-78.641112,32.475741],[-78.614153,32.475741],[-78.607414,32.475741],[-78.600674,32.475741],[-78.593934,32.475741],[-78.641112,32.48248],[-78.634372,32.48248],[-78.627633,32.48248],[-78.620893,32.48248],[-78.614153,32.48248],[-78.587195,32.48248],[-78.580455,32.48248],[-78.573715,32.48248],[-78.566976,32.48248],[-78.647852,32.489218],[-78.641112,32.489218],[-78.620893,32.489218],[-78.593934,32.489218],[-78.587195,32.489218],[-78.566976,32.489218],[-78.620893,32.495957],[-78.614153,32.495957],[-78.607414,32.495957],[-78.600674,32.495957],[-78.587195,32.495957],[-78.566976,32.495957],[-78.620893,32.502695],[-78.607414,32.502695],[-78.600674,32.502695],[-78.593934,32.502695],[-78.587195,32.502695],[-78.566976,32.502695],[-78.641112,32.509434],[-78.634372,32.509434],[-78.627633,32.509434],[-78.620893,32.509434],[-78.614153,32.509434],[-78.593934,32.509434],[-78.566976,32.509434],[-78.634372,32.516173],[-78.620893,32.516173],[-78.614153,32.516173],[-78.607414,32.516173],[-78.600674,32.516173],[-78.593934,32.516173],[-78.587195,32.516173],[-78.641112,32.522911],[-78.634372,32.522911],[-78.627633,32.522911],[-78.620893,32.522911],[-78.587195,32.522911],[-78.654591,32.52965],[-78.647852,32.52965],[-78.641112,32.52965],[-78.627633,32.52965],[-78.587195,32.52965],[-78.641112,32.536388],[-78.627633,32.536388],[-78.641112,32.543127],[-78.634372,32.543127],[-78.627633,32.543127],[-78.620893,32.543127],[-78.634372,32.549865],[-78.620893,32.549865],[-78.627633,32.556604],[-78.620893,32.556604],[-78.620893,32.563342],[-78.614153,32.563342],[-78.607414,32.563342],[-78.600674,32.563342],[-78.600674,32.570081],[-78.593934,32.570081],[-78.587195,32.570081],[-78.580455,32.570081],[-78.573715,32.570081],[-78.566976,32.570081],[-78.600674,32.576819]]},"properties":{"source_var":"chl","pixel_count":86,"strength_unit":"fold","strength_median":1.7254,"strength_max":1.8811}},{"type":"Feature","geometry":{"type":"LineString","coordinates":[[-78.991575,33.513477],[-78.978096,33.513477],[-78.971356,33.513477],[-78.964617,33.513477],[-78.991575,33.520216],[-78.984836,33.520216],[-78.978096,33.520216],[-78.964617,33.520216],[-78.957877,33.520216],[-78.883741,33.520216],[-78.978096,33.526954],[-78.971356,33.526954],[-78.957877,33.526954],[-78.883741,33.526954],[-79.011794,33.533693],[-79.005055,33.533693],[-78.998315,33.533693],[-78.984836,33.533693],[-78.978096,33.533693],[-78.971356,33.533693],[-78.964617,33.533693],[-78.957877,33.533693],[-78.951137,33.533693],[-78.89048,33.533693],[-78.883741,33.533693],[-78.877001,33.533693],[-78.870261,33.533693],[-79.011794,33.540431],[-78.998315,33.540431],[-78.991575,33.540431],[-78.984836,33.540431],[-78.971356,33.540431],[-78.964617,33.540431],[-78.951137,33.540431],[-78.89048,33.540431],[-79.011794,33.54717],[-79.005055,33.54717],[-78.998315,33.54717],[-78.984836,33.54717],[-78.978096,33.54717],[-78.971356,33.54717],[-78.964617,33.54717],[-78.957877,33.54717],[-78.951137,33.54717],[-78.944398,33.54717],[-78.937658,33.54717],[-78.930918,33.54717],[-78.89722,33.54717],[-78.89048,33.54717],[-78.964617,33.553908],[-78.957877,33.553908],[-78.944398,33.553908],[-78.924179,33.553908],[-78.90396,33.553908],[-78.89048,33.553908],[-78.971356,33.560647],[-78.964617,33.560647],[-78.957877,33.560647],[-78.951137,33.560647],[-78.944398,33.560647],[-78.924179,33.560647],[-78.917439,33.560647],[-78.910699,33.560647],[-78.90396,33.560647],[-78.89722,33.560647],[-78.89048,33.560647],[-78.971356,33.567385],[-78.957877,33.567385],[-78.951137,33.567385],[-78.924179,33.567385],[-78.910699,33.567385],[-78.971356,33.574124],[-78.964617,33.574124],[-78.957877,33.574124],[-78.951137,33.574124],[-78.944398,33.574124],[-78.937658,33.574124],[-78.930918,33.574124],[-78.924179,33.574124],[-78.917439,33.574124],[-78.910699,33.574124],[-78.944398,33.580863],[-78.930918,33.580863],[-78.944398,33.587601],[-78.937658,33.587601],[-78.930918,33.587601]]},"properties":{"source_var":"chl","pixel_count":86,"strength_unit":"fold","strength_median":4.4355,"strength_max":5.0363}},{"type":"Feature","geometry":{"type":"LineString","coordinates":[[-79.025274,33.088949],[-79.025274,33.095687],[-79.032013,33.102426],[-79.025274,33.102426],[-79.018534,33.102426],[-79.032013,33.109164],[-79.018534,33.109164],[-79.065712,33.115903],[-79.058972,33.115903],[-79.052233,33.115903],[-79.045493,33.115903],[-79.038753,33.115903],[-79.032013,33.115903],[-79.025274,33.115903],[-79.018534,33.115903],[-79.045493,33.122642],[-79.018534,33.122642],[-79.045493,33.12938],[-79.018534,33.12938],[-79.045493,33.136119],[-79.018534,33.136119],[-79.052233,33.142857],[-79.045493,33.142857],[-79.038753,33.142857],[-79.025274,33.142857],[-79.018534,33.142857],[-79.011794,33.142857],[-79.005055,33.142857],[-79.052233,33.149596],[-79.038753,33.149596],[-79.032013,33.149596],[-79.025274,33.149596],[-79.011794,33.149596],[-79.119629,33.156334],[-79.065712,33.156334],[-79.058972,33.156334],[-79.052233,33.156334],[-79.045493,33.156334],[-79.025274,33.156334],[-79.018534,33.156334],[-79.119629,33.163073],[-79.085931,33.163073],[-79.079191,33.163073],[-79.072452,33.163073],[-79.065712,33.163073],[-79.052233,33.163073],[-79.018534,33.163073],[-79.119629,33.169811],[-79.085931,33.169811],[-79.065712,33.169811],[-79.058972,33.169811],[-79.052233,33.169811],[-79.045493,33.169811],[-79.018534,33.169811],[-79.119629,33.17655],[-79.085931,33.17655],[-79.065712,33.17655],[-79.045493,33.17655],[-79.119629,33.183288],[-79.092671,33.183288],[-79.065712,33.183288],[-79.045493,33.183288],[-79.038753,33.183288],[-79.153328,33.190027],[-79.146588,33.190027],[-79.139848,33.190027],[-79.133109,33.190027],[-79.126369,33.190027],[-79.119629,33.190027],[-79.11289,33.190027],[-79.10615,33.190027],[-79.09941,33.190027],[-79.092671,33.190027],[-79.065712,33.190027],[-79.058972,33.190027],[-79.052233,33.190027],[-79.038753,33.190027],[-79.092671,33.196765],[-79.085931,33.196765],[-79.079191,33.196765],[-79.072452,33.196765],[-79.065712,33.196765],[-79.065712,33.203504]]},"properties":{"source_var":"chl","pixel_count":83,"strength_unit":"fold","strength_median":5.2954,"strength_max":6.9267}},{"type":"Feature","geometry":{"type":"LineString","coordinates":[[-80.224937,32.361186],[-80.272115,32.367925],[-80.245156,32.367925],[-80.238416,32.367925],[-80.231676,32.367925],[-80.224937,32.367925],[-80.1508,32.367925],[-80.272115,32.374663],[-80.245156,32.374663],[-80.231676,32.374663],[-80.1508,32.374663],[-80.272115,32.381402],[-80.265375,32.381402],[-80.258635,32.381402],[-80.251896,32.381402],[-80.245156,32.381402],[-80.238416,32.381402],[-80.231676,32.381402],[-80.224937,32.381402],[-80.218197,32.381402],[-80.1508,32.381402],[-80.272115,32.38814],[-80.258635,32.38814],[-80.231676,32.38814],[-80.218197,32.38814],[-80.1508,32.38814],[-80.272115,32.394879],[-80.265375,32.394879],[-80.258635,32.394879],[-80.231676,32.394879],[-80.224937,32.394879],[-80.218197,32.394879],[-80.1508,32.394879],[-80.130581,32.394879],[-80.123842,32.394879],[-80.272115,32.401617],[-80.218197,32.401617],[-80.211457,32.401617],[-80.204718,32.401617],[-80.177759,32.401617],[-80.171019,32.401617],[-80.16428,32.401617],[-80.15754,32.401617],[-80.1508,32.401617],[-80.144061,32.401617],[-80.137321,32.401617],[-80.130581,32.401617],[-80.218197,32.408356],[-80.204718,32.408356],[-80.184499,32.408356],[-80.177759,32.408356],[-80.130581,32.408356],[-80.218197,32.415094],[-80.211457,32.415094],[-80.204718,32.415094],[-80.191238,32.415094],[-80.184499,32.415094],[-80.218197,32.421833],[-80.204718,32.421833],[-80.197978,32.421833],[-80.191238,32.421833],[-80.224937,32.428571],[-80.218197,32.428571],[-80.197978,32.428571],[-80.191238,32.428571],[-80.184499,32.428571],[-80.177759,32.428571],[-80.171019,32.428571],[-80.16428,32.428571],[-80.231676,32.43531],[-80.224937,32.43531],[-80.197978,32.43531],[-80.231676,32.442049],[-80.231676,32.448787],[-80.231676,32.455526],[-80.231676,32.462264],[-80.231676,32.469003],[-80.231676,32.475741],[-80.224937,32.475741],[-80.218197,32.475741],[-80.211457,32.475741]]},"properties":{"source_var":"chl","pixel_count":81,"strength_unit":"fold","strength_median":5.917,"strength_max":6.5018}},{"type":"Feature","geometry":{"type":"LineString","coordinates":[[-79.766639,31.896226],[-79.766639,31.902965],[-79.766639,31.909704],[-79.766639,31.916442],[-79.766639,31.923181],[-79.766639,31.929919],[-79.74642,31.929919],[-79.73968,31.929919],[-79.73294,31.929919],[-79.726201,31.929919],[-79.719461,31.929919],[-79.712721,31.929919],[-79.766639,31.936658],[-79.759899,31.936658],[-79.753159,31.936658],[-79.74642,31.936658],[-79.73294,31.936658],[-79.908172,31.943396],[-79.901432,31.943396],[-79.894693,31.943396],[-79.827296,31.943396],[-79.780118,31.943396],[-79.773378,31.943396],[-79.766639,31.943396],[-79.74642,31.943396],[-79.73968,31.943396],[-79.73294,31.943396],[-79.894693,31.950135],[-79.867734,31.950135],[-79.860994,31.950135],[-79.854254,31.950135],[-79.847515,31.950135],[-79.840775,31.950135],[-79.834035,31.950135],[-79.827296,31.950135],[-79.820556,31.950135],[-79.780118,31.950135],[-79.766639,31.950135],[-79.901432,31.956873],[-79.894693,31.956873],[-79.887953,31.956873],[-79.881213,31.956873],[-79.874473,31.956873],[-79.867734,31.956873],[-79.854254,31.956873],[-79.820556,31.956873],[-79.813816,31.956873],[-79.807077,31.956873],[-79.800337,31.956873],[-79.793597,31.956873],[-79.786858,31.956873],[-79.780118,31.956873],[-79.773378,31.956873],[-79.901432,31.963612],[-79.887953,31.963612],[-79.874473,31.963612],[-79.867734,31.963612],[-79.860994,31.963612],[-79.854254,31.963612],[-79.820556,31.963612],[-79.807077,31.963612],[-79.773378,31.963612],[-79.766639,31.963612],[-79.759899,31.963612],[-79.901432,31.97035],[-79.894693,31.97035],[-79.874473,31.97035],[-79.820556,31.97035],[-79.813816,31.97035],[-79.807077,31.97035],[-79.800337,31.97035],[-79.874473,31.977089],[-79.813816,31.977089],[-79.874473,31.983827],[-79.820556,31.983827],[-79.813816,31.983827],[-79.840775,31.990566],[-79.834035,31.990566],[-79.827296,31.990566],[-79.820556,31.990566]]},"properties":{"source_var":"chl","pixel_count":80,"strength_unit":"fold","strength_median":2.6365,"strength_max":2.6365}},{"type":"Feature","geometry":{"type":"LineString","coordinates":[[-80.912384,31.721024],[-80.858467,31.721024],[-80.912384,31.727763],[-80.905644,31.727763],[-80.871946,31.727763],[-80.865206,31.727763],[-80.858467,31.727763],[-80.851727,31.727763],[-80.905644,31.734501],[-80.871946,31.734501],[-80.844987,31.734501],[-80.905644,31.74124],[-80.898905,31.74124],[-80.892165,31.74124],[-80.885425,31.74124],[-80.878686,31.74124],[-80.871946,31.74124],[-80.844987,31.74124],[-80.818029,31.74124],[-80.811289,31.74124],[-80.804549,31.74124],[-80.871946,31.747978],[-80.844987,31.747978],[-80.838248,31.747978],[-80.831508,31.747978],[-80.824768,31.747978],[-80.818029,31.747978],[-80.804549,31.747978],[-80.871946,31.754717],[-80.865206,31.754717],[-80.838248,31.754717],[-80.824768,31.754717],[-80.818029,31.754717],[-80.811289,31.754717],[-80.804549,31.754717],[-80.865206,31.761456],[-80.858467,31.761456],[-80.851727,31.761456],[-80.844987,31.761456],[-80.838248,31.761456],[-80.831508,31.761456],[-80.811289,31.761456],[-80.865206,31.768194],[-80.838248,31.768194],[-80.811289,31.768194],[-80.865206,31.774933],[-80.838248,31.774933],[-80.831508,31.774933],[-80.824768,31.774933],[-80.818029,31.774933],[-80.811289,31.774933],[-80.865206,31.781671],[-80.838248,31.781671],[-80.811289,31.781671],[-80.865206,31.78841],[-80.838248,31.78841],[-80.865206,31.795148],[-80.838248,31.795148],[-80.865206,31.801887],[-80.838248,31.801887],[-80.865206,31.808625],[-80.838248,31.808625],[-80.858467,31.815364],[-80.838248,31.815364],[-80.858467,31.822102],[-80.851727,31.822102],[-80.844987,31.822102],[-80.838248,31.822102],[-80.865206,31.828841],[-80.858467,31.828841],[-80.871946,31.83558],[-80.865206,31.83558],[-80.878686,31.842318],[-80.865206,31.842318],[-80.878686,31.849057],[-80.871946,31.849057],[-80.865206,31.849057],[-80.858467,31.849057],[-80.851727,31.849057]]},"properties":{"source_var":"chl","pixel_count":79,"strength_unit":"fold","strength_median":4.7001,"strength_max":5.9604}},{"type":"Feature","geometry":{"type":"LineString","coordinates":[[-80.137321,32.455526],[-80.137321,32.462264],[-80.110362,32.462264],[-80.103623,32.462264],[-80.096883,32.462264],[-80.137321,32.469003],[-80.110362,32.469003],[-80.096883,32.469003],[-80.137321,32.475741],[-80.110362,32.475741],[-80.103623,32.475741],[-80.096883,32.475741],[-80.056445,32.475741],[-80.137321,32.48248],[-80.110362,32.48248],[-80.096883,32.48248],[-80.090143,32.48248],[-80.083404,32.48248],[-80.076664,32.48248],[-80.069924,32.48248],[-80.063184,32.48248],[-80.056445,32.48248],[-80.177759,32.489218],[-80.171019,32.489218],[-80.16428,32.489218],[-80.15754,32.489218],[-80.1508,32.489218],[-80.144061,32.489218],[-80.137321,32.489218],[-80.130581,32.489218],[-80.123842,32.489218],[-80.117102,32.489218],[-80.110362,32.489218],[-80.076664,32.489218],[-80.063184,32.489218],[-80.056445,32.489218],[-80.049705,32.489218],[-80.042965,32.489218],[-80.171019,32.495957],[-80.110362,32.495957],[-80.069924,32.495957],[-80.063184,32.495957],[-80.056445,32.495957],[-80.042965,32.495957],[-80.171019,32.502695],[-80.056445,32.502695],[-80.049705,32.502695],[-80.042965,32.502695],[-80.022746,32.502695],[-80.016007,32.502695],[-80.009267,32.502695],[-80.171019,32.509434],[-80.096883,32.509434],[-80.049705,32.509434],[-80.022746,32.509434],[-80.009267,32.509434],[-80.096883,32.516173],[-80.090143,32.516173],[-80.083404,32.516173],[-80.076664,32.516173],[-80.069924,32.516173],[-80.063184,32.516173],[-80.056445,32.516173],[-80.049705,32.516173],[-80.042965,32.516173],[-80.022746,32.516173],[-80.016007,32.516173],[-80.009267,32.516173],[-80.042965,32.522911],[-80.036226,32.522911],[-80.029486,32.522911],[-80.022746,32.522911],[-80.016007,32.522911],[-80.049705,32.52965],[-80.042965,32.52965],[-80.049705,32.536388]]},"properties":{"source_var":"chl","pixel_count":76,"strength_unit":"fold","strength_median":6.1937,"strength_max":6.5018}},{"type":"Feature","geometry":{"type":"LineString","coordinates":[[-79.005055,33.22372],[-78.998315,33.22372],[-79.011794,33.230458],[-78.998315,33.230458],[-79.018534,33.237197],[-79.011794,33.237197],[-79.005055,33.237197],[-78.998315,33.237197],[-79.005055,33.243935],[-79.005055,33.250674],[-78.998315,33.250674],[-78.991575,33.250674],[-78.951137,33.250674],[-79.018534,33.257412],[-79.011794,33.257412],[-79.005055,33.257412],[-78.991575,33.257412],[-78.984836,33.257412],[-78.957877,33.257412],[-78.951137,33.257412],[-79.025274,33.264151],[-79.018534,33.264151],[-79.005055,33.264151],[-78.998315,33.264151],[-78.984836,33.264151],[-78.964617,33.264151],[-78.957877,33.264151],[-79.038753,33.270889],[-79.025274,33.270889],[-79.011794,33.270889],[-79.005055,33.270889],[-78.998315,33.270889],[-78.991575,33.270889],[-78.984836,33.270889],[-78.978096,33.270889],[-78.971356,33.270889],[-78.964617,33.270889],[-79.045493,33.277628],[-79.038753,33.277628],[-79.032013,33.277628],[-79.025274,33.277628],[-79.018534,33.277628],[-79.011794,33.277628],[-78.978096,33.277628],[-79.032013,33.284367],[-79.032013,33.291105],[-79.038753,33.297844],[-79.032013,33.297844],[-79.025274,33.297844],[-79.065712,33.304582],[-79.038753,33.304582],[-79.025274,33.304582],[-79.065712,33.311321],[-79.045493,33.311321],[-79.038753,33.311321],[-79.032013,33.311321],[-79.025274,33.311321],[-79.018534,33.311321],[-79.011794,33.311321],[-79.065712,33.318059],[-79.045493,33.318059],[-79.085931,33.324798],[-79.079191,33.324798],[-79.072452,33.324798],[-79.065712,33.324798],[-79.058972,33.324798],[-79.052233,33.324798],[-79.045493,33.324798],[-79.052233,33.331536],[-79.038753,33.331536],[-79.052233,33.338275],[-79.045493,33.338275],[-79.038753,33.338275],[-79.032013,33.338275],[-79.025274,33.338275],[-79.052233,33.345013]]},"properties":{"source_var":"chl","pixel_count":76,"strength_unit":"fold","strength_median":5.0574,"strength_max":5.632}},{"type":"Feature","geometry":{"type":"LineString","coordinates":[[-78.89722,33.318059],[-78.89722,33.324798],[-78.89722,33.331536],[-78.89048,33.331536],[-78.883741,33.331536],[-78.877001,33.331536],[-78.863521,33.331536],[-78.856782,33.331536],[-78.89048,33.338275],[-78.877001,33.338275],[-78.870261,33.338275],[-78.863521,33.338275],[-78.90396,33.345013],[-78.89722,33.345013],[-78.89048,33.345013],[-78.883741,33.345013],[-78.877001,33.345013],[-78.89722,33.351752],[-78.89722,33.358491],[-78.89722,33.365229],[-78.89048,33.365229],[-78.883741,33.365229],[-78.877001,33.365229],[-78.870261,33.365229],[-78.863521,33.365229],[-78.856782,33.365229],[-78.850042,33.365229],[-78.843302,33.365229],[-78.951137,33.371968],[-78.944398,33.371968],[-78.910699,33.371968],[-78.90396,33.371968],[-78.89722,33.371968],[-78.843302,33.371968],[-78.957877,33.378706],[-78.944398,33.378706],[-78.937658,33.378706],[-78.930918,33.378706],[-78.924179,33.378706],[-78.917439,33.378706],[-78.910699,33.378706],[-78.89722,33.378706],[-78.964617,33.385445],[-78.957877,33.385445],[-78.951137,33.385445],[-78.944398,33.385445],[-78.917439,33.385445],[-78.89722,33.385445],[-78.89048,33.385445],[-78.957877,33.392183],[-78.917439,33.392183],[-78.89722,33.392183],[-78.957877,33.398922],[-78.917439,33.398922],[-78.89722,33.398922],[-78.957877,33.40566],[-78.917439,33.40566],[-78.89722,33.40566],[-78.957877,33.412399],[-78.917439,33.412399],[-78.89722,33.412399],[-78.917439,33.419137],[-78.89722,33.419137],[-78.910699,33.425876],[-78.90396,33.425876],[-78.89722,33.425876],[-78.910699,33.432615],[-78.910699,33.439353],[-78.917439,33.446092],[-78.910699,33.446092],[-78.917439,33.45283],[-78.930918,33.459569],[-78.924179,33.459569],[-78.917439,33.459569]]},"properties":{"source_var":"chl","pixel_count":74,"strength_unit":"fold","strength_median":2.8402,"strength_max":3.747}},{"type":"Feature","geometry":{"type":"LineString","coordinates":[[-79.254423,32.927224],[-79.254423,32.933962],[-79.247683,32.933962],[-79.240944,32.933962],[-79.261163,32.940701],[-79.254423,32.940701],[-79.261163,32.947439],[-79.261163,32.954178],[-79.261163,32.960916],[-79.261163,32.967655],[-79.254423,32.967655],[-79.220725,32.967655],[-79.254423,32.974394],[-79.247683,32.974394],[-79.240944,32.974394],[-79.220725,32.974394],[-79.254423,32.981132],[-79.240944,32.981132],[-79.220725,32.981132],[-79.267902,32.987871],[-79.261163,32.987871],[-79.240944,32.987871],[-79.234204,32.987871],[-79.227464,32.987871],[-79.220725,32.987871],[-79.261163,32.994609],[-79.247683,32.994609],[-79.240944,32.994609],[-79.220725,32.994609],[-79.213985,32.994609],[-79.261163,33.001348],[-79.254423,33.001348],[-79.247683,33.001348],[-79.213985,33.001348],[-79.254423,33.008086],[-79.213985,33.008086],[-79.207245,33.008086],[-79.200505,33.008086],[-79.193766,33.008086],[-79.274642,33.014825],[-79.267902,33.014825],[-79.261163,33.014825],[-79.254423,33.014825],[-79.247683,33.014825],[-79.240944,33.014825],[-79.234204,33.014825],[-79.227464,33.014825],[-79.220725,33.014825],[-79.288121,33.021563],[-79.281382,33.021563],[-79.274642,33.021563],[-79.254423,33.021563],[-79.288121,33.028302],[-79.274642,33.028302],[-79.254423,33.028302],[-79.288121,33.03504],[-79.281382,33.03504],[-79.254423,33.03504],[-79.254423,33.041779],[-79.247683,33.041779],[-79.240944,33.041779],[-79.247683,33.048518],[-79.234204,33.048518],[-79.247683,33.055256],[-79.240944,33.055256],[-79.234204,33.055256],[-79.234204,33.061995],[-79.234204,33.068733],[-79.234204,33.075472],[-79.234204,33.08221],[-79.227464,33.08221]]},"properties":{"source_var":"chl","pixel_count":71,"strength_unit":"fold","strength_median":9.0767,"strength_max":9.0767}},{"type":"Feature","geometry":{"type":"LineString","coordinates":[[-80.595619,32.06469],[-80.595619,32.071429],[-80.622578,32.078167],[-80.602359,32.078167],[-80.595619,32.078167],[-80.629318,32.084906],[-80.622578,32.084906],[-80.615838,32.084906],[-80.609099,32.084906],[-80.602359,32.084906],[-80.629318,32.091644],[-80.615838,32.091644],[-80.602359,32.091644],[-80.5754,32.091644],[-80.609099,32.098383],[-80.602359,32.098383],[-80.595619,32.098383],[-80.58888,32.098383],[-80.58214,32.098383],[-80.5754,32.098383],[-80.548441,32.098383],[-80.541702,32.098383],[-80.534962,32.098383],[-80.602359,32.105121],[-80.5754,32.105121],[-80.548441,32.105121],[-80.602359,32.11186],[-80.5754,32.11186],[-80.548441,32.11186],[-80.602359,32.118598],[-80.5754,32.118598],[-80.548441,32.118598],[-80.602359,32.125337],[-80.5754,32.125337],[-80.548441,32.125337],[-80.602359,32.132075],[-80.595619,32.132075],[-80.58888,32.132075],[-80.58214,32.132075],[-80.5754,32.132075],[-80.548441,32.132075],[-80.595619,32.138814],[-80.5754,32.138814],[-80.56866,32.138814],[-80.561921,32.138814],[-80.548441,32.138814],[-80.595619,32.145553],[-80.555181,32.145553],[-80.548441,32.145553],[-80.595619,32.152291],[-80.555181,32.152291],[-80.595619,32.15903],[-80.58888,32.15903],[-80.58214,32.15903],[-80.555181,32.15903],[-80.548441,32.15903],[-80.595619,32.165768],[-80.58214,32.165768],[-80.5754,32.165768],[-80.56866,32.165768],[-80.561921,32.165768],[-80.555181,32.165768],[-80.595619,32.172507],[-80.58888,32.172507],[-80.58214,32.172507],[-80.5754,32.172507],[-80.561921,32.172507],[-80.5754,32.179245],[-80.56866,32.179245],[-80.561921,32.179245]]},"properties":{"source_var":"chl","pixel_count":70,"strength_unit":"fold","strength_median":5.7565,"strength_max":5.7565}},{"type":"Feature","geometry":{"type":"LineString","coordinates":[[-76.679865,34.537736],[-76.673126,34.537736],[-76.693345,34.544474],[-76.686605,34.544474],[-76.679865,34.544474],[-76.727043,34.551213],[-76.720303,34.551213],[-76.713564,34.551213],[-76.706824,34.551213],[-76.700084,34.551213],[-76.679865,34.551213],[-76.706824,34.557951],[-76.679865,34.557951],[-76.713564,34.56469],[-76.706824,34.56469],[-76.700084,34.56469],[-76.679865,34.56469],[-76.713564,34.571429],[-76.679865,34.571429],[-76.720303,34.578167],[-76.713564,34.578167],[-76.706824,34.578167],[-76.686605,34.578167],[-76.679865,34.578167],[-76.720303,34.584906],[-76.700084,34.584906],[-76.693345,34.584906],[-76.686605,34.584906],[-76.679865,34.584906],[-76.673126,34.584906],[-76.666386,34.584906],[-76.720303,34.591644],[-76.686605,34.591644],[-76.673126,34.591644],[-76.720303,34.598383],[-76.686605,34.598383],[-76.679865,34.598383],[-76.673126,34.598383],[-76.720303,34.605121],[-76.713564,34.605121],[-76.706824,34.605121],[-76.693345,34.605121],[-76.686605,34.605121],[-76.679865,34.605121],[-76.706824,34.61186],[-76.700084,34.61186],[-76.693345,34.61186],[-76.679865,34.61186],[-76.706824,34.618598],[-76.693345,34.618598],[-76.686605,34.618598],[-76.679865,34.618598],[-76.673126,34.618598],[-76.673126,34.625337],[-76.673126,34.632075],[-76.673126,34.638814],[-76.673126,34.645553],[-76.686605,34.652291],[-76.679865,34.652291],[-76.673126,34.652291],[-76.666386,34.652291],[-76.659646,34.652291],[-76.652906,34.652291],[-76.686605,34.65903],[-76.673126,34.65903],[-76.652906,34.65903],[-76.673126,34.665768],[-76.652906,34.665768]]},"properties":{"source_var":"chl","pixel_count":68,"strength_unit":"fold","strength_median":17.0143,"strength_max":17.0143}},{"type":"Feature","geometry":{"type":"LineString","coordinates":[[-80.231676,31.471698],[-80.231676,31.478437],[-80.231676,31.485175],[-80.231676,31.491914],[-80.231676,31.498652],[-80.224937,31.498652],[-80.218197,31.498652],[-80.211457,31.498652],[-80.238416,31.505391],[-80.231676,31.505391],[-80.204718,31.505391],[-80.238416,31.512129],[-80.204718,31.512129],[-80.184499,31.512129],[-80.177759,31.512129],[-80.238416,31.518868],[-80.211457,31.518868],[-80.204718,31.518868],[-80.197978,31.518868],[-80.191238,31.518868],[-80.184499,31.518868],[-80.238416,31.525606],[-80.218197,31.525606],[-80.211457,31.525606],[-80.191238,31.525606],[-80.238416,31.532345],[-80.231676,31.532345],[-80.224937,31.532345],[-80.218197,31.532345],[-80.191238,31.532345],[-80.251896,31.539084],[-80.245156,31.539084],[-80.238416,31.539084],[-80.231676,31.539084],[-80.191238,31.539084],[-80.231676,31.545822],[-80.191238,31.545822],[-80.231676,31.552561],[-80.224937,31.552561],[-80.218197,31.552561],[-80.211457,31.552561],[-80.204718,31.552561],[-80.197978,31.552561],[-80.191238,31.552561],[-80.184499,31.552561],[-80.218197,31.559299],[-80.184499,31.559299],[-80.218197,31.566038],[-80.184499,31.566038],[-80.177759,31.566038],[-80.171019,31.566038],[-80.211457,31.572776],[-80.204718,31.572776],[-80.197978,31.572776],[-80.191238,31.572776],[-80.184499,31.572776],[-80.204718,31.579515],[-80.204718,31.586253],[-80.224937,31.592992],[-80.218197,31.592992],[-80.211457,31.592992],[-80.204718,31.592992],[-80.204718,31.59973],[-80.204718,31.606469],[-80.197978,31.606469],[-80.191238,31.606469]]},"properties":{"source_var":"chl","pixel_count":66,"strength_unit":"fold","strength_median":2.9472,"strength_max":2.9472}},{"type":"Feature","geometry":{"type":"LineString","coordinates":[[-75.385847,35.056604],[-75.385847,35.063342],[-75.385847,35.070081],[-75.392586,35.076819],[-75.385847,35.076819],[-75.379107,35.076819],[-75.365628,35.076819],[-75.358888,35.076819],[-75.352148,35.076819],[-75.379107,35.083558],[-75.372367,35.083558],[-75.365628,35.083558],[-75.352148,35.083558],[-75.345409,35.083558],[-75.338669,35.083558],[-75.385847,35.090296],[-75.379107,35.090296],[-75.365628,35.090296],[-75.358888,35.090296],[-75.352148,35.090296],[-75.338669,35.090296],[-75.392586,35.097035],[-75.385847,35.097035],[-75.365628,35.097035],[-75.352148,35.097035],[-75.345409,35.097035],[-75.338669,35.097035],[-75.399326,35.103774],[-75.392586,35.103774],[-75.372367,35.103774],[-75.365628,35.103774],[-75.399326,35.110512],[-75.372367,35.110512],[-75.513901,35.117251],[-75.406066,35.117251],[-75.372367,35.117251],[-75.513901,35.123989],[-75.507161,35.123989],[-75.500421,35.123989],[-75.493682,35.123989],[-75.486942,35.123989],[-75.480202,35.123989],[-75.473463,35.123989],[-75.466723,35.123989],[-75.459983,35.123989],[-75.453243,35.123989],[-75.446504,35.123989],[-75.439764,35.123989],[-75.433024,35.123989],[-75.426285,35.123989],[-75.419545,35.123989],[-75.412805,35.123989],[-75.406066,35.123989],[-75.399326,35.123989],[-75.392586,35.123989],[-75.385847,35.123989],[-75.379107,35.123989],[-75.372367,35.123989],[-75.52064,35.130728],[-75.513901,35.130728],[-75.385847,35.130728],[-75.372367,35.130728],[-75.385847,35.137466],[-75.379107,35.137466],[-75.372367,35.137466],[-75.379107,35.144205]]},"properties":{"source_var":"chl","pixel_count":66,"strength_unit":"fold","strength_median":3.3707,"strength_max":12.2186}},{"type":"Feature","geometry":{"type":"LineString","coordinates":[[-80.905644,31.202156],[-80.905644,31.208895],[-80.905644,31.215633],[-80.912384,31.222372],[-80.905644,31.222372],[-80.824768,31.222372],[-80.905644,31.229111],[-80.885425,31.229111],[-80.831508,31.229111],[-80.824768,31.229111],[-80.905644,31.235849],[-80.898905,31.235849],[-80.892165,31.235849],[-80.885425,31.235849],[-80.824768,31.235849],[-80.905644,31.242588],[-80.831508,31.242588],[-80.824768,31.242588],[-80.818029,31.242588],[-80.905644,31.249326],[-80.871946,31.249326],[-80.831508,31.249326],[-80.818029,31.249326],[-80.905644,31.256065],[-80.898905,31.256065],[-80.892165,31.256065],[-80.885425,31.256065],[-80.878686,31.256065],[-80.871946,31.256065],[-80.865206,31.256065],[-80.858467,31.256065],[-80.851727,31.256065],[-80.838248,31.256065],[-80.831508,31.256065],[-80.824768,31.256065],[-80.818029,31.256065],[-80.811289,31.256065],[-80.804549,31.256065],[-80.79781,31.256065],[-80.79107,31.256065],[-80.777591,31.256065],[-80.770851,31.256065],[-80.764111,31.256065],[-80.851727,31.262803],[-80.844987,31.262803],[-80.838248,31.262803],[-80.804549,31.262803],[-80.79107,31.262803],[-80.78433,31.262803],[-80.777591,31.262803],[-80.851727,31.269542],[-80.838248,31.269542],[-80.804549,31.269542],[-80.79781,31.269542],[-80.79107,31.269542],[-80.78433,31.269542],[-80.777591,31.269542],[-80.851727,31.27628],[-80.844987,31.27628],[-80.838248,31.27628],[-80.79107,31.27628],[-80.777591,31.27628],[-80.79107,31.283019],[-80.78433,31.283019],[-80.777591,31.283019]]},"properties":{"source_var":"chl","pixel_count":65,"strength_unit":"fold","strength_median":2.1027,"strength_max":2.9268}},{"type":"Feature","geometry":{"type":"LineString","coordinates":[[-80.764111,31.83558],[-80.757372,31.83558],[-80.750632,31.83558],[-80.750632,31.842318],[-80.750632,31.849057],[-80.716933,31.849057],[-80.750632,31.855795],[-80.743892,31.855795],[-80.737152,31.855795],[-80.730413,31.855795],[-80.723673,31.855795],[-80.716933,31.855795],[-80.750632,31.862534],[-80.716933,31.862534],[-80.710194,31.862534],[-80.79107,31.869272],[-80.78433,31.869272],[-80.777591,31.869272],[-80.750632,31.869272],[-80.710194,31.869272],[-80.703454,31.869272],[-80.79781,31.876011],[-80.79107,31.876011],[-80.770851,31.876011],[-80.764111,31.876011],[-80.757372,31.876011],[-80.750632,31.876011],[-80.743892,31.876011],[-80.79781,31.882749],[-80.764111,31.882749],[-80.79781,31.889488],[-80.770851,31.889488],[-80.764111,31.889488],[-80.824768,31.896226],[-80.818029,31.896226],[-80.811289,31.896226],[-80.804549,31.896226],[-80.79781,31.896226],[-80.79107,31.896226],[-80.78433,31.896226],[-80.777591,31.896226],[-80.770851,31.896226],[-80.79781,31.902965],[-80.78433,31.902965],[-80.79781,31.909704],[-80.79107,31.909704],[-80.78433,31.909704],[-80.851727,31.916442],[-80.844987,31.916442],[-80.838248,31.916442],[-80.831508,31.916442],[-80.824768,31.916442],[-80.818029,31.916442],[-80.811289,31.916442],[-80.804549,31.916442],[-80.79781,31.916442],[-80.79107,31.916442],[-80.79107,31.923181],[-80.78433,31.923181],[-80.777591,31.923181],[-80.79107,31.929919],[-80.79107,31.936658],[-80.79107,31.943396],[-80.79107,31.950135]]},"properties":{"source_var":"chl","pixel_count":64,"strength_unit":"fold","strength_median":5.9604,"strength_max":5.9604}},{"type":"Feature","geometry":{"type":"LineString","coordinates":[[-77.63016,33.843666],[-77.62342,33.843666],[-77.6369,33.850404],[-77.63016,33.850404],[-77.6369,33.857143],[-77.6369,33.863881],[-77.6369,33.87062],[-77.6369,33.877358],[-77.6369,33.884097],[-77.6369,33.890836],[-77.6369,33.897574],[-77.697557,33.904313],[-77.6369,33.904313],[-77.711036,33.911051],[-77.704297,33.911051],[-77.697557,33.911051],[-77.677338,33.911051],[-77.670598,33.911051],[-77.663858,33.911051],[-77.657119,33.911051],[-77.650379,33.911051],[-77.643639,33.911051],[-77.6369,33.911051],[-77.63016,33.911051],[-77.711036,33.91779],[-77.697557,33.91779],[-77.690817,33.91779],[-77.684078,33.91779],[-77.677338,33.91779],[-77.663858,33.91779],[-77.63016,33.91779],[-77.62342,33.91779],[-77.616681,33.91779],[-77.609941,33.91779],[-77.603201,33.91779],[-77.596462,33.91779],[-77.589722,33.91779],[-77.731255,33.924528],[-77.724516,33.924528],[-77.717776,33.924528],[-77.711036,33.924528],[-77.704297,33.924528],[-77.697557,33.924528],[-77.677338,33.924528],[-77.670598,33.924528],[-77.663858,33.924528],[-77.657119,33.924528],[-77.63016,33.924528],[-77.589722,33.924528],[-77.6369,33.931267],[-77.63016,33.931267],[-77.589722,33.931267],[-77.643639,33.938005],[-77.6369,33.938005],[-77.589722,33.938005],[-77.6369,33.944744],[-77.589722,33.944744],[-77.6369,33.951482],[-77.589722,33.951482],[-77.582982,33.951482],[-77.576243,33.951482],[-77.569503,33.951482],[-77.562763,33.951482]]},"properties":{"source_var":"chl","pixel_count":63,"strength_unit":"fold","strength_median":2.0765,"strength_max":3.8981}},{"type":"Feature","geometry":{"type":"LineString","coordinates":[[-80.063184,31.714286],[-80.056445,31.714286],[-80.049705,31.714286],[-80.042965,31.714286],[-80.022746,31.714286],[-80.056445,31.721024],[-80.042965,31.721024],[-80.036226,31.721024],[-80.029486,31.721024],[-80.022746,31.721024],[-80.056445,31.727763],[-80.049705,31.727763],[-80.042965,31.727763],[-80.049705,31.734501],[-80.042965,31.734501],[-80.036226,31.734501],[-80.049705,31.74124],[-80.036226,31.74124],[-80.049705,31.747978],[-80.042965,31.747978],[-80.036226,31.747978],[-80.049705,31.754717],[-80.042965,31.754717],[-80.036226,31.754717],[-80.049705,31.761456],[-80.036226,31.761456],[-80.083404,31.768194],[-80.049705,31.768194],[-80.042965,31.768194],[-80.036226,31.768194],[-80.009267,31.768194],[-80.002527,31.768194],[-80.083404,31.774933],[-80.076664,31.774933],[-80.069924,31.774933],[-80.042965,31.774933],[-80.036226,31.774933],[-80.029486,31.774933],[-80.022746,31.774933],[-80.016007,31.774933],[-80.009267,31.774933],[-80.083404,31.781671],[-80.069924,31.781671],[-80.063184,31.781671],[-80.056445,31.781671],[-80.049705,31.781671],[-80.042965,31.781671],[-80.036226,31.781671],[-80.022746,31.781671],[-80.016007,31.781671],[-80.083404,31.78841],[-80.076664,31.78841],[-80.069924,31.78841],[-80.056445,31.78841],[-80.036226,31.78841],[-80.029486,31.78841],[-80.022746,31.78841],[-80.069924,31.795148],[-80.063184,31.795148],[-80.056445,31.795148],[-80.049705,31.795148],[-80.049705,31.801887]]},"properties":{"source_var":"chl","pixel_count":62,"strength_unit":"fold","strength_median":2.8195,"strength_max":2.9301}},{"type":"Feature","geometry":{"type":"LineString","coordinates":[[-78.755687,32.367925],[-78.748947,32.367925],[-78.742207,32.367925],[-78.755687,32.374663],[-78.742207,32.374663],[-78.755687,32.381402],[-78.748947,32.381402],[-78.742207,32.381402],[-78.769166,32.38814],[-78.762426,32.38814],[-78.755687,32.38814],[-78.748947,32.38814],[-78.775906,32.394879],[-78.769166,32.394879],[-78.742207,32.394879],[-78.836563,32.401617],[-78.802864,32.401617],[-78.782645,32.401617],[-78.775906,32.401617],[-78.742207,32.401617],[-78.735468,32.401617],[-78.728728,32.401617],[-78.836563,32.408356],[-78.829823,32.408356],[-78.823083,32.408356],[-78.816344,32.408356],[-78.809604,32.408356],[-78.802864,32.408356],[-78.796125,32.408356],[-78.789385,32.408356],[-78.782645,32.408356],[-78.742207,32.408356],[-78.728728,32.408356],[-78.721988,32.408356],[-78.715249,32.408356],[-78.789385,32.415094],[-78.762426,32.415094],[-78.755687,32.415094],[-78.748947,32.415094],[-78.742207,32.415094],[-78.735468,32.415094],[-78.728728,32.415094],[-78.715249,32.415094],[-78.796125,32.421833],[-78.789385,32.421833],[-78.782645,32.421833],[-78.769166,32.421833],[-78.762426,32.421833],[-78.735468,32.421833],[-78.715249,32.421833],[-78.796125,32.428571],[-78.782645,32.428571],[-78.775906,32.428571],[-78.769166,32.428571],[-78.728728,32.428571],[-78.721988,32.428571],[-78.715249,32.428571],[-78.708509,32.428571],[-78.796125,32.43531],[-78.789385,32.43531],[-78.782645,32.43531],[-78.775906,32.43531]]},"properties":{"source_var":"chl","pixel_count":62,"strength_unit":"fold","strength_median":1.9482,"strength_max":1.9482}},{"type":"Feature","geometry":{"type":"LineString","coordinates":[[-78.317607,33.803235],[-78.317607,33.809973],[-78.364785,33.816712],[-78.331087,33.816712],[-78.324347,33.816712],[-78.317607,33.816712],[-78.364785,33.82345],[-78.337826,33.82345],[-78.331087,33.82345],[-78.317607,33.82345],[-78.364785,33.830189],[-78.351306,33.830189],[-78.344566,33.830189],[-78.337826,33.830189],[-78.324347,33.830189],[-78.317607,33.830189],[-78.310868,33.830189],[-78.304128,33.830189],[-78.297388,33.830189],[-78.290649,33.830189],[-78.364785,33.836927],[-78.358045,33.836927],[-78.351306,33.836927],[-78.337826,33.836927],[-78.331087,33.836927],[-78.324347,33.836927],[-78.290649,33.836927],[-78.371525,33.843666],[-78.364785,33.843666],[-78.358045,33.843666],[-78.378265,33.850404],[-78.371525,33.850404],[-78.358045,33.850404],[-78.351306,33.850404],[-78.344566,33.850404],[-78.385004,33.857143],[-78.378265,33.857143],[-78.358045,33.857143],[-78.344566,33.857143],[-78.358045,33.863881],[-78.351306,33.863881],[-78.344566,33.863881],[-78.351306,33.87062],[-78.351306,33.877358],[-78.378265,33.884097],[-78.371525,33.884097],[-78.364785,33.884097],[-78.358045,33.884097],[-78.351306,33.884097],[-78.344566,33.884097],[-78.337826,33.884097],[-78.331087,33.884097],[-78.324347,33.884097],[-78.317607,33.884097],[-78.310868,33.884097],[-78.310868,33.890836],[-78.304128,33.890836],[-78.297388,33.890836],[-78.290649,33.890836],[-78.283909,33.890836],[-78.277169,33.890836],[-78.27043,33.890836]]},"properties":{"source_var":"chl","pixel_count":62,"strength_unit":"fold","strength_median":5.9979,"strength_max":9.0251}},{"type":"Feature","geometry":{"type":"LineString","coordinates":[[-79.550969,32.71159],[-79.550969,32.718329],[-79.550969,32.725067],[-79.550969,32.731806],[-79.544229,32.731806],[-79.537489,32.731806],[-79.53075,32.731806],[-79.591407,32.738544],[-79.584667,32.738544],[-79.577928,32.738544],[-79.571188,32.738544],[-79.564448,32.738544],[-79.557709,32.738544],[-79.550969,32.738544],[-79.577928,32.745283],[-79.550969,32.745283],[-79.577928,32.752022],[-79.550969,32.752022],[-79.503791,32.752022],[-79.577928,32.75876],[-79.550969,32.75876],[-79.544229,32.75876],[-79.537489,32.75876],[-79.510531,32.75876],[-79.503791,32.75876],[-79.497051,32.75876],[-79.490312,32.75876],[-79.577928,32.765499],[-79.550969,32.765499],[-79.537489,32.765499],[-79.53075,32.765499],[-79.52401,32.765499],[-79.51727,32.765499],[-79.510531,32.765499],[-79.490312,32.765499],[-79.571188,32.772237],[-79.564448,32.772237],[-79.557709,32.772237],[-79.550969,32.772237],[-79.544229,32.772237],[-79.537489,32.772237],[-79.510531,32.772237],[-79.490312,32.772237],[-79.571188,32.778976],[-79.557709,32.778976],[-79.53075,32.778976],[-79.510531,32.778976],[-79.490312,32.778976],[-79.591407,32.785714],[-79.584667,32.785714],[-79.577928,32.785714],[-79.571188,32.785714],[-79.564448,32.785714],[-79.53075,32.785714],[-79.510531,32.785714],[-79.564448,32.792453],[-79.53075,32.792453],[-79.52401,32.792453],[-79.51727,32.792453],[-79.510531,32.792453],[-79.510531,32.799191]]},"properties":{"source_var":"chl","pixel_count":61,"strength_unit":"fold","strength_median":6.1566,"strength_max":8.6658}},{"type":"Feature","geometry":{"type":"LineString","coordinates":[[-76.713564,34.665768],[-76.693345,34.665768],[-76.727043,34.672507],[-76.720303,34.672507],[-76.713564,34.672507],[-76.706824,34.672507],[-76.700084,34.672507],[-76.693345,34.672507],[-76.686605,34.672507],[-76.679865,34.672507],[-76.727043,34.679245],[-76.713564,34.679245],[-76.686605,34.679245],[-76.727043,34.685984],[-76.720303,34.685984],[-76.713564,34.685984],[-76.686605,34.685984],[-76.639427,34.685984],[-76.625948,34.685984],[-76.619208,34.685984],[-76.612468,34.685984],[-76.754002,34.692722],[-76.747262,34.692722],[-76.740522,34.692722],[-76.733783,34.692722],[-76.727043,34.692722],[-76.720303,34.692722],[-76.679865,34.692722],[-76.673126,34.692722],[-76.666386,34.692722],[-76.659646,34.692722],[-76.652906,34.692722],[-76.646167,34.692722],[-76.639427,34.692722],[-76.632687,34.692722],[-76.625948,34.692722],[-76.612468,34.692722],[-76.78096,34.699461],[-76.774221,34.699461],[-76.767481,34.699461],[-76.760741,34.699461],[-76.754002,34.699461],[-76.733783,34.699461],[-76.720303,34.699461],[-76.713564,34.699461],[-76.706824,34.699461],[-76.700084,34.699461],[-76.693345,34.699461],[-76.686605,34.699461],[-76.679865,34.699461],[-76.673126,34.699461],[-76.646167,34.699461],[-76.625948,34.699461],[-76.619208,34.699461],[-76.612468,34.699461],[-76.673126,34.706199],[-76.652906,34.706199],[-76.646167,34.706199],[-76.673126,34.712938],[-76.666386,34.712938],[-76.659646,34.712938]]},"properties":{"source_var":"chl","pixel_count":61,"strength_unit":"fold","strength_median":17.0143,"strength_max":17.0143}},{"type":"Feature","geometry":{"type":"LineString","coordinates":[[-75.594777,34.921833],[-75.594777,34.928571],[-75.594777,34.93531],[-75.594777,34.942049],[-75.594777,34.948787],[-75.614996,34.955526],[-75.608256,34.955526],[-75.601516,34.955526],[-75.594777,34.955526],[-75.588037,34.955526],[-75.581297,34.955526],[-75.635215,34.962264],[-75.628475,34.962264],[-75.621735,34.962264],[-75.614996,34.962264],[-75.635215,34.969003],[-75.621735,34.969003],[-75.614996,34.969003],[-75.561078,34.969003],[-75.554339,34.969003],[-75.547599,34.969003],[-75.635215,34.975741],[-75.628475,34.975741],[-75.614996,34.975741],[-75.547599,34.975741],[-75.540859,34.975741],[-75.53412,34.975741],[-75.628475,34.98248],[-75.621735,34.98248],[-75.614996,34.98248],[-75.547599,34.98248],[-75.53412,34.98248],[-75.621735,34.989218],[-75.547599,34.989218],[-75.540859,34.989218],[-75.53412,34.989218],[-75.621735,34.995957],[-75.574558,34.995957],[-75.567818,34.995957],[-75.561078,34.995957],[-75.554339,34.995957],[-75.547599,34.995957],[-75.621735,35.002695],[-75.581297,35.002695],[-75.574558,35.002695],[-75.628475,35.009434],[-75.621735,35.009434],[-75.614996,35.009434],[-75.608256,35.009434],[-75.601516,35.009434],[-75.594777,35.009434],[-75.588037,35.009434],[-75.581297,35.009434],[-75.628475,35.016173],[-75.614996,35.016173],[-75.621735,35.022911],[-75.614996,35.022911],[-75.621735,35.02965],[-75.614996,35.02965]]},"properties":{"source_var":"chl","pixel_count":59,"strength_unit":"fold","strength_median":2.918,"strength_max":16.7096}}]}