{"type":"FeatureCollection","variable":"chl_front_trial","source_variable":"chl","source_frame":"data/usec_south/chl/usec_south_2026139.1654_chl_VJ2.json","generated_at":"2026-05-19T19:49:57.009000Z","bbox":[-81.0,31.0,-73.0,36.0],"ny":742,"nx":1187,"algorithm":{"name":"boa_local_histogram_log_chl_v0","window_px":41,"stride_px":6,"transform":"log_chl","min_class_delta":0.30010459245033816,"min_cohesion":0.45},"features":[{"type":"Feature","geometry":{"type":"LineString","coordinates":[[-74.166948,31.425101],[-74.160202,31.425101],[-74.166948,31.431849],[-74.160202,31.431849],[-74.173693,31.438596],[-74.166948,31.438596],[-74.133221,31.438596],[-74.126476,31.438596],[-74.11973,31.438596],[-74.193929,31.445344],[-74.187184,31.445344],[-74.173693,31.445344],[-74.166948,31.445344],[-74.160202,31.445344],[-74.139966,31.445344],[-74.133221,31.445344],[-74.126476,31.445344],[-74.11973,31.445344],[-74.193929,31.452092],[-74.187184,31.452092],[-74.173693,31.452092],[-74.166948,31.452092],[-74.160202,31.452092],[-74.139966,31.452092],[-74.133221,31.452092],[-74.126476,31.452092],[-74.11973,31.452092],[-74.112985,31.452092],[-74.106239,31.452092],[-74.200675,31.458839],[-74.193929,31.458839],[-74.187184,31.458839],[-74.173693,31.458839],[-74.166948,31.458839],[-74.160202,31.458839],[-74.153457,31.458839],[-74.146712,31.458839],[-74.139966,31.458839],[-74.133221,31.458839],[-74.11973,31.458839],[-74.112985,31.458839],[-74.106239,31.458839],[-74.200675,31.465587],[-74.193929,31.465587],[-74.166948,31.465587],[-74.160202,31.465587],[-74.153457,31.465587],[-74.146712,31.465587],[-74.139966,31.465587],[-74.133221,31.465587],[-74.11973,31.465587],[-74.112985,31.465587],[-74.106239,31.465587],[-74.193929,31.472335],[-74.187184,31.472335],[-74.160202,31.472335],[-74.153457,31.472335],[-74.146712,31.472335],[-74.139966,31.472335],[-74.133221,31.472335],[-74.193929,31.479082],[-74.187184,31.479082],[-74.173693,31.479082],[-74.166948,31.479082],[-74.160202,31.479082],[-74.187184,31.48583],[-74.180438,31.48583],[-74.173693,31.48583],[-74.166948,31.48583],[-74.160202,31.48583],[-74.153457,31.48583],[-74.187184,31.492578],[-74.180438,31.492578],[-74.173693,31.492578],[-74.166948,31.492578],[-74.160202,31.492578],[-74.153457,31.492578],[-74.180438,31.499325],[-74.173693,31.499325],[-74.166948,31.499325],[-74.160202,31.499325],[-74.153457,31.499325]]},"properties":{"source_var":"chl","pixel_count":82,"strength_unit":"fold","strength_median":1.5463,"strength_max":1.6525}},{"type":"Feature","geometry":{"type":"LineString","coordinates":[[-75.070826,33.159244],[-75.064081,33.159244],[-75.070826,33.165992],[-75.064081,33.165992],[-75.091062,33.17274],[-75.084317,33.17274],[-75.070826,33.17274],[-75.064081,33.17274],[-75.05059,33.17274],[-75.043845,33.17274],[-75.037099,33.17274],[-75.030354,33.17274],[-75.023609,33.17274],[-75.016863,33.17274],[-75.010118,33.17274],[-75.003373,33.17274],[-75.091062,33.179487],[-75.084317,33.179487],[-75.077572,33.179487],[-75.070826,33.179487],[-75.064081,33.179487],[-75.05059,33.179487],[-75.043845,33.179487],[-75.037099,33.179487],[-75.030354,33.179487],[-75.023609,33.179487],[-75.016863,33.179487],[-75.010118,33.179487],[-75.003373,33.179487],[-75.091062,33.186235],[-75.084317,33.186235],[-75.077572,33.186235],[-75.070826,33.186235],[-75.064081,33.186235],[-75.057336,33.186235],[-75.05059,33.186235],[-75.043845,33.186235],[-75.037099,33.186235],[-75.030354,33.186235],[-75.023609,33.186235],[-75.016863,33.186235],[-75.091062,33.192982],[-75.084317,33.192982],[-75.077572,33.192982],[-75.070826,33.192982],[-75.064081,33.192982],[-75.057336,33.192982],[-75.05059,33.192982],[-75.043845,33.192982],[-75.077572,33.19973],[-75.070826,33.19973],[-75.064081,33.19973],[-75.057336,33.19973]]},"properties":{"source_var":"chl","pixel_count":53,"strength_unit":"fold","strength_median":1.039,"strength_max":1.1261}},{"type":"Feature","geometry":{"type":"LineString","coordinates":[[-73.431703,32.612686],[-73.424958,32.612686],[-73.431703,32.619433],[-73.424958,32.619433],[-73.418212,32.619433],[-73.424958,32.626181],[-73.418212,32.626181],[-73.411467,32.626181],[-73.424958,32.632928],[-73.418212,32.632928],[-73.411467,32.632928],[-73.424958,32.639676],[-73.418212,32.639676],[-73.424958,32.646424],[-73.418212,32.646424],[-73.424958,32.653171],[-73.418212,32.653171],[-73.424958,32.659919],[-73.418212,32.659919],[-73.438449,32.666667],[-73.431703,32.666667],[-73.424958,32.666667],[-73.418212,32.666667],[-73.438449,32.673414],[-73.431703,32.673414]]},"properties":{"source_var":"chl","pixel_count":25,"strength_unit":"fold","strength_median":0.6842,"strength_max":1.0485}},{"type":"Feature","geometry":{"type":"LineString","coordinates":[[-74.780776,32.754386],[-74.77403,32.754386],[-74.767285,32.754386],[-74.780776,32.761134],[-74.77403,32.761134],[-74.767285,32.761134],[-74.76054,32.761134],[-74.753794,32.761134],[-74.787521,32.767881],[-74.780776,32.767881],[-74.77403,32.767881],[-74.767285,32.767881],[-74.76054,32.767881],[-74.753794,32.767881],[-74.787521,32.774629],[-74.780776,32.774629],[-74.787521,32.781377],[-74.780776,32.781377],[-74.787521,32.788124],[-74.780776,32.788124]]},"properties":{"source_var":"chl","pixel_count":20,"strength_unit":"fold","strength_median":0.9663,"strength_max":0.9778}},{"type":"Feature","geometry":{"type":"LineString","coordinates":[[-74.922428,32.491228],[-74.915683,32.491228],[-74.908938,32.491228],[-74.902192,32.491228],[-74.895447,32.491228],[-74.888702,32.491228],[-74.929174,32.497976],[-74.922428,32.497976],[-74.915683,32.497976],[-74.908938,32.497976],[-74.902192,32.497976],[-74.895447,32.497976],[-74.888702,32.497976],[-74.929174,32.504723],[-74.922428,32.504723],[-74.902192,32.504723],[-74.895447,32.504723],[-74.929174,32.511471],[-74.922428,32.511471]]},"properties":{"source_var":"chl","pixel_count":19,"strength_unit":"fold","strength_median":0.8986,"strength_max":1.3073}},{"type":"Feature","geometry":{"type":"LineString","coordinates":[[-74.193929,33.17274],[-74.187184,33.17274],[-74.180438,33.17274],[-74.173693,33.17274],[-74.214165,33.179487],[-74.20742,33.179487],[-74.200675,33.179487],[-74.193929,33.179487],[-74.187184,33.179487],[-74.180438,33.179487],[-74.173693,33.179487],[-74.214165,33.186235],[-74.20742,33.186235],[-74.200675,33.186235],[-74.193929,33.186235],[-74.187184,33.186235],[-74.214165,33.192982],[-74.20742,33.192982]]},"properties":{"source_var":"chl","pixel_count":18,"strength_unit":"fold","strength_median":1.1244,"strength_max":1.2725}}]}