{"type":"FeatureCollection","variable":"sst_front_trial","source_variable":"sst","source_frame":"data/usec_south/sst/sst_usec_south_2026139_20260519_17_g19.json","generated_at":"2026-05-19T20:04:27.440830Z","bbox":[-81.0,31.0,-73.02000000000159,35.97999999999989],"ny":250,"nx":400,"algorithm":{"name":"cca_sied_local_histogram_sst_v0","window_px":49,"stride_px":6,"transform":"linear","min_class_delta":0.45,"min_cohesion":0.42},"features":[{"type":"Feature","geometry":{"type":"LineString","coordinates":[[-75.48,31.26],[-75.48,31.28],[-75.48,31.3],[-75.48,31.32],[-75.54,31.34],[-75.48,31.34],[-75.54,31.36],[-75.52,31.36],[-75.5,31.36],[-75.48,31.36],[-75.46,31.36],[-75.52,31.38],[-75.46,31.38],[-75.52,31.4],[-75.46,31.4],[-75.52,31.42],[-75.46,31.42],[-75.52,31.44],[-75.46,31.44],[-75.52,31.46],[-75.46,31.46],[-75.52,31.48],[-75.46,31.48],[-75.54,31.5],[-75.52,31.5],[-75.5,31.5],[-75.48,31.5],[-75.46,31.5],[-75.54,31.52],[-75.46,31.52],[-75.54,31.54],[-75.46,31.54],[-75.54,31.56],[-75.46,31.56],[-75.54,31.58],[-75.46,31.58],[-75.54,31.6],[-75.46,31.6],[-75.54,31.62],[-75.5,31.62],[-75.48,31.62],[-75.54,31.64],[-75.52,31.64],[-75.5,31.64],[-75.5,31.66],[-75.5,31.68],[-75.5,31.7],[-75.5,31.72]]},"properties":{"source_var":"sst","pixel_count":48,"strength_unit":"degC","strength_median":3.5234,"strength_max":3.6424}},{"type":"Feature","geometry":{"type":"LineString","coordinates":[[-78.16,34.12],[-78.14,34.12],[-78.16,34.14],[-78.16,34.16],[-78.16,34.18],[-78.16,34.2],[-78.18,34.22],[-78.16,34.22],[-78.14,34.22],[-78.12,34.22],[-78.1,34.22],[-78.18,34.24],[-78.18,34.26],[-78.06,34.26],[-78.3,34.28],[-78.28,34.28],[-78.26,34.28],[-78.24,34.28],[-78.22,34.28],[-78.2,34.28],[-78.18,34.28],[-78.06,34.28],[-78.18,34.3],[-78.06,34.3],[-78.18,34.32],[-78.06,34.32],[-78.18,34.34],[-78.16,34.34],[-78.14,34.34],[-78.12,34.34],[-78.1,34.34],[-78.08,34.34],[-78.06,34.34],[-78.04,34.34],[-78.02,34.34],[-78.0,34.34],[-77.98,34.34],[-77.96,34.34],[-77.94,34.34],[-77.92,34.34]]},"properties":{"source_var":"sst","pixel_count":40,"strength_unit":"degC","strength_median":2.0194,"strength_max":2.1323}},{"type":"Feature","geometry":{"type":"LineString","coordinates":[[-75.68,31.74],[-75.72,31.76],[-75.7,31.76],[-75.68,31.76],[-75.74,31.78],[-75.72,31.78],[-75.88,31.8],[-75.86,31.8],[-75.84,31.8],[-75.82,31.8],[-75.8,31.8],[-75.78,31.8],[-75.76,31.8],[-75.74,31.8],[-75.92,31.82],[-75.9,31.82],[-75.88,31.82],[-75.84,31.82],[-75.98,31.84],[-75.92,31.84],[-75.88,31.84],[-75.86,31.84],[-75.84,31.84],[-75.98,31.86],[-75.96,31.86],[-75.94,31.86],[-75.92,31.86],[-75.9,31.86],[-75.88,31.86],[-75.98,31.88],[-76.0,31.9],[-75.98,31.9],[-76.06,31.92],[-76.04,31.92],[-76.02,31.92],[-76.0,31.92]]},"properties":{"source_var":"sst","pixel_count":36,"strength_unit":"degC","strength_median":3.0454,"strength_max":3.2956}},{"type":"Feature","geometry":{"type":"LineString","coordinates":[[-76.12,31.94],[-76.1,31.94],[-76.08,31.94],[-76.12,31.96],[-76.08,31.96],[-76.28,31.98],[-76.18,31.98],[-76.16,31.98],[-76.14,31.98],[-76.12,31.98],[-76.1,31.98],[-76.08,31.98],[-76.28,32.0],[-76.26,32.0],[-76.24,32.0],[-76.22,32.0],[-76.2,32.0],[-76.18,32.0],[-76.14,32.0],[-76.28,32.02],[-76.2,32.02],[-76.16,32.02],[-76.14,32.02],[-76.28,32.04],[-76.26,32.04],[-76.2,32.04],[-76.18,32.04],[-76.16,32.04],[-76.28,32.06],[-76.24,32.06],[-76.22,32.06],[-76.2,32.06],[-76.28,32.08],[-76.26,32.08],[-76.24,32.08],[-76.28,32.1]]},"properties":{"source_var":"sst","pixel_count":36,"strength_unit":"degC","strength_median":2.7119,"strength_max":2.9829}},{"type":"Feature","geometry":{"type":"LineString","coordinates":[[-78.54,35.0],[-78.52,35.0],[-78.52,35.02],[-78.5,35.02],[-78.5,35.04],[-78.48,35.04],[-78.46,35.04],[-78.5,35.06],[-78.46,35.06],[-78.44,35.06],[-78.42,35.06],[-78.4,35.06],[-78.38,35.06],[-78.36,35.06],[-78.34,35.06],[-78.32,35.06],[-78.3,35.06],[-78.28,35.06],[-78.26,35.06],[-78.24,35.06],[-78.22,35.06],[-78.2,35.06],[-78.52,35.08],[-78.46,35.08],[-78.58,35.1],[-78.56,35.1],[-78.54,35.1],[-78.52,35.1],[-78.46,35.1],[-78.52,35.12],[-78.5,35.12],[-78.48,35.12],[-78.46,35.12],[-78.46,35.14]]},"properties":{"source_var":"sst","pixel_count":34,"strength_unit":"degC","strength_median":2.2289,"strength_max":2.5493}},{"type":"Feature","geometry":{"type":"LineString","coordinates":[[-74.26,33.02],[-74.32,33.04],[-74.26,33.04],[-74.24,33.04],[-74.22,33.04],[-74.2,33.04],[-74.18,33.04],[-74.16,33.04],[-74.14,33.04],[-74.12,33.04],[-74.42,33.06],[-74.4,33.06],[-74.38,33.06],[-74.36,33.06],[-74.34,33.06],[-74.32,33.06],[-74.3,33.06],[-74.28,33.06],[-74.26,33.06],[-74.44,33.08],[-74.42,33.08],[-74.36,33.08],[-74.28,33.08],[-74.44,33.1],[-74.38,33.1],[-74.36,33.1],[-74.28,33.1],[-74.42,33.12],[-74.4,33.12],[-74.38,33.12],[-74.42,33.14],[-74.42,33.16],[-74.42,33.18]]},"properties":{"source_var":"sst","pixel_count":33,"strength_unit":"degC","strength_median":3.5595,"strength_max":3.6488}},{"type":"Feature","geometry":{"type":"LineString","coordinates":[[-80.18,35.34],[-80.28,35.36],[-80.26,35.36],[-80.24,35.36],[-80.18,35.36],[-80.28,35.38],[-80.24,35.38],[-80.22,35.38],[-80.2,35.38],[-80.18,35.38],[-80.26,35.4],[-80.24,35.4],[-80.18,35.4],[-80.28,35.42],[-80.26,35.42],[-80.18,35.42],[-80.28,35.44],[-80.2,35.44],[-80.18,35.44],[-80.3,35.46],[-80.28,35.46],[-80.2,35.46],[-80.3,35.48],[-80.3,35.5],[-80.26,35.5],[-80.24,35.5],[-80.3,35.52],[-80.28,35.52],[-80.26,35.52],[-80.32,35.54],[-80.3,35.54],[-80.28,35.54]]},"properties":{"source_var":"sst","pixel_count":32,"strength_unit":"degC","strength_median":3.2779,"strength_max":3.7161}},{"type":"Feature","geometry":{"type":"LineString","coordinates":[[-76.7,33.12],[-76.72,33.14],[-76.7,33.14],[-76.72,33.16],[-76.72,33.18],[-76.72,33.2],[-76.64,33.2],[-76.62,33.2],[-76.6,33.2],[-76.58,33.2],[-76.56,33.2],[-76.54,33.2],[-76.52,33.2],[-76.72,33.22],[-76.7,33.22],[-76.68,33.22],[-76.66,33.22],[-76.64,33.22],[-76.7,33.24],[-76.7,33.26],[-76.7,33.28],[-76.7,33.3],[-76.72,33.32],[-76.7,33.32]]},"properties":{"source_var":"sst","pixel_count":24,"strength_unit":"degC","strength_median":2.0916,"strength_max":2.1826}},{"type":"Feature","geometry":{"type":"LineString","coordinates":[[-76.12,32.6],[-76.12,32.62],[-76.12,32.64],[-76.12,32.66],[-76.18,32.68],[-76.12,32.68],[-76.1,32.68],[-76.08,32.68],[-76.06,32.68],[-76.04,32.68],[-76.02,32.68],[-76.0,32.68],[-76.18,32.7],[-76.16,32.7],[-76.14,32.7],[-76.12,32.7],[-76.1,32.7],[-76.2,32.72],[-76.18,32.72],[-76.1,32.72],[-76.1,32.74],[-76.1,32.76],[-76.1,32.78]]},"properties":{"source_var":"sst","pixel_count":23,"strength_unit":"degC","strength_median":2.243,"strength_max":2.4941}},{"type":"Feature","geometry":{"type":"LineString","coordinates":[[-77.18,32.72],[-77.16,32.72],[-77.14,32.72],[-77.12,32.72],[-77.1,32.72],[-77.08,32.72],[-77.06,32.72],[-77.04,32.72],[-77.02,32.72],[-77.0,32.72],[-77.0,32.74],[-77.0,32.76],[-77.0,32.78],[-76.9,32.78],[-76.88,32.78],[-77.04,32.8],[-77.02,32.8],[-77.0,32.8],[-76.98,32.8],[-76.96,32.8],[-76.94,32.8],[-76.92,32.8],[-76.9,32.8]]},"properties":{"source_var":"sst","pixel_count":23,"strength_unit":"degC","strength_median":2.9683,"strength_max":2.9683}},{"type":"Feature","geometry":{"type":"LineString","coordinates":[[-76.42,34.26],[-76.4,34.26],[-76.38,34.26],[-76.36,34.26],[-76.48,34.28],[-76.46,34.28],[-76.44,34.28],[-76.42,34.28],[-76.6,34.3],[-76.58,34.3],[-76.56,34.3],[-76.54,34.3],[-76.52,34.3],[-76.5,34.3],[-76.48,34.3],[-76.44,34.3],[-76.42,34.3],[-76.4,34.3],[-76.48,34.32],[-76.46,34.32],[-76.44,34.32],[-76.4,34.32]]},"properties":{"source_var":"sst","pixel_count":22,"strength_unit":"degC","strength_median":1.7467,"strength_max":1.7467}}]}